name,lat,long,formatted_address,types
Audi Pantai Indah Kapuk,-6.1248837,106.7536631,"Jl Pantai Indah Selatan 1 ST/A, Jl. Pantai Indah Kapuk, RT.1/RW.6, Kapuk Muara, Kec. Penjaringan, Kota Jkt Utara, Daerah Khusus Ibukota Jakarta 14440, Indonesia","['car_dealer', 'store', 'point_of_interest', 'establishment']"
Audi Metropolitan Tower,-6.29262,106.7847235,"Jl.RA.Kartini Kav.14 TB Simatupang, RT.10/RW.4, Cilandak Bar., Kec. Cilandak, Kota Jakarta Selatan, Daerah Khusus Ibukota Jakarta 12430, Indonesia","['car_dealer', 'car_repair', 'store', 'point_of_interest', 'establishment']"
Audi BSD,-6.276187,106.658759,"Sektor VI Blok 201 Kav. 3 Bumi Serpong Damai, Lengkong Karya, Kec. Serpong Utara, Kota Tangerang Selatan, Banten 15310, Indonesia","['car_dealer', 'car_repair', 'store', 'point_of_interest', 'establishment']"
Audi Puri Indah,-6.1864565,106.7313519,"Jalan Komplek Puri Blok R No.1 Kembangan RT.1/RW.2, Kembangan Selatan, RT.1/RW.2, Kembangan Sel., Kec. Kembangan, Kota Jakarta Barat, Daerah Khusus Ibukota Jakarta 11610, Indonesia","['car_dealer', 'store', 'point_of_interest', 'establishment']"
Audi Center MT. Haryono,-6.2428591,106.8645059,"Gedung Indomobil Tower IV, Jl. Letjen M.T. Haryono No.Kav. 11, RW.6, Kp. Melayu, Kecamatan Jatinegara, Kota Jakarta Timur, Daerah Khusus Ibukota Jakarta 13330, Indonesia","['car_dealer', 'store', 'point_of_interest', 'establishment']"
Audi Indonesia (ATPM),-6.242672,106.863316,"Jl. Letjen M.T. Haryono No.6, RW.6, Kp. Melayu, Jakarta, Kota Jakarta Timur, Daerah Khusus Ibukota Jakarta 13330, Indonesia","['car_dealer', 'store', 'point_of_interest', 'establishment']"
AUDI CENTER JAKARTA INDONESIA,-6.1249521,106.754431,"Jl. Kapuk Muara Raya No.1, RT.1/RW.16, Kapuk Muara, Kec. Penjaringan, Kota Jkt Utara, Daerah Khusus Ibukota Jakarta 14460, Indonesia","['car_dealer', 'store', 'point_of_interest', 'establishment']"
Audi Halim Service Center,-6.2488121,106.880427,"Jl. Halim Perdanakusuma No.1 A, RT.1/RW.8, Kb. Pala, Kec. Makasar, Kota Jakarta Timur, Daerah Khusus Ibukota Jakarta 13330, Indonesia","['car_dealer', 'car_repair', 'store', 'point_of_interest', 'establishment']"
Audi jakarta selatan,-6.29249,106.784757,"Jl. RA Kartini Kav 14 TB Simatupang Metropolitan Tower Lantai 1, RT.10/RW.4, Cilandak Bar., Kec. Cilandak, Kota Jakarta Selatan, Daerah Khusus Ibukota Jakarta 12430, Indonesia","['car_dealer', 'store', 'point_of_interest', 'establishment']"
Volkswagen Audi Jakarta,-6.292661,106.784779,"Gedung Metropolitan Tower, Jl. RA Kartini Kav.14, TB. Simatupang, RT.10/RW.4, Cilandak Barat, Cilandak, RT.10/RW.4, Cilandak Bar., Kec. Cilandak, Kota Jakarta Selatan, Daerah Khusus Ibukota Jakarta 12490, Indonesia","['car_dealer', 'store', 'point_of_interest', 'establishment']"
Audi Indonesia Dealer Resmi,-6.1245195,106.7534564,"Jl. Pantai Indah Selatan 1 Blok Da No.1A, RT.1/RW.6, Kapuk Muara, Kec. Penjaringan, Kota Jkt Utara, Daerah Khusus Ibukota Jakarta 14460, Indonesia","['car_dealer', 'store', 'point_of_interest', 'establishment']"
Audi Kemayoran,-6.158127,106.8414413,"Jl. Angkasa, RT.5/RW.10, Gn. Sahari Sel., Kec. Kemayoran, Kota Jakarta Pusat, Daerah Khusus Ibukota Jakarta 13330, Indonesia","['car_dealer', 'store', 'point_of_interest', 'establishment']"
Showroom VW Audi Jakarta,-6.242513,106.862963,"Wisma Indomobil 1 Lt. 3, Jl. Letjen M.T. Haryono No.6, RW.6, Kp. Melayu, Kecamatan Jatinegara, Kota Jakarta Timur, Daerah Khusus Ibukota Jakarta 13330, Indonesia","['car_dealer', 'store', 'point_of_interest', 'establishment']"
Audi Wisma Indomobil - 081218018121,-6.242513,106.862963,"Jl MT Haryono kav 8, RW.6, Kp. Melayu, Kecamatan Jatinegara, Kota Jakarta Timur, Daerah Khusus Ibukota Jakarta 13330, Indonesia","['car_dealer', 'store', 'point_of_interest', 'establishment']"
Dealer Mobil Audi MT haryono,-6.2425402,106.8630534,"Jl. Letjen MT Haryono Kav. 8 Bidaracina Jatinegara Jakarta Timur DKI Jakarta, RW.6, Kampung Melayu, Jatinegara, RW.6, Kp. Melayu, Kecamatan Jatinegara, Kota Jakarta Timur, Daerah Khusus Ibukota Jakarta 13330, Indonesia","['car_dealer', 'store', 'point_of_interest', 'establishment']"
Audi All Jakarta,-6.1745127,106.8651682,"1, RT.1/RW.8, East Cempaka Putih, Cempaka Putih, Central Jakarta City, Jakarta 10510, Indonesia","['car_dealer', 'store', 'point_of_interest', 'establishment']"
PT. Garuda Mataram Motor,-6.2427873,106.8645647,"Wisma Indomobil Kav Jendral MT Haryono No4, MT Haryono Street No.11, RW.6, Kampung Melayu, Jatinegara, East Jakarta City, Jakarta 13330, Indonesia","['car_dealer', 'store', 'point_of_interest', 'establishment']"
Sales Mobil Audi,-6.2424664,106.8636189,"Wisma Indomobil 1 Lt. 3, RW.6, Kp. Melayu, Kecamatan Jatinegara, Kota Jakarta Timur, Daerah Khusus Ibukota Jakarta 13330, Indonesia","['car_dealer', 'store', 'point_of_interest', 'establishment']"
Audi VW jakarta,-6.2929539,106.7846692,"Gedung Metropolitan Tower, Jalan R.A.Kartini, T. B. Simatupang, Gang C 1, Gg. RW No.RT.10, RT.10/RW.4, Cilandak Bar., Kec. Cilandak, Kota Jakarta Selatan, Daerah Khusus Ibukota Jakarta 12320, Indonesia","['car_dealer', 'store', 'point_of_interest', 'establishment']"
Irwan Audi Santoso,-6.293938,106.825268,"Jl. R.A.Kartini Jl. TB Simatupang No.Kav 14, RT.7/RW.4, Jati Padang, Kec. Ps. Minggu, Kota Jakarta Selatan, Daerah Khusus Ibukota Jakarta 12430, Indonesia","['car_dealer', 'store', 'point_of_interest', 'establishment']"
INDONESIA AUDI JAKARTA,-6.1585279,106.8414835,"Jalan Angkasa No.18bd, RT.1/RW.2, Gn. Sahari Sel., Kec. Kemayoran, Kota Jakarta Pusat, Daerah Khusus Ibukota Jakarta 11610, Indonesia","['car_dealer', 'store', 'point_of_interest', 'establishment']"
Audi Center Indonesia Jakarta,-6.1580277,106.8414885,"RT.5/RW.2, South Gunung Sahari, Kemayoran, Central Jakarta City, Jakarta 10610, Indonesia","['car_dealer', 'store', 'point_of_interest', 'establishment']"
Prosvhera Entertain,-6.3499528,106.9123078,"Jalan Pondok Rangon Raya No.25, RT.7/RW.2, Pd. Ranggon, Kec. Cipayung, Kota Jakarta Timur, Daerah Khusus Ibukota Jakarta 13860, Indonesia","['car_dealer', 'store', 'point_of_interest', 'establishment']"
AUDI Karoseri,-6.317193,106.997303,"Jalan Benda No. 212 Padurenan Mustikajaya Bekasi Kota, Padurenan, Mustikajaya, Padurenan, Kec. Mustika Jaya, Kota Bks, Jawa Barat 17156, Indonesia","['store', 'point_of_interest', 'establishment']"
ATPM VW-AUDI BSD SERPONG,-6.274884,106.656924,"BSD Sektor VI Blok.201 Kav.3, Jl. Raya Serpong, Lengkong Karya, Tangerang, Kota Tangerang Selatan, Banten 15311, Indonesia","['car_dealer', 'store', 'point_of_interest', 'establishment']"
VW AUDI BSD (Sole Agent),-6.2763214,106.6589576,"Jalan Raya BSD Sektor VI Blok 201 Kav. 3, Bumi Serpong Damai Tangerang 15310, Ta, Lengkong Karya, Kec. Serpong Utara, Kota Tangerang Selatan, Banten 15310, Indonesia","['car_dealer', 'store', 'point_of_interest', 'establishment']"
Audi Motor,-6.207907,106.7957743,"Pus Onderdil Palmerah Bl A%2F42 Lt 3 Kemanggisan Palmerah Jakarta Barat DKI Jakarta, RT.3/RW.7, Palmerah, Kec. Palmerah, Kota Jakarta Barat, Daerah Khusus Ibukota Jakarta 11480, Indonesia","['car_repair', 'store', 'point_of_interest', 'establishment']"
"Showroom Audi MT. Haryono (Sales, Service, Sparepart)",-6.2428053,106.864618,"Indomobil Tower Lantai Dasar, Jl. Letjen Mt. Haryono No.Kav. 11, RW.6, Cawang, Kecamatan Jatinegara, Kota Jakarta Timur, Daerah Khusus Ibukota Jakarta 13330, Indonesia","['car_dealer', 'store', 'point_of_interest', 'establishment']"
Audi Motor,-6.2204429,106.7246707,"Jl. Joglo Raya No.13, RT.6/RW.2, Joglo, Kec. Kembangan, Kota Jakarta Barat, Daerah Khusus Ibukota Jakarta 11640, Indonesia","['car_repair', 'point_of_interest', 'establishment']"
Audi Utama Indonesia. PT,-6.175926,106.840018,"Plaza Atrium Segitiga Senen 5th Floor, JL. Senen Raya, Blok E No. 135, RW.2, Senen, Kec. Senen, Kota Jakarta Pusat, Daerah Khusus Ibukota Jakarta 10410, Indonesia","['car_repair', 'store', 'point_of_interest', 'establishment']"
Mobil VW Audi Jakarta,-6.2424922,106.863545,"Wisma Indomobil, RW.6, Kp. Melayu, Kecamatan Jatinegara, Kota Jakarta Timur, Daerah Khusus Ibukota Jakarta 13330, Indonesia","['car_dealer', 'store', 'point_of_interest', 'establishment']"
Cahaya Audi Gemilang,-6.2333749,106.9189084,"Jl. Swadaya VIII No.37, RT.13/RW.1, Duren Sawit, Kec. Duren Sawit, Kota Jakarta Timur, Daerah Khusus Ibukota Jakarta 13440, Indonesia","['car_dealer', 'store', 'point_of_interest', 'establishment']"
Audi Volkswagen GSO Jakarta,-6.1585279,106.8414835,"Jl. Angkasa No.18, RT.1/RW.2, Gn. Sahari Sel., Kec. Kemayoran, Kota Jakarta Pusat, Daerah Khusus Ibukota Jakarta 10610, Indonesia","['car_dealer', 'store', 'point_of_interest', 'establishment']"
Bengkel Quattro,-6.30955,106.8138,"Jl. Cilandak KKO No.1 A RT.014/08, Cilandak Ragunan, RT.1/RW.7, Ragunan, Pasar Minggu, South Jakarta City, Jakarta 12550, Indonesia","['car_dealer', 'car_repair', 'store', 'point_of_interest', 'establishment']"
Audi Motor,-6.194696,106.786672,"Pasar Palmerah Lantai 3 Blok A No 42, RT.7/RW.1, Palmerah, Jakarta Pusat, Kota Jakarta Barat, Daerah Khusus Ibukota Jakarta 10640, Indonesia","['electronics_store', 'car_repair', 'store', 'point_of_interest', 'establishment']"
All Audi Jakarta,-6.294055,106.8143371,"Unnamed Road, RT.13/RW.5, Cilandak Tim., Kec. Ps. Minggu, Kota Jakarta Selatan, Daerah Khusus Ibukota Jakarta 12560, Indonesia","['car_dealer', 'store', 'point_of_interest', 'establishment']"
Audi Super Wangi Pamulang ( Topron & MSL ),-6.3345048,106.7245816,"Perum Puri Pamulang blok. G3 No.18, Jl. Flamboyan III, Bambu Apus, Kec. Pamulang, Kota Tangerang Selatan, Banten 15415, Indonesia","['store', 'point_of_interest', 'establishment']"
AUDI,-6.187429,106.814428,"Pasar Tanah Abang Blok F Lantai 2 Los Aks #46 47, Jakarta Pusat, Kp. Bali, Kota Jakarta Pusat, Daerah Khusus Ibukota Jakarta 10240, Indonesia","['clothing_store', 'store', 'point_of_interest', 'establishment']"
AUDI AQUARIUM,-6.304486,106.680145,"Jalan Rawa Buntu Utara Sektor 1-2 Blok UA No 17A BSD City Serpong, Rw. Buntu, Kec. Serpong, Kota Tangerang Selatan, Banten 15310, Indonesia","['pet_store', 'store', 'point_of_interest', 'establishment']"
Audi Racing Motor,-6.150575,106.728169,"GF , Puri Agung , JL. Bangun Nusa , Cengkareng Timur , Jakarta Barat , 11730 Cengkareng , DKI Jakarta, RT.2/RW.2, East Cengkareng, Cengkareng, West Jakarta City, Jakarta 11730, Indonesia","['car_repair', 'store', 'point_of_interest', 'establishment']"
Classic Hotel,-6.1614217,106.8296756,"Jl. Samanhudi No.43-45, RT.1/RW.7, Ps. Baru, Kec. Sawah Besar, Kota Jakarta Pusat, Daerah Khusus Ibukota Jakarta 10710, Indonesia","['lodging', 'point_of_interest', 'establishment']"
Serba Classic Pintu Air,-6.1668224,106.8307725,"Nomor 6 Dan 7, Jl. Pintu Air Raya, RT.6/RW.1, Ps. Baru, Kec. Sawah Besar, Kota Jakarta Pusat, Daerah Khusus Ibukota Jakarta 10710, Indonesia","['store', 'point_of_interest', 'establishment']"
Classic Fine Foods. PT,-6.169256,106.891821,"JL. Boulevard BGR, No 1, Kompleks Pergudangan BGR, 14240, RW.5, Klp. Gading Bar., jakarta, DKI Jakarta, Daerah Khusus Ibukota Jakarta 14240, Indonesia","['point_of_interest', 'establishment']"
Classic Intermark. PT,-6.2121467,106.6242839,"JL. MH Thamrin 79 RT 001/01, Tangerang, Cikokol, Tangerang, Tangerang City, Banten 15117, Indonesia","['premise', 'point_of_interest', 'establishment']"
Classic Global Tradelink,-6.1653519,106.8313772,"Jl. Pintu Air Raya No.21, RT.8/RW.1, Ps. Baru, Kec. Sawah Besar, Kota Jakarta Pusat, Daerah Khusus Ibukota Jakarta 10710, Indonesia","['point_of_interest', 'establishment']"
Tangguh Motor Classic Cikarang,-6.2699147,107.1785688,"Jl. Urip Sumoharjo, RT.001/RW.001, Waluya, Kec. Cikarang Utara, Bekasi, Jawa Barat 17530, Indonesia","['car_repair', 'store', 'point_of_interest', 'establishment']"
MR Classic - TGR,-6.3021333,106.7514048,"Jl. W R Supratman No.17, Cemp. Putih, Kec. Ciputat Tim., Kota Tangerang Selatan, Banten 15412, Indonesia","['car_repair', 'store', 'point_of_interest', 'establishment']"
Classic. PT,-6.1355203,106.8265153,"Grand Boutique Centre Blok D/14, JL. Mangga Dua Raya, Ancol, Pademangan, RT.11/RW.5, Ancol, Jakarta Utara, Kota Jkt Utara, Daerah Khusus Ibukota Jakarta 14430, Indonesia","['point_of_interest', 'establishment']"
Team Timur Classic,-6.267057,107.054933,"Depan Saung Wulan, Jl. KH. Abu Bakar No.91, Setiadarma, Kec. Tambun Sel., Bekasi, Jawa Barat 17513, Indonesia","['car_repair', 'point_of_interest', 'establishment']"
Classic Carpets,-6.164897,106.8306792,"Jl. Pintu Air Raya A Ps. Baru No.22, RT.10/RW.8, Ps. Baru, Kec. Sawah Besar, Kota Jakarta Pusat, Daerah Khusus Ibukota Jakarta 10110, Indonesia","['general_contractor', 'point_of_interest', 'establishment']"
The Classic Indonesia,-6.2982233,106.7838116,"Jalan Bona Vista Raya Blok B. 5 No.1, Lebak Bulus, Cilandak, RT.10/RW.6, Lb. Bulus, Kec. Cilandak, Kota Jakarta Selatan, Daerah Khusus Ibukota Jakarta 12440, Indonesia","['restaurant', 'food', 'point_of_interest', 'establishment']"
Hardy Classic Car Interior,-6.2705337,106.9806436,"Jl. Raya Pekayon No.26, Jaka Setia, Kec. Bekasi Sel., Kota Bks, Jawa Barat 17147, Indonesia","['car_repair', 'point_of_interest', 'establishment']"
Classic,-6.22465,106.80305,"Pasaraya Grande No.2 JL. Sultan Iskandarsyah 2, Melawai, Blok M, 12160 Jakarta, Indonesia, RT.1/RW.3, Gelora, Central Jakarta City, Jakarta 12160, Indonesia","['point_of_interest', 'establishment']"
Pemancingan Classics,-6.0271656,106.6982803,"jalan pipa pertamina pantai, Muara, Teluknaga, Tangerang, Banten 15510, Indonesia","['restaurant', 'food', 'point_of_interest', 'establishment']"
JENGGOT CLASSIC CIBITUNG,-6.250841,107.087776,"Jalan Raya Haji Bosih Selang Cau No.31, RT.2/RW.3, Wanasari, Kec. Cibitung, Bekasi, Jawa Barat 17530, Indonesia","['car_repair', 'point_of_interest', 'establishment']"
Ndank Classic,-6.2413267,106.6711433,"Bhayangkara (Jalan Lama) No.16-18, Paku Jaya, Kec. Serpong Utara, Kota Tangerang Selatan, Banten 15326, Indonesia","['shopping_mall', 'point_of_interest', 'establishment']"
Poren Classic Custom,-6.5825653,106.820123,"Jalan Raden Kan'an No. 21 Tanah Baru, Tegal Gundil, Kec. Bogor Utara, Kota Bogor, Jawa Barat 16154, Indonesia","['car_repair', 'point_of_interest', 'establishment']"
Classic design,-6.0764899,106.6690174,"Salembaran, Kosambi, Tangerang, Banten 15214, Indonesia","['point_of_interest', 'establishment']"
Zarief Classic Motors,-6.35594,106.8228311,"Jl. Kesatuan No.47-50, Srengseng Sawah, Kec. Jagakarsa, Kota Jakarta Selatan, Daerah Khusus Ibukota Jakarta 12630, Indonesia","['store', 'point_of_interest', 'establishment']"
Rangkuti Motor 2 Classic & Custom,-6.4247887,106.731764,"Jl. Raya Parung No.528, Parung, Kec. Parung, Bogor, Jawa Barat 16330, Indonesia","['car_repair', 'store', 'point_of_interest', 'establishment']"
KIOS CLASSIC BEKASI KCB,-6.2286841,107.0883811,"Jl. Utama, Sumberjaya, Kec. Tambun Sel., Bekasi, Jawa Barat 17510, Indonesia","['car_repair', 'store', 'point_of_interest', 'establishment']"
MR Classic Motor,-6.374809,106.8631614,"Jl. Raya Jakarta-Bogor No.5, Cisalak, Kec. Sukmajaya, Kota Depok, Jawa Barat 16416, Indonesia","['car_repair', 'store', 'point_of_interest', 'establishment']"
KIOS CLASSIC BEKASI KCB,-6.2348648,107.0726007,"Jl. Griya Asri 2, Sumberjaya, Kec. Tambun Sel., Bekasi, Jawa Barat 17510, Indonesia","['car_repair', 'point_of_interest', 'establishment']"
CLASSIC MOTOR STORE,-6.3682588,107.3779364,"Jalan Raya Kosambi Telagasari, Pancawati, Klari, Pancawati, Kec. Klari, Kabupaten Karawang, Jawa Barat 41371, Indonesia","['car_repair', 'store', 'point_of_interest', 'establishment']"
Classic Pusat Jok Kulit,-6.2554029,106.971466,"Jalan Perumahan Pondok Timur Mas No 12 Grand Galaxy City, Jaka Setia, Bekasi Selatan, Jaka Setia, Kec. Bekasi Sel., Kota Bks, Jawa Barat 17147, Indonesia","['point_of_interest', 'establishment']"
Classic Emporium Indonesia. PT,-6.2662382,107.1423023,"JL. Jababeka, Kawasan Industri Jababeka No.17, Karangbaru, Kec. Cikarang Utara, Bekasi, Jawa Barat 17530, Indonesia","['car_repair', 'point_of_interest', 'establishment']"
Berkah Sedulur Classic,-6.2616229,106.9802747,"Gg. Setia Warga, Pekayon Jaya, Kec. Bekasi Sel., Kota Bks, Jawa Barat 17148, Indonesia","['car_repair', 'store', 'point_of_interest', 'establishment']"
Vaporizer Jakarta Classic,-6.229263,106.856661,"Jl. Tebet Timur Dalam II No.35, RT.3/RW.3, Tebet Tim., Kec. Tebet, Kota Jakarta Selatan, Daerah Khusus Ibukota Jakarta 12820, Indonesia","['store', 'point_of_interest', 'establishment']"
Classic Coffee,-6.5605506,106.7846554,"Jl. Pelita Jaya ‚Ö¢ No.2, Kedung Jaya, Kec. Tanah Sereal, Kota Bogor, Jawa Barat 16164, Indonesia","['cafe', 'food', 'point_of_interest', 'establishment']"
Central Classic Custom,-6.3406403,106.7971019,"Jl. Bukit Cinere Raya No.58, RW.6, Gandul, Kec. Cinere, Kota Depok, Jawa Barat 16514, Indonesia","['car_repair', 'store', 'point_of_interest', 'establishment']"
Coffeeholic Classic,-6.3303145,107.3116291,"Telukjambe, Telukjambe Timur, Karawang Regency, West Java 41361, Indonesia","['cafe', 'food', 'point_of_interest', 'establishment']"
MR Classic - BGR,-6.5884142,106.772792,"Jalan Gunung Batu, Mayjen Ishak Blok, Gg. Mesjid 3 Rose No.30, Loji, Kec. Bogor Bar., Kota Bogor, Jawa Barat 16118, Indonesia","['car_repair', 'store', 'point_of_interest', 'establishment']"
SMK Musik Perguruan Cikini ( Klasik ),-6.253575,106.835295,"Jalan Duren Tiga No.1A, RT.9/RW.5, Duren Tiga, Kec. Pancoran, Kota Jakarta Selatan, Daerah Khusus Ibukota Jakarta 12760, Indonesia","['point_of_interest', 'establishment']"
Classic Perfume,-6.136696,106.756887,"Jl. Kapuk Raya No.61A, RT.2/RW.3, Kapuk Muara, Kec. Penjaringan, Kota Jkt Utara, Daerah Khusus Ibukota Jakarta 14460, Indonesia","['clothing_store', 'store', 'point_of_interest', 'establishment']"
SURYA BROTHER Classic Custom,-6.1588182,106.7556474,"Jl. Perumahan Taman Kota, RT.16/RW.5, Kembangan Utara, Kec. Kembangan, Kota Jakarta Barat, Daerah Khusus Ibukota Jakarta 11610, Indonesia","['store', 'point_of_interest', 'establishment']"
Classic Perfume,-6.122545,106.717388,"Kav. PTB Jl. Yudistira Blok B4 No. 20, RT.4/RW.7, Tegal Alur, Kalideres, West Jakarta City, Jakarta 11820, Indonesia","['clothing_store', 'store', 'point_of_interest', 'establishment']"
JENGGOT CLASSIC 3 SETU,-6.3367312,107.0412943,"Jl. MT. Haryono No.120, Ciledug, Kec. Setu, Bekasi, Jawa Barat 17320, Indonesia","['car_repair', 'store', 'point_of_interest', 'establishment']"
"ONTHELOTOMODIF, CLASSIC, CUSTOM VARIASI PARTS SHOP",-6.1561768,106.674986,"Jl. Halim Perdana Kusuma No.150, Batuceper, Kec. Batuceper, Kota Tangerang, Banten 15122, Indonesia","['shopping_mall', 'point_of_interest', 'establishment']"
D'Classic,-6.3622711,106.8218453,"Jalan Tegangan Tinggi #80 Rt 04 Rw 03 Kukusan, Depok, Kukusan, Kec. Beji, Kota Depok, Jawa Barat 16425, Indonesia","['point_of_interest', 'establishment']"
CV. Classic Garmindo,-6.2927653,106.8480565,"II No.58 A, Jl. Swadaya IA, RT.3/RW.9, Pejaten Tim., Kec. Ps. Minggu, Kota Jakarta Selatan, Daerah Khusus Ibukota Jakarta 12510, Indonesia","['home_goods_store', 'store', 'point_of_interest', 'establishment']"
Carpet Classic,-6.204583,106.7964193,"Jalan Palmerah Utara I No.28C, RT.2/RW.6, Palmerah, Kec. Palmerah, Kota Jakarta Barat, Daerah Khusus Ibukota Jakarta 11420, Indonesia","['store', 'point_of_interest', 'establishment']"
CLASSIC BARBERHOUSE,-6.1745566,106.910469,"Jl. Acordion Blok M No.20, RT.5/RW.7, Pegangsaan Dua, Kec. Klp. Gading, Kota Jkt Utara, Daerah Khusus Ibukota Jakarta 14240, Indonesia","['hair_care', 'health', 'point_of_interest', 'establishment']"
Speed One Motor Classic Custom,-6.253595,106.925239,"Kios, Jalan Curug Raya, Jl. Permata Timur Raya No.5, RT.1/RW.8, Pd. Klp., Kec. Duren Sawit, Kota Jakarta Timur, Daerah Khusus Ibukota Jakarta 13450, Indonesia","['car_repair', 'point_of_interest', 'establishment']"
d'classic guest house and kost,-6.1206299,106.1548013,"Jl. Yusuf Martadilaga No.16, benggala, Kec. Serang, Kota Serang, Banten 42112, Indonesia","['lodging', 'point_of_interest', 'establishment']"
Classic Interior Decoration,-6.1628402,106.5736558,"Jalan Raya Regency Blok EC8 #52 Gelam Jaya, Pasar Kemis, Kuta Jaya, Kec. Ps. Kemis, Tangerang, Banten 15560, Indonesia","['store', 'point_of_interest', 'establishment']"
Classic leather,-6.2554624,106.9707397,"Jl. Sedap Malam No.499, Jaka Setia, Kec. Bekasi Sel., Kota Bks, Jawa Barat 17147, Indonesia","['point_of_interest', 'establishment']"
Martabak Classic,-6.3685357,106.9567887,"Jl. Ruko Sentra Eropa No.29, Ciangsana, Kec. Gn. Putri, Bogor, Jawa Barat 16968, Indonesia","['cafe', 'restaurant', 'food', 'point_of_interest', 'establishment']"
Lapak Prima 17 Classic,-6.2291445,106.8387593,"22 A, Jl Rasamala VII RT.14/RW.13 No, No, RT.14/RW.13, Menteng Dalam, Kec. Tebet, Kota Jakarta Selatan, Daerah Khusus Ibukota Jakarta 12870, Indonesia","['shopping_mall', 'point_of_interest', 'establishment']"
Warung Kopi Classic ‚òïüç≤,-6.2328804,106.9373221,"Jl. Bina Karya No.30, RT.6/RW.1, Pd. Klp., Kec. Duren Sawit, Kota Jakarta Timur, Daerah Khusus Ibukota Jakarta 13450, Indonesia","['cafe', 'food', 'point_of_interest', 'establishment']"
BOLS CLASSIC CUSTOM,-6.252037,106.698449,"Wiru Indah Pondok Aren, Jl. Dr. Setia Budi, Pd. Kacang Tim., Kec. Ciledug, Kota Tangerang Selatan, Banten 15226, Indonesia","['car_repair', 'point_of_interest', 'establishment']"
Classic Intermark,-6.1638982,106.8329146,"Jl. Pintu Air Raya No.22-A, RT.6/RW.1, Ps. Baru, Kec. Sawah Besar, Kota Jakarta Pusat, Daerah Khusus Ibukota Jakarta 10710, Indonesia","['store', 'point_of_interest', 'establishment']"
Fiti Furni Classic Furniture,-6.2933955,106.8746567,"Jl. Bangun Cipta 1 No. F 34%2C, Bumi Harapan Permai Raya 1 No.6, RT.2/RW.6, Dukuh, Kec. Kramat jati, Kota Jakarta Timur, Daerah Khusus Ibukota Jakarta 13550, Indonesia","['point_of_interest', 'establishment']"
Classic Point Garage,-6.2675255,106.7380672,"Jl. Bonjol No.117, Jurang Manggu Tim., Kec. Pd. Aren, Kota Tangerang Selatan, Banten 15222, Indonesia","['car_repair', 'point_of_interest', 'establishment']"
"Sekretariat BIDIC (Bikershood Innovation Classic) ""KARAWANG""",-6.393649,107.3891104,"Sumurkondang, Klari, Karawang Regency, West Java 41371, Indonesia","['point_of_interest', 'establishment']"
Classic Motor Ciputat,-6.311233,106.7465239,"Jl. H. Usman No.23, Cipayung, Kec. Ciputat, Kota Tangerang Selatan, Banten 15411, Indonesia","['car_repair', 'point_of_interest', 'establishment']"
Classic Music,-6.2844087,106.9115538,"Plaza Pd. Gede, Jl. Raya Pd. Gede Blok K.7, Jatiwaringin, Kec. Pondokgede, Kota Bks, Jawa Barat 17414, Indonesia","['electronics_store', 'home_goods_store', 'store', 'point_of_interest', 'establishment']"
Percetakan & Digital Printing Classic Jaya Tangerang,-6.1288683,106.5888787,"Depan Pom Bensin Sulang, Jl. Raya Mauk No.72, Pd. Jaya, Kec. Sepatan, Tangerang, Banten 15520, Indonesia","['store', 'point_of_interest', 'establishment']"
Classic Beauty & Slimming Center Bekasi,-6.252828,106.9694265,"JL. Arjuna, Blok B No. 35, Jakasetia, Bekasi Selatan, Jaka Setia, Kec. Bekasi Sel., Kota Bks, Jawa Barat 17147, Indonesia","['beauty_salon', 'point_of_interest', 'establishment']"
D.Classic,-6.2308454,106.8100999,"Jl. Tulodong Bawah, RT.3/RW.1, Senayan, Kec. Kby. Baru, Kota Jakarta Selatan, Daerah Khusus Ibukota Jakarta 12190, Indonesia","['bar', 'point_of_interest', 'establishment']"
Classic BarberDY,-6.5336352,106.7997027,"Jl. Raya Cilebut, Cilebut Tim., Sukaraja, Bogor, Jawa Barat 16310, Indonesia","['point_of_interest', 'establishment']"
Datsun,-6.2789453,107.1676478,"Jalan Lemah Abang Raya No. 207, Cibarusah, Cikarang, Simpangan, Kec. Cikarang Utara, Bekasi, Jawa Barat 17530, Indonesia","['car_dealer', 'store', 'point_of_interest', 'establishment']"
Datsun Leuwiliang,-6.5739203,106.6326192,"Leuwiliang, Bogor, West Java 16640, Indonesia","['car_dealer', 'store', 'point_of_interest', 'establishment']"
Nissan Datsun Bekasi Barat (Mimosa),-6.2333958,106.9896868,"No. 27, Jl. Jend. Sudirman No.KM, Kayuringin Jaya, Kec. Bekasi Sel., Kota Bks, Jawa Barat 17144, Indonesia","['car_dealer', 'store', 'point_of_interest', 'establishment']"
NISSAN DATSUN TOMANG,-6.184183,106.789818,"Jl. Arjuna Utara No.4-44, RT.1/RW.1, Tj. Duren Sel., Kec. Grogol petamburan, Kota Jakarta Barat, Daerah Khusus Ibukota Jakarta 11470, Indonesia","['car_dealer', 'store', 'point_of_interest', 'establishment']"
Datsun Leuwiliang - Yasmin,-6.5725604,106.629171,"No., Jl. Raya Leuwiliang No.47, Leuwiliang, Bogor, Jawa Barat 16640, Indonesia","['car_dealer', 'store', 'point_of_interest', 'establishment']"
Showroom Indomobil Nissan Datsun,-6.278654,106.796244,"Raya No.60 Kecamatan., Jl. RS. Fatmawati Raya, RT.11/RW.6, Cilandak Bar., Jakarta Selatan, DKI Jakarta, Daerah Khusus Ibukota Jakarta 12430, Indonesia","['car_dealer', 'store', 'point_of_interest', 'establishment']"
Indomobil Nissan Datsun Gading Serpong,-6.2486193,106.6265125,"Blok M 5 No. 22, Jl. Gading Serpong Boulevard No.23, Curug Sangereng, Kec. Klp. Dua, Tangerang, Banten 15810, Indonesia","['car_dealer', 'store', 'point_of_interest', 'establishment']"
Indomobil Nisan - Datsun Dealer Jakarta,-6.2061412,106.7699137,"Jl. Panjang Arteri Klp. Dua Raya No.30, RT.2/RW.2, Klp. Dua, Kec. Kb. Jeruk, Kota Jakarta Barat, Daerah Khusus Ibukota Jakarta 11550, Indonesia","['car_dealer', 'store', 'point_of_interest', 'establishment']"
Nissan Datsun Radin Inten,-6.2251243,106.9229265,"Kaveling 8 Nomor 18, Jl. Raden Inten II, RT.7/RW.10, Duren Sawit, Kec. Duren Sawit, Kota Jakarta Timur, Daerah Khusus Ibukota Jakarta 13440, Indonesia","['car_dealer', 'store', 'point_of_interest', 'establishment']"
Datsun Gading Serpong,-6.248491,106.6264618,"Jl. Gading Serpong Boulevard No.M5-18, Curug Sangereng, Kec. Klp. Dua, Tangerang, Banten 15810, Indonesia","['car_repair', 'point_of_interest', 'establishment']"
"Datsun Karawang 3S ( Sales, Service & Sparepart )",-6.323843,107.272815,"Jl Interchange Tol Karawang Barat, Kampung Pintu Air Wadas, Wadas, Telukjambe Timur, Karawang Regency, West Java 41361, Indonesia","['car_dealer', 'store', 'point_of_interest', 'establishment']"
Indomobil Nissan Datsun TB Simatupang,-6.290783,106.783135,"Jl. R.A.Kartini No.RT.6, RT.6/RW.14, Pd. Pinang, Kec. Kby. Lama, Kota Jakarta Selatan, Daerah Khusus Ibukota Jakarta 12310, Indonesia","['car_dealer', 'store', 'point_of_interest', 'establishment']"
Showroom Nissan Datsun Cikarang,-6.3327458,107.1495747,"Jl. MH. Thamrin, Sukaresmi, Cikarang Sel., Bekasi, Jawa Barat 17530, Indonesia","['car_dealer', 'store', 'point_of_interest', 'establishment']"
Indomobil Nissan Datsun Depok Margonda,-6.385955,106.828159,"Jl. Margonda Raya No.191 - 193, Kemiri Muka, Kec. Beji, Kota Depok, Jawa Barat 16423, Indonesia","['car_dealer', 'store', 'point_of_interest', 'establishment']"
RAFFI AUTO CARE Specialist Nissan Datsun,-6.391791,106.84792,"Jalan Proklamasi No.28 Abadi Jaya Sukmajaya Depok II, Abadijaya, Kec. Sukmajaya, Kota Depok, Jawa Barat 16471, Indonesia","['car_repair', 'point_of_interest', 'establishment']"
CAK'I MOTOR ALTERNATIF SPESIALIS NISSAN DATSUN,-6.2262403,106.9388708,"Jl. Mawar Merah II No.17, RT.8/RW.1, Pd. Kopi, Kec. Duren Sawit, Kota Jakarta Timur, Daerah Khusus Ibukota Jakarta 13460, Indonesia","['car_repair', 'point_of_interest', 'establishment']"
Indomobil Nissan Datsun MT Haryono,-6.2427641,106.8640437,"Wisma Indomobil, Jl. Letjen Mt. Haryono No.3, RW.6, Kampung Melayu, Jatinegara, East Jakarta City, Jakarta 13330, Indonesia","['car_dealer', 'store', 'point_of_interest', 'establishment']"
Nissan Datsun Karawang,-6.3142652,107.3207858,"East Adiarsa, East Karawang, Karawang Regency, West Java 41311, Indonesia","['car_dealer', 'store', 'point_of_interest', 'establishment']"
Forte Auto spesialis nissan datsun,-6.3469598,106.7564232,"Pondok Cabe Udik, Pamulang, South Tangerang City, Banten 15418, Indonesia","['point_of_interest', 'establishment']"
Indomobil Nissan Datsun Bogor Pajajaran,-6.5834322,106.8059063,"Jalan Pajajaran No. 55 Babakan, Bantarjati, Kec. Bogor Utara, Kota Bogor, Jawa Barat 16143, Indonesia","['car_dealer', 'store', 'point_of_interest', 'establishment']"
Forte Auto spesialis nissan datsun,-6.3469641,106.7564015,"Pondok Cabe Udik, Pamulang, South Tangerang City, Banten 15418, Indonesia","['car_repair', 'point_of_interest', 'establishment']"
Nissan Datsun Roxy,-6.1660607,106.8090676,"Jl. KH. Hasyim Ashari No.45, RT.1/RW.11, Cideng, Kec. Gambir, Kota Jakarta Pusat, Daerah Khusus Ibukota Jakarta 10150, Indonesia","['point_of_interest', 'establishment']"
Indomobil Nissan Datsun Radin Inten,-6.2252084,106.9230049,"Jl. Raden Inten II No.18, RT.7/RW.10, Duren Sawit, East Jakarta City, Jakarta 13440, Indonesia","['car_dealer', 'store', 'point_of_interest', 'establishment']"
Showroom Nissan Datsun Tb.Simatupang,-6.290591,106.783204,"Jalan R.A.Kartini II-S Kav.7, RT.6/RW.14, Pondok Pinang, Kebayoran Lama, South Jakarta City, Jakarta 12430, Indonesia","['car_dealer', 'store', 'point_of_interest', 'establishment']"
Nissan Datsun Fatmawati,-6.288596,106.795039,"Nissan Datsun Fatmawati, Jl. RS. Fatmawati Raya No.60, RT.3/RW.5, Cilandak Bar., Kec. Cilandak, Kota Jakarta Selatan, Daerah Khusus Ibukota Jakarta 12430, Indonesia","['car_dealer', 'store', 'point_of_interest', 'establishment']"
Indomobil Nissan Datsun Jatake,-6.2053971,106.5704105,"Jl. Gatot Subroto KM. 8 Jatake, Manis Jaya, Jatiuwung, Tangerang City, Banten 15136, Indonesia","['car_dealer', 'store', 'point_of_interest', 'establishment']"
Sha Auto Service,-6.438285,106.7236624,"Jl. Pamegarsari, Pemagarsari, Kec. Parung, Bogor, Jawa Barat 16330, Indonesia","['car_repair', 'point_of_interest', 'establishment']"
Indomobil Nissan Datsun Batu Ceper,-6.1623779,106.8244328,"Jl. Batu Ceper No.32, RT.1/RW.2, Kb. Klp., Jakarta Pusat, Kota Jakarta Pusat, Daerah Khusus Ibukota Jakarta 10120, Indonesia","['car_dealer', 'store', 'point_of_interest', 'establishment']"
Indomobil Nissan Datsun Jakarta Warung Buncit,-6.282466,106.827665,"Jl. Warung Jati Barat No.34, RT.2/RW.5, Jati Padang, Jakarta Selatan, Kota Jakarta Selatan, Daerah Khusus Ibukota Jakarta 12540, Indonesia","['car_dealer', 'store', 'point_of_interest', 'establishment']"
Indomobil Nissan Datsun Cibubur,-6.390453,106.94999,"Raya Alternatif Cibubur Km 7 Cibubur, Nagrak, Gunung Putri, Bogor, West Java 16967, Indonesia","['car_dealer', 'store', 'point_of_interest', 'establishment']"
Dealer Nissan Datsun Jakarta,-6.2847407,106.7958034,"Jl. RS. Fatmawati Raya No.60, RT.1/RW.10, Cilandak Bar., Kec. Cilandak, DKI JAKARTA, Daerah Khusus Ibukota Jakarta 12430, Indonesia","['car_dealer', 'store', 'point_of_interest', 'establishment']"
INDOMOBIL NISSAN DATSUN YASMIN BOGOR,-6.5572722,106.7717467,"Jalan KH. Raden, Jl. KH. R. Abdullah Bin Nuh, RT.02/RW.03, Curugmekar, West Bogor, Bogor City, West Java 16113, Indonesia","['car_dealer', 'store', 'point_of_interest', 'establishment']"
Indomobil Nissan Datsun Puri Indah,-6.1862132,106.7312962,"Jl. KOMP Puri Indah Blok R, No.1, RT.1/RW.2, South Kembangan, Kembangan, West Jakarta City, Jakarta 11610, Indonesia","['car_dealer', 'store', 'point_of_interest', 'establishment']"
Indomobil Nissan Datsun Harapan Indah,-6.1836305,106.9745981,"Jalan Harapan Indah Bulevard, Kav Commercial Park I No.9E, Kota Harapan Indah, Medan Satria, Bekasi City, West Java 17132, Indonesia","['car_dealer', 'store', 'point_of_interest', 'establishment']"
Indomobil Nissan Datsun Ancol,-6.1225171,106.8157471,"Kota Tua, Jl. Ancol Barat VII No.2, RT.02/RW.1, Ancol, Kec. Pademangan, Kota Jkt Utara, Daerah Khusus Ibukota Jakarta 14430, Indonesia","['car_dealer', 'store', 'point_of_interest', 'establishment']"
Indomobil Nissan Datsun Jakarta Pulo Gadung,-6.191354,106.906452,"Jl. Raya Bekasi Blok KM No.18, RT.5/RW.11, Jatinegara, Kec. Cakung, Kota Jakarta Timur, Daerah Khusus Ibukota Jakarta 13980, Indonesia","['car_dealer', 'store', 'point_of_interest', 'establishment']"
Adji Sales Nissan Datsun Bintaro,-6.275087,106.718164,"Jl. Rasuna Said Kav A-5-11 Blok B7 CBD Sektor VII, Bintaro, Pondok Jaya, Pondok Aren, Pd. Jaya, Kec. Pd. Aren, Kota Tangerang Selatan, Banten 15220, Indonesia","['car_dealer', 'store', 'point_of_interest', 'establishment']"
Indomobil Nissan Datsun Sunter,-6.1441911,106.883217,"Jl. Danau Sunter Selatan Blok O3 No.53-54 Sunter Jaya Tanjung Priok RT.10/RW.11 Sunter Jaya Tanjung Priok RT.10/RW.11 Sunter Jaya Tanjung Priok RT.10, RT.10/RW.11, Sunter Jaya, Sunt, North Jakarta City, Jakarta 14350, Indonesia","['car_dealer', 'store', 'point_of_interest', 'establishment']"
Indomobil Datsun,-6.2906487,106.7831973,"Jl. Term. Simatupang, RT.6/RW.14, Pd. Pinang, Kec. Kby. Lama, Kota Jakarta Selatan, Daerah Khusus Ibukota Jakarta 12310, Indonesia","['car_dealer', 'store', 'point_of_interest', 'establishment']"
"DATSUN GO PANCA, GO PLUS, GO CROSS Tanya Promo, Harga & Paket Kredit",-6.183868,106.974673,"Harapan Indah Boulevard, Kav. Commercial Park I No.9E, Medan Satria, Kecamatan Medan Satria, Kota Bks, Jawa Barat 17132, Indonesia","['car_dealer', 'store', 'point_of_interest', 'establishment']"
Indomobil Nissan Datsun Cinere,-6.3530708,106.7763232,"Jl. Limo Raya No.kav. 95, Meruyung, Kec. Limo, Kota Depok, Jawa Barat 16515, Indonesia","['car_dealer', 'store', 'point_of_interest', 'establishment']"
Indomobil Nissan Datsun Cikarang,-6.3327121,107.1496136,"Jl. Muhammad Haji Thamrin Kav. 200B, Cibatu, Cikarang Sel., Bekasi, Jawa Barat 17530, Indonesia","['car_dealer', 'store', 'point_of_interest', 'establishment']"
Bengkel Alternatif Nissan Datsun,-6.204074,106.0789852,"Pabuaran, Serang, Banten 42163, Indonesia","['store', 'point_of_interest', 'establishment']"
Indomobil Nissan Datsun Pluit,-6.1254545,106.7972736,"Raya No. Penjaringan Jalan Pluit Selatan No.8, RT.1/RW.9, Penjaringan, Kec. Penjaringan, DKI Jakarta, Daerah Khusus Ibukota Jakarta 14440, Indonesia","['car_dealer', 'store', 'point_of_interest', 'establishment']"
"Dealer Datsun, BSD CITY",-6.292268,106.6656516,"Jl. Pahlawan Seribu No.5, Lengkong Gudang, Kec. Serpong, Kota Tangerang Selatan, Banten 15310, Indonesia","['store', 'point_of_interest', 'establishment']"
KREDIT DATSUN,-6.3630027,106.8335512,"Jl. Margonda Raya No.487, Pondok Cina, Kec. Beji, Kota Depok, Jawa Barat 16424, Indonesia","['finance', 'point_of_interest', 'establishment']"
NDS Auto Service - Nissan-Datsun Spesialis Serang,-6.16253,106.179701,"Jl. Raya Petir Km.4 No, RT.003/RW.002, Serang, Cipocok Jaya, Serang City, Banten 42123, Indonesia","['car_repair', 'point_of_interest', 'establishment']"
Indomobil Nissan Datsun Kebun Jeruk,-6.2056149,106.7696385,"Jl. Panjang Arteri Klp. Dua Raya 2 No.30, RT.2/RW.2, Klp. Dua, Kec. Kb. Jeruk, Kota Jakarta Barat, Daerah Khusus Ibukota Jakarta 11550, Indonesia","['car_dealer', 'store', 'point_of_interest', 'establishment']"
Forte Auto spesialis Nissan Datsun,-6.34696,106.756423,"Pondok Cabe Udik, Pamulang, South Tangerang City, Banten 15418, Indonesia","['point_of_interest', 'establishment']"
Indomobil Nissan Datsun,-6.323931,107.272787,"Jl. International Karawang Bar., RT.003/RW.004, Wadas, Kec. Telukjambe Tim., Kabupaten Karawang, Jawa Barat 41361, Indonesia","['car_dealer', 'store', 'point_of_interest', 'establishment']"
Indomobil Nissan Datsun Kapuk,-6.124932,106.7549648,"Jalan Pantai Indah Selatan 2 No.1 No.1, RT.2/RW.3, Kapuk Muara, Penjaringan, Jakarta, 14460, Indonesia","['car_dealer', 'store', 'point_of_interest', 'establishment']"
Indomobil Nissan Datsun Bumi Serpong Damai,-6.2921935,106.6656047,"Ruko BSD Sektor 7, C No.12, Jl. Raya Serpong, Lengkong Gudang, Kec. Serpong, Kota Tangerang Selatan, Banten 15310, Indonesia","['car_dealer', 'store', 'point_of_interest', 'establishment']"
Dealer Nissan Datsun Jakarta Timur,-6.390079,106.947298,"Jl. Alt Cibubur Legenda Wisata, Cibubur km 7,5, Nagrak, Kec. Gn. Putri, Jakarta, DKI Jakarta 16966, Indonesia","['car_dealer', 'store', 'point_of_interest', 'establishment']"
Datsun,-6.3834274,105.8357276,"Sukamaju, Labuan, Pandeglang Regency, Banten 42264, Indonesia","['car_dealer', 'store', 'point_of_interest', 'establishment']"
Anw Auto Service Nissan Datsun,-6.3644557,106.9196749,"Anw auto service nissan datsun, Jl. Kranggan Raya No.1, Jatiraden, Kec. Jatisampurna, Kota Bks, Jawa Barat 17433, Indonesia","['car_repair', 'point_of_interest', 'establishment']"
Parkiran Datsun,-6.300302,107.0227589,"Jl. Kp. Ciketing Asem Jaya No.77, Mustika Jaya, Kec. Mustika Jaya, Kota Bks, Jawa Barat 17158, Indonesia","['car_dealer', 'store', 'point_of_interest', 'establishment']"
Datsun,-6.315955,106.7065463,"Ruko Beranda Serpong No 06 Serua, Jl. Ciater Raya, Serua, Kec. Ciputat, Kota Tangerang Selatan, Banten 15310, Indonesia","['car_dealer', 'store', 'point_of_interest', 'establishment']"
Nissan Datsun Warung Buncit,-6.2823836,106.8276624,"Jl. Warung Jati Barat No.34, RT.2/RW.11, Ragunan, Kec. Ps. Minggu, Kota Jakarta Selatan, Daerah Khusus Ibukota Jakarta 12540, Indonesia","['car_dealer', 'store', 'point_of_interest', 'establishment']"
Indomobil Nissan Datsun Siliwangi Bekasi,-6.303397,106.983723,"Jl. Narogong Raya No.Km.9, Bojong Menteng, Kec. Rawalumbu, Kota Bks, Jawa Barat 17117, Indonesia","['car_dealer', 'store', 'point_of_interest', 'establishment']"
Datsun Pamulang ( Nissan Bintaro ),-6.272004,106.714442,"Bintaro Jaya, Jl. HR Rasuna Said, Pd. Jaya, Kec. Pd. Aren, Kota Tangerang Selatan, Banten 15414, Indonesia","['car_dealer', 'store', 'point_of_interest', 'establishment']"
Hyundai Sunter,-6.1312179,106.8554925,"Jl. Danau Sunter Barat Blok A1-A2 No. 7, Tanjung Priok, RT.2/RW.7, Sunter Agung, Tj. Priok, Kota Jkt Utara, Daerah Khusus Ibukota Jakarta 14350, Indonesia","['car_dealer', 'car_repair', 'store', 'point_of_interest', 'establishment']"
Gedung Hyundai Indonesia,-6.2320901,106.7879645,"Jl. Teuku Nyak Arief No.14, RT.4/RW.2, Grogol Sel., Kec. Kby. Lama, Kota Jakarta Selatan, Daerah Khusus Ibukota Jakarta 12220, Indonesia","['car_dealer', 'store', 'point_of_interest', 'establishment']"
Hyundai Mobil Kalimalang Jakarta Timur,-6.2477833,106.9288639,"Komplek Perumahan Billy & Moon M1/1A, Jl. Raya Kalimalang, Pondok Kelapa, Duren Sawit, RT.2/RW.10, Pd. Klp., Kec. Duren Sawit, Kota Jakarta Timur, Daerah Khusus Ibukota Jakarta 13450, Indonesia","['car_dealer', 'store', 'point_of_interest', 'establishment']"
Hyundai showroom and workshop in Ciputat,-6.2958928,106.7650858,"Jl. Ir H. Juanda No.76, RT.7/RW.2, Rempoa, Kec. Ciputat Tim., Kota Tangerang Selatan, Banten 15412, Indonesia","['car_dealer', 'store', 'point_of_interest', 'establishment']"
Hyundai Pasar Minggu,-6.2458051,106.8431129,"Jalan Raya Pasar Minggu No.7, Pancoran, RT.7/RW.9, Pancoran, Kec. Pancoran, Kota Jakarta Selatan, Daerah Khusus Ibukota Jakarta 12780, Indonesia","['car_dealer', 'store', 'point_of_interest', 'establishment']"
Hyundai Serpong,-6.2328402,106.6427525,"Jalan Raya Serpong KM.7 No.32, Pakualam, Serpong Utara, Pakualam, Kec. Serpong Utara, Tangerang, Banten 15312, Indonesia","['car_dealer', 'store', 'point_of_interest', 'establishment']"
PT HYUNDAI MOBIL INDONESIA CABANG DEPOK,-6.387809,106.8276555,"Jl. Margonda Raya No.358, Kemiri Muka, Kec. Beji, Kota Depok, Jawa Barat 16423, Indonesia","['car_dealer', 'store', 'point_of_interest', 'establishment']"
HYUNDAI SIMPRUG [ Hyundai Pusat ] Promo Hyundai | Harga Hyundai | Dealer Hyundai,-6.2321163,106.7880651,"Jl. Teuku Nyak Arief No.14, RT.4/RW.2, Grogol Sel., Kec. Kby. Lama, Kota Jakarta Selatan, Daerah Khusus Ibukota Jakarta 12220, Indonesia","['car_dealer', 'store', 'point_of_interest', 'establishment']"
Hyundai Mobil Alam Sutera,-6.2325366,106.6600848,"Pakualam, North Serpong, South Tangerang City, Banten 15320, Indonesia","['car_dealer', 'store', 'point_of_interest', 'establishment']"
Hyundai Cibubur,-6.3797289,106.923044,"Jalan Alternatif Cibubur No.25, Jatisampurna, Kec. Jatisampurna, Kota Bks, Jawa Barat 13720, Indonesia","['car_dealer', 'store', 'point_of_interest', 'establishment']"
Hyundai Inkopal Kelapa Gading,-6.1555041,106.8953214,"Jl. Boulevard Bukit Gading Raya No.1, RT.15/RW.3, Klp. Gading Bar., Kec. Klp. Gading, Kota Jkt Utara, Daerah Khusus Ibukota Jakarta 14240, Indonesia","['car_dealer', 'store', 'point_of_interest', 'establishment']"
Toko Hyundai,-6.2083151,106.8252123,"jl. prof dr soepomo No.176C, RT.6/RW.3, Kuningan, Setia Budi, Setiabudi, South Jakarta City, Jakarta 12910, Indonesia","['car_dealer', 'store', 'point_of_interest', 'establishment']"
Hyundai Pluit,-6.1115408,106.7786616,"Jl. Pluit Karang Utara No.26, RT.20/RW.2, Pluit, Kec. Penjaringan, Kota Jkt Utara, Daerah Khusus Ibukota Jakarta 14450, Indonesia","['car_dealer', 'store', 'point_of_interest', 'establishment']"
HYUNDAI PUSAT [ Simprug ],-6.2321163,106.7880651,"Jl. Teuku Nyak Arief No.14, RT.4/RW.2, Grogol Sel., Kec. Kby. Lama, Kota Jakarta Selatan, Daerah Khusus Ibukota Jakarta 12220, Indonesia","['car_dealer', 'store', 'point_of_interest', 'establishment']"
"hyundai Kalimalang, showroom Hyundai Bekasi",-6.2477694,106.9288964,"Jl.Raya Kalimalang Komp.Billy & Moon Blok M1 No.1A, RT.2/RW.10, Pondok Kelapa, Duren Sawit, RT.2/RW.10, Pd. Klp., Kec. Duren Sawit, Kota Jakarta Timur, Daerah Khusus Ibukota Jakarta 13450, Indonesia","['car_dealer', 'store', 'point_of_interest', 'establishment']"
Hyundai Cilandak,-6.3081513,106.780928,"Jalan Karang Tengah Raya No.11D, RT.2/RW.3, Lb. Bulus, Kec. Cilandak, Kota Jakarta Selatan, Daerah Khusus Ibukota Jakarta 12440, Indonesia","['car_dealer', 'store', 'point_of_interest', 'establishment']"
"Dealer Mobil Hyundai | Info Harga, Promo Kredit | Sales Hyundai",-6.305351,106.782354,"Jl. Karang Tengah Raya No.11, RT.13/RW.3, Lb. Bulus, Kec. Cilandak, Kota Jakarta Selatan, Daerah Khusus Ibukota Jakarta 12440, Indonesia","['car_dealer', 'store', 'point_of_interest', 'establishment']"
Hyundai Margonda Depok,-6.372927,106.833071,"Jl. Margonda Raya No.358, Kemiri Muka, Kec. Beji, Kota Depok, Jawa Barat 16423, Indonesia","['car_dealer', 'store', 'point_of_interest', 'establishment']"
Hyundai Arti Industrial Service. PT,-6.337521,107.134252,"Bekasi International Industrial Estate Blok C-8/1, RW.2, Cibatu, Cikarang Sel., Bekasi, Jawa Barat 17530, Indonesia","['car_dealer', 'store', 'point_of_interest', 'establishment']"
Hyundai Mobil Indonesia. PT,-6.3156185,106.6629092,"Jl. Raya Serpong KM.7 No.32, Serpong, Kec. Serpong, Kota Tangerang Selatan, Banten 15156, Indonesia","['car_dealer', 'store', 'point_of_interest', 'establishment']"
Kia Mobil Dinamika Sunter,-6.1367797,106.8662277,"Blok D8 No1, Jl. Sunter Garden Raya, RT.9/RW.19, Sunter Agung, Tanjung Priok, North Jakarta City, Jakarta 14350, Indonesia","['car_dealer', 'store', 'point_of_interest', 'establishment']"
KIA Motors,-6.2744962,106.656967,"Jl. Raya Serpong, Lengkong Karya, Kec. Serpong Utara, Kota Tangerang Selatan, Banten 15310, Indonesia","['car_dealer', 'store', 'point_of_interest', 'establishment']"
Kia Motor,-6.125389,106.798542,"Jalan Bakti No.51, RT.10/RW.10, Penjaringan, Kec. Penjaringan, Kota Jkt Utara, Daerah Khusus Ibukota Jakarta 14440, Indonesia","['car_dealer', 'store', 'point_of_interest', 'establishment']"
KIA Motors Bekasi,-6.2682906,106.9945435,"Jl. Raya Siliwangi No.130, Sepanjang Jaya, Kec. Rawalumbu, Kota Bks, Jawa Barat 17114, Indonesia","['car_dealer', 'store', 'point_of_interest', 'establishment']"
Kia Motor,-6.176265,106.840932,"Senen Raya Road Blok A No.135, Senen, Central Jakarta City, Jakarta 10410, Indonesia","['car_repair', 'store', 'point_of_interest', 'establishment']"
KIA Yi Li Sha,-6.245681,106.7803315,"Jl. Ciputat Raya No.77, RT.8/RW.4, Kby. Lama Utara, Kec. Kby. Lama, Kota Jakarta Selatan, Daerah Khusus Ibukota Jakarta 12240, Indonesia","['car_dealer', 'store', 'point_of_interest', 'establishment']"
Showroom KIA Bekasi,-6.2382699,106.9755725,"Jl. Siliwangi Raya No.130, Narogong, Kota Bks, Jakasampurna, Kec. Bekasi Bar., Kota Bks, Jawa Barat 17145, Indonesia","['car_dealer', 'store', 'point_of_interest', 'establishment']"
KIA Otowarna (PT Nara Citra Otowarna),-6.277625,107.1310317,"Kawasan Insutri Jababeka I, Jl. Jababeka 6 Blok J No. 4E, Harja Mekar, Cikarang Utara, Harja Mekar, Kec. Cikarang Utara, Bekasi, Jawa Barat 17530, Indonesia","['car_dealer', 'car_repair', 'store', 'point_of_interest', 'establishment']"
Raperind Motor,-6.2944501,106.9653161,"Jl. Raya Jati Asih / Jati Kramat No. 9, Jatirasa, Kec. Jatiasih, Kota Bks, Jawa Barat 17424, Indonesia","['car_dealer', 'store', 'point_of_interest', 'establishment']"
KIA Plaza Serpong,-6.274428,106.6566995,"Komplek Komersial BSD, Jl. Raya Serpong No.Kav. 9, Lengkong Karya, Kec. Serpong Utara, Kota Tangerang Selatan, Banten 15310, Indonesia","['car_repair', 'car_dealer', 'store', 'point_of_interest', 'establishment']"
Kia Motors,-6.570116,106.8091037,"Padjadjaran Road No.17, RT.2/RW.5, Bantarjati, North Bogor, Bogor City, West Java 16153, Indonesia","['store', 'point_of_interest', 'establishment']"
KIA Mobil Dinamika Bekasi,-6.26837,106.9946932,"Jl. Raya Siliwangi No.130, Sepanjang Jaya, Kec. Rawalumbu, Kota Bks, Jawa Barat 17114, Indonesia","['car_dealer', 'store', 'point_of_interest', 'establishment']"
COLUMBUS,-6.3085416,107.3093342,"Jl. Tuparev, RT.2/RW.6, Nagasari, Kec. Karawang Bar., Kabupaten Karawang, Jawa Barat 41314, Indonesia","['car_dealer', 'store', 'point_of_interest', 'establishment']"
Kia Motor,-6.2796882,106.635025,"Jl. Raya Pagedangan No.736, Lengkong Kulon, Kec. Pagedangan, Tangerang, Banten 15331, Indonesia","['car_dealer', 'store', 'point_of_interest', 'establishment']"
Kia Antareja,-6.2744472,106.6567018,"Komplek Komersial BSD Jalan Raya Serpong, Jl. Komp. Bsd No.Kav. 9, Lengkong Karya, Kec. Serpong Utara, Kota Tangerang Selatan, Banten 15117, Indonesia","['car_dealer', 'store', 'point_of_interest', 'establishment']"
Kia Plaza,-6.143842,106.8341349,"Jl. Gn. Sahari No.17, RT.16/RW.3, Gn. Sahari Utara, Kec. Sawah Besar, Kota Jakarta Pusat, Daerah Khusus Ibukota Jakarta 10740, Indonesia","['car_dealer', 'store', 'point_of_interest', 'establishment']"
Kia Motor,-6.1783056,106.6318889,"Jl. Taman Hiburan No.51, RT.1/RW.13, Sukasari, Kec. Tangerang, Kota Tangerang, Banten 15118, Indonesia","['car_dealer', 'store', 'point_of_interest', 'establishment']"
KIA Motors,-6.2564081,106.9429072,"Jl. Jati Bening II No.28, RT.2/RW.2, Jatibening Baru, Kec. Pondokgede, Kota Bks, Jawa Barat 17412, Indonesia","['car_dealer', 'store', 'point_of_interest', 'establishment']"
Kia Motors,-6.2773737,107.1311555,"Jl. Jababeka VI, Harja Mekar, Kec. Cikarang Utara, Bekasi, Jawa Barat 17530, Indonesia","['car_dealer', 'store', 'point_of_interest', 'establishment']"
DEALER KIA JAKARTA BEKASI,-6.307923,107.172085,"Jl Jababeka VI blok J no 4\D Kawasan Industri Jababeka, Sertajaya, Kec. Cikarang Tim., cikarang, Jawa Barat 17530, Indonesia","['car_dealer', 'store', 'point_of_interest', 'establishment']"
Kia Motors,-6.2506143,107.027504,"Jl. Ir. H. Juanda No.14e, Aren Jaya, Kec. Bekasi Tim., Bekasi, Jawa Barat 17111, Indonesia","['car_repair', 'point_of_interest', 'establishment']"
KIA Mobil,-6.5700928,106.8091189,"Padjadjaran Road No.7A, RT.03, Bantarjati, North Bogor, Bogor City, West Java 16153, Indonesia","['car_dealer', 'store', 'point_of_interest', 'establishment']"
Kia Motors,-6.2150894,106.8922661,"RT.11/RW.6, Cipinang Muara, Jatinegara, East Jakarta City, Jakarta 13420, Indonesia","['car_dealer', 'store', 'point_of_interest', 'establishment']"
KIA Motors,-6.1494909,106.8978652,"Gading Bukit Indah, Komplek Blok SA 31, Jl. Raya Gading Kirana, RT.18/RW.8, Klp. Gading Bar., Kec. Klp. Gading, Kota Jkt Utara, Daerah Khusus Ibukota Jakarta 14240, Indonesia","['car_repair', 'store', 'point_of_interest', 'establishment']"
Showroom Kia Jakarta,-6.1447216,106.8799018,"Jl. Sunter Garden Raya Blok D8 No.1 Sunter Agung Tanjung Priok Jakarta Utara DKI Jakarta, RT.10/RW.11, Sunter Jaya, Tj. Priok, Kota Jkt Utara, Daerah Khusus Ibukota Jakarta 14350, Indonesia","['car_dealer', 'store', 'point_of_interest', 'establishment']"
Kia. PT,-6.478433,106.844588,"Jl. Raya Cikaret No.13, RT.2/RW.10, Pakansari, Cibinong, Bogor, Jawa Barat 16915, Indonesia","['car_dealer', 'store', 'point_of_interest', 'establishment']"
Depok Motor,-6.4247121,106.8224331,"Jl. Kartini No.1, Depok, Kec. Pancoran Mas, Kota Depok, Jawa Barat 16431, Indonesia","['car_repair', 'point_of_interest', 'establishment']"
Kia Motor,-6.1291667,106.4704667,"JL Raya Merak, No. 51, Benda, Sukamulya, Jambu Karya, Tangerang, Banten 15540, Indonesia","['car_dealer', 'store', 'point_of_interest', 'establishment']"
KIA audio mobil,-6.263734,107.015575,"Jl.pondok Hijau permai utama, Pengasinan, Kota Bks, Jawa Barat 17115, Indonesia","['electronics_store', 'car_repair', 'store', 'point_of_interest', 'establishment']"
raja jaya motor hyundai kia,-6.2956756,106.6794857,"BSD Auto Part Blok B 22, Jl. Letnan Sutopo, Serpong, Lengkong Gudang Tim., Kec. Serpong, Kota Tangerang Selatan, Banten 15310, Indonesia","['car_repair', 'point_of_interest', 'establishment']"
PT. Kia Caringin,-6.2032868,106.8034738,"Jl. Pejompongan III No.11, RT.1/RW.5, Bend. Hilir, Kec. Tanah Abang, Kota Jakarta Pusat, Daerah Khusus Ibukota Jakarta 10210, Indonesia","['car_dealer', 'store', 'point_of_interest', 'establishment']"
Kia Home,-6.284658,106.665294,"Jl. Pahlawan Seribu, Lengkong Wetan, Kec. Serpong, Kota Tangerang Selatan, Banten 15310, Indonesia","['car_dealer', 'store', 'point_of_interest', 'establishment']"
Kia Motors,-6.2869723,106.9505221,"Jl. H. Karim No.3, RT.5/RW.9, Jatikramat, Kec. Jatiasih, Kota Bks, Jawa Barat 17421, Indonesia","['car_dealer', 'store', 'point_of_interest', 'establishment']"
Toko Spare Part KIA,-6.2951241,106.7347634,"Sawah Lama, Ciputat, South Tangerang City, Banten 15413, Indonesia","['car_repair', 'point_of_interest', 'establishment']"
Kia Service Chung,-6.1568196,106.8048175,"Jl. Tts Raya, RT.1/RW.5, Duri Sel., Kec. Tambora, Kota Jakarta Barat, Daerah Khusus Ibukota Jakarta 11270, Indonesia","['car_repair', 'point_of_interest', 'establishment']"
Kia,-6.2474209,106.7008353,"Jl. Raden Patah, RT.5/RW.3, Parung Serab, Kec. Ciledug, Kota Tangerang, Banten 15153, Indonesia","['car_dealer', 'store', 'point_of_interest', 'establishment']"
Kia Auto Mobil,-6.1544587,106.8484283,"Mega Glodok Kemayoran Lantai 5, Jalan Raya Angkasa No.B6, RW.10, Gn. Sahari Sel., Kec. Kemayoran, Kota Jakarta Pusat, Daerah Khusus Ibukota Jakarta 10610, Indonesia","['car_repair', 'point_of_interest', 'establishment']"
Kia Berkah Motor Bengkel Motor,-6.20835,106.4513611,"JL Raya Serang, Km. 24, 5, Balaraja, Sentul, Kec. Balaraja, Tangerang, Banten 15610, Indonesia","['car_repair', 'point_of_interest', 'establishment']"
Kia Motors Garuda,-6.1624589,106.8432399,"No, Jl. Garuda No., 28, RT.1/RW.4, Kemayoran, Kec. Kemayoran, Kota Jakarta Pusat, Daerah Khusus Ibukota Jakarta 10620, Indonesia","['car_repair', 'point_of_interest', 'establishment']"
Jaya Motor Mazda Ford Hyundai Kia Timor,-6.264365,106.7999012,"Duta Mas Fatmawati lantai 2, Nomor 61 Jalan Fatmawati, RT.1/RW.5, Cipete Utara, Kec. Kby. Baru, Kota Jakarta Selatan, Daerah Khusus Ibukota Jakarta 12150, Indonesia","['car_repair', 'store', 'point_of_interest', 'establishment']"
PT. Kia Mobil Indonesia,-6.1342611,106.8293273,"Jl. Mangga Dua Raya, RT.11/RW.5, Ancol, Kec. Pademangan, Kota Jkt Utara, Daerah Khusus Ibukota Jakarta 14430, Indonesia","['car_dealer', 'store', 'point_of_interest', 'establishment']"
Bengkel Mobil Hyundai Kia Nana Motor Serang,-6.045015,106.0967395,"Jl. Raya Serang, Wanayasa, Kec. Kramatwatu, Serang, Banten 42616, Indonesia","['car_repair', 'point_of_interest', 'establishment']"
KIA Cianjur PT. SUKSES ABADI MOBILINDO,-6.8098142,107.1505359,"Jl. Raya Bandung No.117, Muka, Kec. Cianjur, Kabupaten Cianjur, Jawa Barat 43215, Indonesia","['car_dealer', 'store', 'point_of_interest', 'establishment']"
KIA CILENGSI,-6.4535932,106.8973767,"Karanggan, Gunung Putri, Bogor, West Java 16960, Indonesia","['store', 'point_of_interest', 'establishment']"
KIA HOME,-6.2543711,106.7971038,"Panglima Polim Street No.80, RT.2/RW.5, Pulo, Kebayoran Baru, South Jakarta City, Jakarta 12160, Indonesia","['home_goods_store', 'store', 'point_of_interest', 'establishment']"
Warung Kia,-6.13881,106.1346104,"Jl. Permata Safira Regency Blok D2 No.4, Sepang, Kec. Taktakan, Kota Serang, Banten 42162, Indonesia","['car_dealer', 'store', 'point_of_interest', 'establishment']"
Kia Phone Shop,-6.3136389,106.7695747,"Jl. Cirendeu Raya, Cireundeu, Kec. Ciputat Tim., Kota Tangerang Selatan, Banten 15419, Indonesia","['store', 'point_of_interest', 'establishment']"
Kia Advertising,-6.2609685,106.6861772,"Jl. Graha Raya Bintaro, Pd. Kacang Bar., Kec. Pd. Aren, Kota Tangerang Selatan, Banten 15226, Indonesia","['store', 'point_of_interest', 'establishment']"
KIA BUANA ADVERTISING,-6.2951494,106.2765837,"Jl. Pamarayan, Wirana, Rangkasbitung, Kabupaten Lebak, Banten 42316, Indonesia","['store', 'point_of_interest', 'establishment']"
Kia Tour Dan Travel,-6.2473891,106.7975807,"Jl. Panglima Polim Raya No.105A, Melawai, Kebayoran Baru, RT.1/RW.5, Kramat Pela, Kec. Kby. Baru, Kota Jakarta Selatan, Daerah Khusus Ibukota Jakarta 12130, Indonesia","['travel_agency', 'store', 'point_of_interest', 'establishment']"
Dealer KIA Motors - Sentosa Mobil Purwakarta,-6.5294078,107.4463548,"Jl. Veteran Blok Beringin No.143, Nagri Kaler, Kec. Purwakarta, Kabupaten Purwakarta, Jawa Barat 41115, Indonesia","['car_dealer', 'store', 'point_of_interest', 'establishment']"
Kia Phone Shop,-6.247909,106.70105,"Jl. Raden Patah, Parung Serab, Kec. Ciledug, Kota Tangerang, Banten 15153, Indonesia","['store', 'point_of_interest', 'establishment']"
Kia Phone Shop,-6.2626497,106.7294603,"Jl. Ceger Raya No.24, RT.2/RW.2, Jurang Manggu Tim., Kec. Pd. Aren, Kota Tangerang Selatan, Banten 15222, Indonesia","['store', 'point_of_interest', 'establishment']"
KIA KENCANA,-6.369807,106.886065,"Jalan Radar Auri No.3, Kel. Cibubur, Kec. Ciracas, Jakarta Timur, RT.7/RW.14, Harjamukti, Kec. Cimanggis, Jakarta, Daerah Khusus Ibukota Jakarta 13720, Indonesia","['point_of_interest', 'establishment']"
House of Morris,-6.2446398,106.8045481,"Jl. Iskandarsyah I No.10, RT.5/RW.2, Melawai, Kec. Kby. Baru, Kota Jakarta Selatan, Daerah Khusus Ibukota Jakarta 12160, Indonesia","['point_of_interest', 'establishment']"
D'MORRIS BARBERSHOP,-6.1069208,106.9321421,"Jalan Komplek Gaya Motor No 78 A Cilincing, RT.3/RW.8, Semper Tim., Jakarta Utara, DKI Jakarta, Daerah Khusus Ibukota Jakarta 14130, Indonesia","['hair_care', 'store', 'point_of_interest', 'establishment']"
Philip Morris Indonesia. PT,-6.2246486,106.8098121,"One Pacific Place, 20th Floor, JL. Jend. Sudirman Kav.52-53, Sudirman Central Business District (SCBD), Jakarta, 12190, RT.5/RW.3, Senayan, Kebayoran Baru, South Jakarta City, Jakarta 12190, Indonesia","['finance', 'point_of_interest', 'establishment']"
PT Philips Morris Indonesia,-6.293125,107.0977317,"Gandamekar, West Cikarang, Bekasi, West Java 17530, Indonesia","['point_of_interest', 'establishment']"
Salon Morris,-6.1415175,106.7776478,"Jl. Kp. Gusti No.9, RT.14/RW.14, Pejagalan, Kec. Penjaringan, Kota Jkt Utara, Daerah Khusus Ibukota Jakarta 14450, Indonesia","['hair_care', 'point_of_interest', 'establishment']"
Kedai Morris,-6.339586,106.887701,"Jl. Kpl Dua Wetan No.17, RT.1/RW.8, Klp. Dua Wetan, Kec. Ciracas, Kota Jakarta Timur, Daerah Khusus Ibukota Jakarta 13730, Indonesia","['restaurant', 'food', 'point_of_interest', 'establishment']"
D'morris barbershop kramat sentiong,-6.1877886,106.8476937,"Jalan Kramat Sentiong No. 8, Kramat, Senen, RT.3/RW.7, Kramat, Kec. Senen, Kota Jakarta Pusat, Daerah Khusus Ibukota Jakarta 10450, Indonesia","['hair_care', 'health', 'point_of_interest', 'establishment']"
Camberwell Food and Drink Jakarta,-6.2446398,106.8045481,"House of Morris, Jl. Iskandarsyah I No.10, RT.5/RW.2, Melawai, Kebayoran Baru, South Jakarta City, Jakarta 12160, Indonesia","['restaurant', 'food', 'point_of_interest', 'establishment']"
Morris Jewellery,-6.1609164,106.8181007,"Jl. Gajah Mada No.19-26, RT.2/RW.1, Petojo Utara, Kec. Gambir, Kota Jakarta Pusat, Daerah Khusus Ibukota Jakarta 10130, Indonesia","['jewelry_store', 'store', 'point_of_interest', 'establishment']"
U.D Morris,-6.392212,106.844883,"Pasar Agung Blok C No. 15-16, Jl. Proklamasi, Abadijaya, Kec. Sukmajaya, Kota Depok, Jawa Barat 16417, Indonesia","['food', 'store', 'point_of_interest', 'establishment']"
Morris Image,-6.139468,106.7779529,"Jl. Kp. Gusti No.15, RT.14/RW.14, Pejagalan, Kec. Penjaringan, Kota Jkt Utara, Daerah Khusus Ibukota Jakarta 14450, Indonesia","['point_of_interest', 'establishment']"
D.Morris,-6.155553,106.817971,"Gajah Mada Plaza 1st Floor, Jl.gajah Mada, No.47-48, Jakarta, RT.12/RW.1, Krukut, Taman Sari, West Jakarta City, Jakarta 11140, Indonesia","['point_of_interest', 'establishment']"
Air isi Ulang MORRIS,-6.1412862,106.8232709,"Jl. Pangeran Jayakarta No.24, RT.2/RW.6, Mangga Dua Sel., Kec. Sawah Besar, Kota Jakarta Pusat, Daerah Khusus Ibukota Jakarta 11110, Indonesia","['food', 'point_of_interest', 'establishment']"
Morris & Sinergy,-6.2360959,106.9968943,"Jl. Kemakmuran, Marga Jaya, Kec. Bekasi Sel., Kota Bks, Jawa Barat 17141, Indonesia","['store', 'point_of_interest', 'establishment']"
Uda Listrik ( Sinergy & Morris ),-6.246745,107.014237,"Ps. Baru Bks, Jl. Ir. H. Juanda, Duren Jaya, Kec. Bekasi Tim., Kota Bks, Jawa Barat 17113, Indonesia","['store', 'point_of_interest', 'establishment']"
Morris Village,-6.6946167,106.921215,"Jalan Pesantren Lembah Arafah, Kuta, Megamendung, Bogor, Jawa Barat 16770, Indonesia","['point_of_interest', 'establishment']"
Morris BF,-6.2167907,106.8675535,"Jl. Bekasi Barat V No.14 Rw. Bunga Jatinegara Kota Jakarta Timur, Daerah Khusus Ibukota Jakarta 13310, RT.1/RW.2, Rw. Bunga, Kecamatan Jatinegara, Kota Jakarta Timur, Daerah Khusus Ibukota Jakarta 13310, Indonesia","['shopping_mall', 'point_of_interest', 'establishment']"
PT. Morris Niagatama Indonesia,-6.1513169,106.8977515,"Ruko Gading Bukit Indah Blok A No.8, Jl. Raya Gading Kirana, RT.18/RW.8, Klp. Gading Bar., Kec. Klp. Gading, Kota Jkt Utara, Daerah Khusus Ibukota Jakarta 14420, Indonesia","['point_of_interest', 'establishment']"
Toko Gaby Morris,-6.3274031,107.3497822,"Jl. Borneo Blok No., Jalan Borneo Blok D No.7, Bengle, Majalaya, Kabupaten Karawang, Jawa Barat 41371, Indonesia","['shopping_mall', 'point_of_interest', 'establishment']"
DAI-PROGRESS - Morris Building,-6.2446398,106.8045481,"No.10,, Jl. Iskandarsyah II No.1, RT.5/RW.2, Melawai, Kec. Kby. Baru, Kota Jakarta Selatan, Daerah Khusus Ibukota Jakarta 12160, Indonesia","['park', 'point_of_interest', 'establishment']"
After sales service Morris,-6.1352451,106.8775903,"Jl.Agung karya IV Blok B no.25, RT.6/RW.4, Papanggo, Tj. Priok, Kota Jkt Utara, Daerah Khusus Ibukota Jakarta 14340, Indonesia","['point_of_interest', 'establishment']"
Indomaret Graha Morris,-6.2866963,107.0319518,"Ruko Perumahan Mutiara Gading Timur, Jl. Mutiara Gading Timur, Mustika Jaya, Kec. Mustika Jaya, Bekasi, Jawa Barat 17158, Indonesia","['grocery_or_supermarket', 'food', 'store', 'point_of_interest', 'establishment']"
GERAI TIKI MORRIS,-6.175598,106.1823355,"depan pom bensin, Jl. Raya Petir - Serang, kp nyawana, Curug, Kota Serang, Banten 42171, Indonesia","['point_of_interest', 'establishment']"
Morris Store,-6.5153797,107.4519641,"Gg. Keramik, Mulyamekar, Kec. Babakancikao, Kabupaten Purwakarta, Jawa Barat 41181, Indonesia","['clothing_store', 'store', 'point_of_interest', 'establishment']"
MORIS MOTOR,-6.2141832,106.7731257,"NO.2-3, JALAN PANJANG ARTERI KELAPA DUA, RT07/RW04, SUKABUMI UTARA, KEBON JERUK, RT.7/RW.4, Sukabumi Utara, Kec. Kb. Jeruk, Kota Jakarta Barat, Daerah Khusus Ibukota Jakarta, Daerah Khusus Ibukota Jakarta 11540, Indonesia","['home_goods_store', 'store', 'point_of_interest', 'establishment']"
Lock & Lock,-6.1893563,106.7386938,"St. Morris Lippo Puri Lantai LG No. 85-86, Jalan Puri Kembangan, RT.3/RW.2, Kembangan Sel., Kec. Kembangan, Kota Jakarta Barat, Daerah Khusus Ibukota Jakarta 11610, Indonesia","['home_goods_store', 'store', 'point_of_interest', 'establishment']"
Kantin HM Sampoerna - Philips Moris Indonesia,-6.3545889,107.2887458,"PT HM SAMPOERNA KIIC, Puseurjaya, Kec. Telukjambe Tim., Kabupaten Karawang, Jawa Barat 41361, Indonesia","['restaurant', 'food', 'point_of_interest', 'establishment']"
PagePulse,-6.2446398,106.8045481,"House of Morris, 2nd Floor, Jalan Iskandarsyah l no 10, Melawai, Kebayoran Baru, RT.5/RW.2, Melawai, Kec. Kby. Baru, Kota Jakarta Selatan, Daerah Khusus Ibukota Jakarta 12160, Indonesia","['point_of_interest', 'establishment']"
"PT. HM. Sampoerna, Tbk.",-6.1415015,106.8809042,"Jl. Agung Timur 9 No.7, RT.10/RW.11, Sunter Jaya, Tj. Priok, Kota Jkt Utara, Daerah Khusus Ibukota Jakarta 14350, Indonesia","['point_of_interest', 'establishment']"
PT. HM. SAMPOERNA Tbk. Area Serang,-6.1193998,106.1960998,"Jalan Jakarta Serang KM 4, Cipocok Jaya, Panancangan, Kec. Serang, Kota Serang, Banten 42124, Indonesia","['point_of_interest', 'establishment']"
PT HM Sampoerna,-6.1582188,106.8389176,"Jalan Angkasa No.19, RT.7/RW.5, Gunung Sahari Utara, Kemayoran, RT.7/RW.5, Gn. Sahari Utara, Kec. Sawah Besar, Kota Jakarta Pusat, Daerah Khusus Ibukota Jakarta 10610, Indonesia","['point_of_interest', 'establishment']"
PT HM Sampoerna,-6.1925999,106.7687258,"Jl. Panjang, RT.5/RW.10, Kebon Jeruk, Kebonjeruk, West Jakarta City, Jakarta 11530, Indonesia","['point_of_interest', 'establishment']"
pt. hm sampoerna tbk,-6.2014568,106.8080383,"Jl. Penjernihan 1 No.36-50, RW.8, Bend. Hilir, Kec. Tanah Abang, Kota Jakarta Pusat, Daerah Khusus Ibukota Jakarta 10210, Indonesia","['point_of_interest', 'establishment']"
Morris Beauty Parlour,-6.93229,107.613669,"Jl. Pungkur No.210, Ciateul, Kec. Regol, Kota Bandung, Jawa Barat 40252, Indonesia","['beauty_salon', 'point_of_interest', 'establishment']"
MITSUBISHI PAJERO SPORT,-6.1746266,106.811428,"Jl. Cideng Barat No.65B, RT.14/RW.2, Cideng, Kec. Gambir, Kota Jakarta Pusat, Daerah Khusus Ibukota Jakarta 10150, Indonesia","['car_dealer', 'store', 'point_of_interest', 'establishment']"
Promo Mobil Pajero Pondok Indah,-6.2490599,106.7809394,"Jl. Sultan Iskandar Muda No.28-29, RT.2/RW.1, Kby. Lama Sel., Jakarta Selatan, Kota Jakarta Selatan, Daerah Khusus Ibukota Jakarta 12240, Indonesia","['car_dealer', 'store', 'point_of_interest', 'establishment']"
Jual Mitsubishi Pajero : Jeff,-6.188653,106.782945,"Jl. Pos Pengumben, Jl. Budi Raya No.20, RT.1/RW.5, Kb. Jeruk, Kec. Kb. Jeruk, Kota Jakarta Barat, Daerah Khusus Ibukota Jakarta 11560, Indonesia","['car_dealer', 'store', 'point_of_interest', 'establishment']"
Indomobil Nissan Datsun Jakarta Pos Pengumben,-6.2190866,106.7665339,"Jl. Pahlawan No.81, RT.3/RW.5, Sukabumi Sel., Kec. Kb. Jeruk, Kota Jakarta Barat, Daerah Khusus Ibukota Jakarta 11560, Indonesia","['car_dealer', 'store', 'point_of_interest', 'establishment']"
Indomobil Nissan Datsun Cimone,-6.1841221,106.6191924,"Pabuaran, Kelapa Dua, Jl. Raya Merdeka No.2/125, Cimone Jaya, Karawaci Sub-District, Tangerang City, Banten 15114, Indonesia","['car_dealer', 'store', 'point_of_interest', 'establishment']"
Indomobil Nissan Datsun Daan Mogot,-6.1576268,106.7656001,"Daan Mogot Road No.KM.10 No.9, RT.4/RW.5, Kedaung Kali Angke, Cengkareng, West Jakarta City, Jakarta 11710, Indonesia","['car_dealer', 'store', 'point_of_interest', 'establishment']"
NISSAN DATSUN TOMANG,-6.184183,106.789818,"Jl. Arjuna Utara No.4-44, RT.1/RW.1, Tj. Duren Sel., Kec. Grogol petamburan, Kota Jakarta Barat, Daerah Khusus Ibukota Jakarta 11470, Indonesia","['car_dealer', 'store', 'point_of_interest', 'establishment']"
Indomobil Nissan Datsun Siliwangi Bekasi,-6.303397,106.983723,"Jl. Narogong Raya No.Km.9, Bojong Menteng, Kec. Rawalumbu, Kota Bks, Jawa Barat 17117, Indonesia","['car_dealer', 'store', 'point_of_interest', 'establishment']"
Indomobil Nissan Datsun Kebun Jeruk,-6.2056149,106.7696385,"Jl. Panjang Arteri Klp. Dua Raya 2 No.30, RT.2/RW.2, Klp. Dua, Kec. Kb. Jeruk, Kota Jakarta Barat, Daerah Khusus Ibukota Jakarta 11550, Indonesia","['car_dealer', 'store', 'point_of_interest', 'establishment']"
Indomobil Nissan Datsun Pondok Indah,-6.258157,106.78149,"Jl. Sultan Iskandar Muda No.Kav. 29, RT.6/RW.9, Kby. Lama Sel., Kec. Kby. Lama, Kota Jakarta Selatan, Daerah Khusus Ibukota Jakarta 12310, Indonesia","['car_dealer', 'store', 'point_of_interest', 'establishment']"
Nissan Datsun Bekasi Barat (Mimosa),-6.2333958,106.9896868,"No. 27, Jl. Jend. Sudirman No.KM, Kayuringin Jaya, Kec. Bekasi Sel., Kota Bks, Jawa Barat 17144, Indonesia","['car_dealer', 'store', 'point_of_interest', 'establishment']"
Sales Suzuki Serang Banten,-6.155315,106.15867,"Jl. Raya Serang - Pandeglang, Karundang, Kec. Cipocok Jaya, Kota Serang, Banten 42117, Indonesia","['car_dealer', 'store', 'point_of_interest', 'establishment']"
Nissan Cibubur,-6.390287,106.949693,"jalan alternatif cibubur, nagrak, gunung putri, bogor KM 7,00, Nagrak, Kec. Gn. Putri, Bogor, Jawa Barat 16967, Indonesia","['car_dealer', 'store', 'point_of_interest', 'establishment']"
Indomobil Nissan Datsun TB Simatupang,-6.290783,106.783135,"Jl. R.A.Kartini No.RT.6, RT.6/RW.14, Pd. Pinang, Kec. Kby. Lama, Kota Jakarta Selatan, Daerah Khusus Ibukota Jakarta 12310, Indonesia","['car_dealer', 'store', 'point_of_interest', 'establishment']"
Indomobil Nissan Datsun Gading Serpong,-6.2486193,106.6265125,"Blok M 5 No. 22, Jl. Gading Serpong Boulevard No.23, Curug Sangereng, Kec. Klp. Dua, Tangerang, Banten 15810, Indonesia","['car_dealer', 'store', 'point_of_interest', 'establishment']"
Indomobil Nissan Datsun Kelapa Gading,-6.156856,106.898715,"Jalan Boulevard Barat Raya Blok XC 8 No 1, RT.2/RW.5, West Kelapa Gading, Kelapa Gading, North Jakarta City, Jakarta 14240, Indonesia","['car_dealer', 'store', 'point_of_interest', 'establishment']"
Indomobil Nissan Datsun Jatake,-6.2053971,106.5704105,"Jl. Gatot Subroto KM. 8 Jatake, Manis Jaya, Jatiuwung, Tangerang City, Banten 15136, Indonesia","['car_dealer', 'store', 'point_of_interest', 'establishment']"
Indomobil Nissan Datsun Kapuk,-6.124932,106.7549648,"Jalan Pantai Indah Selatan 2 No.1 No.1, RT.2/RW.3, Kapuk Muara, Penjaringan, Jakarta, 14460, Indonesia","['car_dealer', 'store', 'point_of_interest', 'establishment']"
PT. INDOMOBIL TRADA NASIONAL / Nissan Sunter,-6.1441798,106.8831706,"JL. DANAU SUNTER SELATAN BLOK O III/53-54, Jakarta Utara, RT.10/RW.11, Sunter Jaya, Tanjung Priok, North Jakarta City, Jakarta 14350, Indonesia","['car_dealer', 'store', 'point_of_interest', 'establishment']"
Indomobil Nissan Datsun,-6.323931,107.272787,"Jl. International Karawang Bar., RT.003/RW.004, Wadas, Kec. Telukjambe Tim., Kabupaten Karawang, Jawa Barat 41361, Indonesia","['car_dealer', 'store', 'point_of_interest', 'establishment']"
Indomobil Nissan Datsun Halim Jakarta,-6.248804,106.880294,"Jl. Halim Perdanakusuma No.1, RT.1/RW.8, Kb. Pala, Kec. Makasar, Kota Jakarta Timur, Daerah Khusus Ibukota Jakarta 13650, Indonesia","['car_dealer', 'store', 'point_of_interest', 'establishment']"
Showroom Indomobil Nissan Datsun,-6.278654,106.796244,"Raya No.60 Kecamatan., Jl. RS. Fatmawati Raya, RT.11/RW.6, Cilandak Bar., Jakarta Selatan, DKI Jakarta, Daerah Khusus Ibukota Jakarta 12430, Indonesia","['car_dealer', 'store', 'point_of_interest', 'establishment']"
Dealer Nissan Tambun Bekasi : Abdul,-6.264423,107.0698775,"Jl. Sultan Hasanudin No.280, Tambun, Kec. Tambun Sel., Bekasi, Jawa Barat 17510, Indonesia","['car_dealer', 'store', 'point_of_interest', 'establishment']"
Peugeot,-6.2926999,106.7894271,"Jl. TB Simatupang, RT.11/RW.4, Cilandak Bar., Kec. Cilandak, Kota Jakarta Timur, Daerah Khusus Ibukota Jakarta 13430, Indonesia","['car_dealer', 'car_repair', 'store', 'point_of_interest', 'establishment']"
PEUGEOT BSD Astra Biz Center,-6.287366,106.638985,"Jl BSD Raya Utama, Astra Biz Center, Kav. Commercial Park Barat Lot I. IIC, Lengkong Kulon, Kec. Pagedangan, Tangerang, Banten 15331, Indonesia","['car_dealer', 'car_repair', 'store', 'point_of_interest', 'establishment']"
Dealer Peugeot,-6.2310929,106.6594335,"Alam Sutera, Jalan Jalur Sutera, Pakualam, Tangerang Selatan, Kota Tangerang Selatan, Banten 15143, Indonesia","['car_dealer', 'store', 'point_of_interest', 'establishment']"
Peugeot,-6.2400335,106.819148,"Jl. Kapten Tendean, RT.1/RW.1, Pela Mampang, Kec. Mampang Prpt., Kota Jakarta Selatan, Daerah Khusus Ibukota Jakarta 12720, Indonesia","['car_dealer', 'store', 'point_of_interest', 'establishment']"
Tunas Peugeot,-6.226035,106.8477539,"JL. Dr. Saharjo, No. 319, Tebet, RT.1/RW.1, Tebet Bar., Kec. Tebet, Kota Jakarta Selatan, Daerah Khusus Ibukota Jakarta 12810, Indonesia","['car_dealer', 'store', 'point_of_interest', 'establishment']"
Peugeot,-6.2922975,106.79719,"RT.4/RW.9, West Cilandak, Cilandak, South Jakarta City, Jakarta 12430, Indonesia","['car_dealer', 'store', 'point_of_interest', 'establishment']"
Bengkel Peugeot,-6.3215853,106.924004,"Jl. Raya Hankam, RW.4, Jatimurni, Kec. Pd. Melati, Kota Bks, Jawa Barat 17431, Indonesia","['car_dealer', 'car_repair', 'store', 'point_of_interest', 'establishment']"
Dealer Mobil Peugeot Lebak Bulus,-6.2926882,106.7894774,"Jl. Letjen TB Simatupang No. 10 Lebak Bulus Cilandak Jakarta Selatan DKI Jakarta, RT.11/RW.4, Cilandak Bar., Kec. Cilandak, Kota Jakarta Selatan, Daerah Khusus Ibukota Jakarta 12430, Indonesia","['car_dealer', 'store', 'point_of_interest', 'establishment']"
"PT. Astra International, Tbk - Peugeot",-6.292689,106.789526,"Jl. R.A.Kartini No.Kavling 203, RT.11/RW.4, Cilandak Bar., Kec. Cilandak, Kota Jakarta Selatan, Daerah Khusus Ibukota Jakarta 12430, Indonesia","['car_dealer', 'store', 'point_of_interest', 'establishment']"
Peugeot Scooters Jakarta,-6.2972884,106.7840427,"Bumi harum manis, Jl. Lb. Bulus Raya 1 No.62, RT.10/RW.6, Lb. Bulus, Kec. Cilandak, Kota Jakarta Selatan, Daerah Khusus Ibukota Jakarta 12340, Indonesia","['store', 'point_of_interest', 'establishment']"
Kamil Motor Peugeot,-6.3513667,106.7541323,"Jl. Kunir 4 No.21A, Pd. Cabe Udik, Kec. Pamulang, Kota Tangerang Selatan, Banten 15418, Indonesia","['car_repair', 'point_of_interest', 'establishment']"
Peugeot HO Sunter,-6.1319233,106.8634108,"Jl.Gaya motor 2 no.1, sunter 2, RT.2/RW.12, Papanggo, Tj. Priok, Kota Jkt Utara, Daerah Khusus Ibukota Jakarta 14350, Indonesia","['electronics_store', 'store', 'point_of_interest', 'establishment']"
Dealer & Service Peugeot Scooters,-6.2731151,106.7450694,"Jl. Bintaro Utama 3A, Pd. Karya, Kec. Pd. Aren, Kota Tangerang Selatan, Banten 15221, Indonesia","['store', 'point_of_interest', 'establishment']"
PEUGEOT MOTOCYCLE INDONESIA CIPETE,-6.2781858,106.8045796,"Jl. Cipete Raya No.1, RT.3/RW.4, Cipete Sel., Kec. Cilandak, Kota Jakarta Selatan, Daerah Khusus Ibukota Jakarta 12410, Indonesia","['car_dealer', 'store', 'point_of_interest', 'establishment']"
Peugeot AutoTronics,-6.1917518,106.7806505,"Jl. Sang Timur No.105A, RT.12/RW.4, Kb. Jeruk, Kec. Kb. Jeruk, Kota Jakarta Barat, Daerah Khusus Ibukota Jakarta 11530, Indonesia","['car_repair', 'point_of_interest', 'establishment']"
KENCANA MAS BENGKEL PEUGEOT,-6.295399,106.679198,"BSD AUTOPARTS G 15 SERPONG, BSD, East Lengkong Gudang, SERPONG BSD, TANGERANG, South Tangerang City, Banten 15318, Indonesia","['car_repair', 'point_of_interest', 'establishment']"
"Engine Block Autoworks, Peugeot Specialist",-6.271982,106.710093,"No, Jl. Camat Pd. Aren No.28, Pondok Jaya, Pondok Aren, South Tangerang City, Banten 15229, Indonesia","['car_repair', 'point_of_interest', 'establishment']"
Auto Solution Peugeot Spesialis Supri,-6.3200519,106.9585116,"Jatiluhur, Jatiasih, Bekasi City, West Java 17425, Indonesia","['car_repair', 'point_of_interest', 'establishment']"
Dealer & Service Peugeot Scooters,-6.2731364,106.7450463,"Jl. Bintaro Utama 3 Blok AM No.40, Pd. Betung, Kec. Pd. Aren, Kota Tangerang Selatan, Banten 15221, Indonesia","['store', 'point_of_interest', 'establishment']"
DEKA MOTOR spesialis PEUGEOT,-6.2256206,106.9474679,"Jl. Malaka Baru No.24, Bintara, Kec. Bekasi Bar., Kota Bks, Jawa Barat 13460, Indonesia","['car_repair', 'point_of_interest', 'establishment']"
Official Workshop Peugeot,-6.2928183,106.7894466,"Jl. R.A. Kartini Kav. 203, Cilandak, RT.11/RW.4, Cilandak Bar., Kec. Cilandak, Kota Jakarta Selatan, Daerah Khusus Ibukota Jakarta 12440, Indonesia","['car_repair', 'point_of_interest', 'establishment']"
Ian Peugeot,-6.376427,106.7898077,"Perumahan Nirwana Blok f no.8 Kelurahan, Grogol, Kec. Limo, Kota Depok, Jawa Barat 16512, Indonesia","['car_repair', 'point_of_interest', 'establishment']"
Refi Auto Showroom peugeot,-6.20018,106.769252,"Jl. Panjang No. 9 - Arteri Kebon Jeruk11530, RT.2/RW.2, Kebon Jeruk, Kebonjeruk, West Jakarta City, Jakarta 11530, Indonesia","['car_repair', 'point_of_interest', 'establishment']"
Ega Motor Spesialis Peugeot BMW,-6.3855504,106.9403546,"Nagrak, Gunung Putri, Bogor, West Java 16967, Indonesia","['car_repair', 'point_of_interest', 'establishment']"
toko sparepart chevrolet opel peugeot,-6.4026387,106.833756,"Pasar segar depok jln.tole iskandar blok KGB1, no8 Hp:085715388137, Kec. Pancoran Mas, Kota Depok, Jawa Barat 16431, Indonesia","['car_repair', 'store', 'point_of_interest', 'establishment']"
Berkah Motor Peugeot,-6.2937027,106.9427154,"Jl. Sel. 8 No.100, Jatimekar, Kec. Jatiasih, Kota Bks, Jawa Barat 17422, Indonesia","['car_repair', 'point_of_interest', 'establishment']"
Auto Dynamics Spesialis Peugeot,-6.300656,106.7769837,"Jl. Pertanian Raya No.91, RT.3/RW.4, Lb. Bulus, Kec. Cilandak, Kota Jakarta Selatan, Daerah Khusus Ibukota Jakarta 12440, Indonesia","['car_repair', 'point_of_interest', 'establishment']"
Indonesia Peugeot Lovers,-6.3824913,106.8715422,"Jl. Gas Alam Blok Makam No.12, RT.2/RW.7, Curug, Kec. Cimanggis, Kota Depok, Jawa Barat 16453, Indonesia","['car_repair', 'point_of_interest', 'establishment']"
Guna Motor Peugeot,-6.1296127,106.881328,"9,, Gg. Rambutan Bar. No.8, RT.4/RW.2, Papanggo, Tj. Priok, Kota Jkt Utara, Daerah Khusus Ibukota Jakarta 14340, Indonesia","['store', 'point_of_interest', 'establishment']"
Mulyo Utomo Spesialis Peugeot,-6.2578495,106.8573041,"I, RT.4/RW.1, Rawajati, Kec. Pancoran, Kota Jakarta Timur, Daerah Khusus Ibukota Jakarta 12750, Indonesia","['store', 'point_of_interest', 'establishment']"
Ratu Motor (Peugeot),-6.175776,106.840542,"Plaza Atrium, Lt. V Blok E 100 -101, RW.2, Senen, Kec. Senen, Kota Jakarta Pusat, Daerah Khusus Ibukota Jakarta 10410, Indonesia","['car_repair', 'store', 'point_of_interest', 'establishment']"
Bengkel Peugeot Anton HI,-6.1544683,106.9861112,"Jl. Simphoni, Pusaka Rakyat, Kec. Tarumajaya, Bekasi, Jawa Barat 17214, Indonesia","['car_repair', 'point_of_interest', 'establishment']"
Ratu Motor (Peugeot),-6.174748,106.84305,"Jl. St. Senen Jl. Bungur Besar No.52E, RW.3, Senen, Kec. Senen, Kota Jakarta Pusat, Daerah Khusus Ibukota Jakarta 10410, Indonesia","['car_repair', 'point_of_interest', 'establishment']"
Jaya Motor PEUGEOT,-6.309808,106.8053429,"Gg. Manin, RT.5/RW.3, Pd. Labu, Kec. Cilandak, Kota Jakarta Selatan, Daerah Khusus Ibukota Jakarta 12450, Indonesia","['car_repair', 'point_of_interest', 'establishment']"
"Bengkel Mobil Sekawan Motor (Peugeot, dll)",-6.243946,106.7804661,"No.1/40 Jalan Ciputat Raya South Jakarta, RT.4/RW.8, Cireundeu, Kebayoran Lama, South Jakarta City, Jakarta 15419, Indonesia","['car_repair', 'point_of_interest', 'establishment']"
Oto Klinik Peugeot,-6.2991194,106.840839,"Jl. Tj. Barat Raya No.105, RT.6/RW.4, Tj. Bar., Kec. Jagakarsa, Kota Jakarta Selatan, Daerah Khusus Ibukota Jakarta 12530, Indonesia","['car_repair', 'point_of_interest', 'establishment']"
Toko Sperpart Chevrolet Opel Peugeot didepok,-6.39831,106.790143,"Jl. Jagal Gg Aula Anur No.93, Rangkapan Jaya, Kec. Pancoran Mas, Kota Depok, Jawa Barat 16412, Indonesia","['car_repair', 'store', 'point_of_interest', 'establishment']"
Roby Peugeot,-6.4133768,106.8546337,"Jl. tahap v, Sukamaju, Kec. Cilodong, Kota Depok, Jawa Barat 16415, Indonesia","['car_repair', 'point_of_interest', 'establishment']"
Peugeot,-6.1407211,106.8907961,"Jl. Kom L Yos Sudarso Kav 24 Sungai Bambu Tanjung Priok Jakarta Utara DKI Jakarta, Jl. Yos Sudarso, RT.10/RW.6, Sungai Bambu, Tj. Priok, Kota Jkt Utara, Daerah Khusus Ibukota Jakarta 14330, Indonesia","['point_of_interest', 'establishment']"
Bengkel Peugeot,-6.7969869,107.1903795,"National Rte 3, Sukamantri, Karangtengah, Cianjur Regency, West Java 43281, Indonesia","['car_repair', 'point_of_interest', 'establishment']"
Proton,-6.4115355,106.8163327,"Jl. Raya Citayam No.47, Depok, Kec. Pancoran Mas, Kota Depok, Jawa Barat 16431, Indonesia","['car_dealer', 'store', 'point_of_interest', 'establishment']"
Proton,-6.1949732,106.7826316,"Jl. Kemanggisan Raya No.5, RT.5/RW.13, Palmerah, Kec. Palmerah, Kota Jakarta Barat, Daerah Khusus Ibukota Jakarta 11530, Indonesia","['car_dealer', 'store', 'point_of_interest', 'establishment']"
Proton,-6.2292558,106.7207334,"Jl. HOS Cokroaminoto, RT.1/RW.3, Sudimara Tim., Kec. Ciledug, Kota Tangerang, Banten 15151, Indonesia","['car_dealer', 'store', 'point_of_interest', 'establishment']"
Proton,-6.2937543,106.6674429,"Ruko CBD, Jl. Pahlawan Seribu, Lengkong Gudang, Kec. Serpong, Kota Tangerang Selatan, Banten 15322, Indonesia","['car_dealer', 'store', 'point_of_interest', 'establishment']"
Proton,-6.2002975,106.6203473,"Ruko Victoria, Jl. Imam Bonjol, Bojong Jaya, Kec. Karawaci, Kota Tangerang, Banten 15138, Indonesia","['point_of_interest', 'establishment']"
Proton,-6.3769856,106.9698635,"Jl. Narogong Raya, Limus Nunggal, Kec. Cileungsi, Bogor, Jawa Barat 16820, Indonesia","['point_of_interest', 'establishment']"
Proton Edar Indonesia. PT,-6.2914291,106.6674485,"Ruko CBD - BSD Blok F12 - 15, Serpong, Lengkong Gudang, Kec. Serpong, Tangerang, Banten 15321, Indonesia","['car_dealer', 'store', 'point_of_interest', 'establishment']"
Mobil Proton Exora Star MT,-6.4032455,106.8186951,"Jl. Kartini No.47, Depok, Kec. Pancoran Mas, Kota Depok, Jawa Barat 16431, Indonesia","['car_dealer', 'car_repair', 'store', 'point_of_interest', 'establishment']"
Proton Gumilang,-6.2062518,106.7790428,"Jl. Sulaiman No.3, RT.7/RW.3, Sukabumi Utara, Kec. Kb. Jeruk, Kota Jakarta Barat, Daerah Khusus Ibukota Jakarta 11540, Indonesia","['home_goods_store', 'store', 'point_of_interest', 'establishment']"
PT. PROTON GUMILANG Head Office,-6.1978413,106.6386524,"Jl. Hartono Raya, Modern Golf Shop Houses T03/08B, Kota Modern, Kelapa Indah, Tangerang, Tangerang City, Banten 15117, Indonesia","['home_goods_store', 'store', 'point_of_interest', 'establishment']"
PT. Proton Gumilang,-6.1979003,106.7930735,"Jl. Anggrek Cendrawasih II No.17 Kemanggisan Palmerah Jakarta Barat DKI Jakarta, RT.8/RW.2, Palmerah, Kec. Palmerah, Kota Jakarta Barat, Daerah Khusus Ibukota Jakarta 11480, Indonesia","['home_goods_store', 'store', 'point_of_interest', 'establishment']"
Proton Jatiasih,-6.3104842,106.9531837,"Jl. Wibawa Mukti II No.1, Jatiasih, Kec. Jatiasih, Kota Bks, Jawa Barat 17423, Indonesia","['car_repair', 'point_of_interest', 'establishment']"
Proton,-6.5267479,106.8564464,"Sentul Estate II, Jl. Raya Sirkuit Sentul No.6, Sentul, Kec. Babakan Madang, Bogor, Jawa Barat 16810, Indonesia","['home_goods_store', 'store', 'point_of_interest', 'establishment']"
Proton & SHELL Warehouse,-6.2323755,106.9893877,"Jl. Jend. Sudirman No.1, Harapan Mulya, Kecamatan Medan Satria, Kota Bks, Jawa Barat 17143, Indonesia","['store', 'point_of_interest', 'establishment']"
Proton,-6.198264,106.935682,"Jl. Jendral Sudirman, RT.19/RW.7, Penggilingan, Kec. Cakung, Kota Jakarta Timur, Daerah Khusus Ibukota Jakarta 17144, Indonesia","['point_of_interest', 'establishment']"
Pt. Proton Liftindo Perkasa,-6.309131,107.14275,"Jl. Industri Raya, Pasirsari, Cikarang Sel., Bekasi, Jawa Barat 17530, Indonesia","['store', 'point_of_interest', 'establishment']"
Spesialis Mitsubishi Dan Proton,-6.2241648,106.9388607,"Jl. Mawar Merah II, RT.6/RW.1, Pd. Kopi, Kec. Duren Sawit, Kota Jakarta Timur, Daerah Khusus Ibukota Jakarta 13460, Indonesia","['car_repair', 'point_of_interest', 'establishment']"
PT. PROTON GUMILANG,-6.1994133,106.7967208,"Jalan Sulaiman Blok Yusuf No.3, RT.1/RW.4, Slipi, Kec. Kb. Jeruk, Kota Jakarta Barat, Daerah Khusus Ibukota Jakarta 11540, Indonesia","['home_goods_store', 'store', 'point_of_interest', 'establishment']"
Proton Gumilang. PT,-6.186721,106.635661,"JL. Veteran Raya, Block D-12 No. 12, 15881, Babakan, Kec. Tangerang, Kota Tangerang, Banten 12330, Indonesia","['home_goods_store', 'store', 'point_of_interest', 'establishment']"
Proton Hydraulic,-6.2953826,107.2936693,"Jl. Ahmad Yani, Jl. Raya Tj. Pura Baru, Tanjungmekar, Kec. Karawang Bar., Kabupaten Karawang, Jawa Barat 41316, Indonesia","['hardware_store', 'store', 'point_of_interest', 'establishment']"
Renault MT. Haryono Jakarta,-6.2424664,106.8636189,"Wisma Indomobil, Jl Letjen MT Haryono, RW.6 No.kav 8, RW.6, Kp. Melayu, Kecamatan Jatinegara, Jakarta, Daerah Khusus Ibukota Jakarta 13330, Indonesia","['car_dealer', 'store', 'point_of_interest', 'establishment']"
Renault Vehicules Industries,-6.2301247,106.8466253,"Jl. Prof Dr Supomo SH 233 Menteng Dalam Tebet Jakarta Selatan DKI Jakarta, RT.1/RW.15, Menteng Dalam, Kec. Tebet, Kota Jakarta Selatan, Daerah Khusus Ibukota Jakarta 12870, Indonesia","['car_dealer', 'store', 'point_of_interest', 'establishment']"
Indomobil Renault MT Haryono,-6.242513,106.862963,"Jl. Letjen MT. Haryono Kav 8, RW.6, Kp. Melayu, Kecamatan Jatinegara, Kota Jakarta Timur, Daerah Khusus Ibukota Jakarta 13330, Indonesia","['car_dealer', 'store', 'point_of_interest', 'establishment']"
Maxindo Renault Bintaro,-6.272026,106.7130653,"Pondok Jaya, Pondok Aren, South Tangerang City, Banten, Indonesia","['car_dealer', 'store', 'point_of_interest', 'establishment']"
Maxindo Renault BSD,-6.2922111,106.6663141,"Jl. Pahlawan Seribu No.8, RT.1/RW.4, Lengkong Gudang, Kec. Serpong, Kota Tangerang Selatan, Banten 15310, Indonesia","['car_dealer', 'store', 'point_of_interest', 'establishment']"
Maxindo Renault Pluit,-6.1179648,106.7893777,"Jl. Pluit Indah No.15, RT.8/RW.6, Pluit, Kec. Penjaringan, Kota Jkt Utara, Daerah Khusus Ibukota Jakarta 14450, Indonesia","['car_dealer', 'store', 'point_of_interest', 'establishment']"
Renault Tangerang,-6.261018,106.653349,"Jl. Raya Serpong, Pd. Jagung, Kec. Serpong Utara, Kota Tangerang Selatan, Banten 15326, Indonesia","['car_dealer', 'store', 'point_of_interest', 'establishment']"
Maxindo renault Jakarta,-6.2746461,106.658549,"Jl raya serpong km 8, Jl Pantai indah kapuk selatan I Jl. Raya Serpong No.8, bsd, Jakarta, DKI Jakarta 14450, Indonesia","['car_dealer', 'store', 'point_of_interest', 'establishment']"
Yadi sales renault bsd,-6.2946568,106.6665763,"Unnamed Road, Lengkong Gudang, Kec. Serpong, Kota Tangerang Selatan, Banten 15310, Indonesia","['car_dealer', 'store', 'point_of_interest', 'establishment']"
Fauzi Renault Bintaro,-6.2720584,106.7130489,"Jl. Boulevard Bintaro Jaya sektor 7, Pd. Jaya, Kec. Pd. Aren, Kota Tangerang Selatan, Banten 15224, Indonesia","['car_dealer', 'store', 'point_of_interest', 'establishment']"
Dealer Renault,-6.2740322,106.6926091,"CBR, Jl. Boulevard Bintaro Jaya sektor 7 Blok B7/D-02, Bintaro, DKI Jakarta 12230, Indonesia","['car_dealer', 'store', 'point_of_interest', 'establishment']"
Renault Info,-6.242466,106.863619,"Renault MT Haryono, Wisma Indomobil, RW.6, Cawang, Kecamatan Jatinegara, Kota Jakarta Timur, Daerah Khusus Ibukota Jakarta 11340, Indonesia","['car_dealer', 'store', 'point_of_interest', 'establishment']"
Renault BSD_Aldo.com,-6.2920697,106.6661022,"Jl. Pahlawan Seribu, Lengkong Karya, Kec. Serpong, Kota Tangerang Selatan, Banten 15321, Indonesia","['car_dealer', 'store', 'point_of_interest', 'establishment']"
PINDHO Renault Maxindo Bintaro,-6.274544,106.7090205,"sektor 7 Blok B7/D-02 CBD, Jl. Boulevard Bintaro Jaya, Banten, Indonesia","['car_dealer', 'store', 'point_of_interest', 'establishment']"
Yadi Renault,-6.2919354,106.6661116,"Jl. Pahlawan Seribu No.50, RT.1/RW.4, Lengkong Gudang, Kec. Serpong, Kota Tangerang Selatan, Banten 15310, Indonesia","['car_dealer', 'store', 'point_of_interest', 'establishment']"
RENAULT BINTARO ( DIAZ ),-6.2722809,106.7130536,"Jl. Boulevard Bintaro Jaya, Pd. Jaya, Kec. Pd. Aren, Kota Tangerang Selatan, Banten 15220, Indonesia","['car_dealer', 'store', 'point_of_interest', 'establishment']"
Yadi Sales Executive,-6.2913729,106.6658356,"Unnamed Road, Lengkong Gudang, Kec. Serpong, Kota Tangerang Selatan, Banten 15321, Indonesia","['car_dealer', 'store', 'point_of_interest', 'establishment']"
Maxindo Renault Pecenongan,-6.1660109,106.8265442,"Jl. Pecenongan Pecenongan No.32, RT.1/RW.4, Kb. Klp., Kec. Gambir, Kota Jakarta Pusat, Daerah Khusus Ibukota Jakarta 10120, Indonesia","['car_dealer', 'store', 'point_of_interest', 'establishment']"
Maxindo Renault Serpong,-6.26083,106.6532876,"Pondok Jagung, North Serpong, South Tangerang City, Banten 15326, Indonesia","['car_dealer', 'store', 'point_of_interest', 'establishment']"
PT. Auto Euro Indonesia,-6.242545,106.8630059,"Wisma Indomobil 1, MT Haryono Street No.Kav 8, RW.6, Kampung Melayu, Jakarta, East Jakarta City, Jakarta 13330, Indonesia","['car_dealer', 'store', 'point_of_interest', 'establishment']"
Jaya Pura Motor Peugeot - Renault,-6.2642087,106.7999202,"Duta Mas Fatmawati Lantai 1, No 7, Jalan ITC Fatmawati, RT.1/RW.5, Cipete Utara, Kec. Kby. Baru, Kota Jakarta Selatan, Daerah Khusus Ibukota Jakarta 12150, Indonesia","['car_repair', 'store', 'point_of_interest', 'establishment']"
Bengkel mobil Renault Jakarta,-6.1247766,106.7546439,"JL. Pantai Indah Kapuk Selatan I, ST/A Pantai Indah Kapuk, RT.2/RW.3, Kamal Muara, Kec. Penjaringan, Kota Jkt Utara, Daerah Khusus Ibukota Jakarta 14470, Indonesia","['car_repair', 'point_of_interest', 'establishment']"
"Maxindo Renault Pecenongan, Jakarta Pusat",-6.1660839,106.8265908,"Pecenongan Street No.32, RT.1/RW.4, Kebon Kelapa, Gambir, Central Jakarta City, Jakarta 10120, Indonesia","['car_dealer', 'store', 'point_of_interest', 'establishment']"
Renault Serpong Bsd : IRFAN,-6.2608429,106.6532478,"Pondok Jagung, Serpong, South Tangerang City, Banten 15326, Indonesia","['car_dealer', 'store', 'point_of_interest', 'establishment']"
Renault Service Network,-6.3036316,106.9837163,"Jl. Suzuki Indomobil, RT.2/RW.7, Penggilingan, Kec. Cakung, Kota Jakarta Timur, Daerah Khusus Ibukota Jakarta 13940, Indonesia","['point_of_interest', 'establishment']"
Bengkel Alternatif Service Renault M&B,-6.1988709,106.732576,"Jl. H. Lebar No.18, RT.1/RW.1, Meruya Utara, Kec. Kembangan, Kota Jakarta Barat, Daerah Khusus Ibukota Jakarta 11620, Indonesia","['car_repair', 'point_of_interest', 'establishment']"
Renault classic,-6.3526816,106.7407581,"Jl. Pinang Raya No.4A, RT.3/RW.3, Pamulang Tim., Kec. Pamulang, Banten 15417, Indonesia","['point_of_interest', 'establishment']"
KIA PIK,-6.1250258,106.7546308,"Komplek Indomobil, Jl. Pantai Indah Kapuk Selatan I Blok A, RT.1/RW.6, Kapuk Muara, Kec. Penjaringan, Kota Jkt Utara, Daerah Khusus Ibukota Jakarta 14460, Indonesia","['car_dealer', 'store', 'point_of_interest', 'establishment']"
Volkswagen Audi Jakarta,-6.292661,106.784779,"Gedung Metropolitan Tower, Jl. RA Kartini Kav.14, TB. Simatupang, RT.10/RW.4, Cilandak Barat, Cilandak, RT.10/RW.4, Cilandak Bar., Kec. Cilandak, Kota Jakarta Selatan, Daerah Khusus Ibukota Jakarta 12490, Indonesia","['car_dealer', 'store', 'point_of_interest', 'establishment']"
VW Jakarta,-6.1583035,106.8415106,"Jl. Angkasa No.18, RT.2/RW.9, Gn. Sahari Sel., Kec. Kemayoran, Kota Jakarta Pusat, Daerah Khusus Ibukota Jakarta 10610, Indonesia","['car_dealer', 'car_repair', 'store', 'point_of_interest', 'establishment']"
VW Indosentosa Trada,-6.186462,106.731476,"Jalan Komplek Puri Blok R No.1 Kembangan, RT.1/RW.2, South Kembangan, Kembangan, West Jakarta City, Jakarta 11610, Indonesia","['car_dealer', 'store', 'point_of_interest', 'establishment']"
VW Polo Jakarta,-6.1248509,106.7556604,"Jalan Pantai Indah Selatan 1, blok ST No.1A, Kota Jkt Utara, RT.1/RW.6, Kapuk Muara, Penjaringan, Kota Jkt Utara, Daerah Khusus Ibukota Jakarta 14460, Indonesia","['car_dealer', 'store', 'point_of_interest', 'establishment']"
VW Jakarta - ATPM,-6.2426361,106.8630038,"Jalan Letjen MT. Haryono Kav. 8, Cawang, Kramat Jati, RW.6, Kp. Melayu, Kecamatan Jatinegara, Kota Jakarta Timur, Daerah Khusus Ibukota Jakarta 13630, Indonesia","['car_dealer', 'store', 'point_of_interest', 'establishment']"
Showroom VW Audi Jakarta,-6.242513,106.862963,"Wisma Indomobil 1 Lt. 3, Jl. Letjen M.T. Haryono No.6, RW.6, Kp. Melayu, Kecamatan Jatinegara, Kota Jakarta Timur, Daerah Khusus Ibukota Jakarta 13330, Indonesia","['car_dealer', 'store', 'point_of_interest', 'establishment']"
about vw all jakarta,-6.1582955,106.8414905,"Jl. Angkasa No.20S, RT.5/RW.2, South Gunung Sahari, Kemayoran, Central Jakarta City, Jakarta 10610, Indonesia","['car_dealer', 'store', 'point_of_interest', 'establishment']"
VW Indonesia,-6.1582009,106.8416126,"Jalan Angkasa No, RT.1/RW.2, Gn. Sahari Sel., Kec. Kemayoran, Kota Jakarta Pusat, Daerah Khusus Ibukota Jakarta 10610, Indonesia","['car_dealer', 'store', 'point_of_interest', 'establishment']"
Dealer VW MT Haryono,-6.2426962,106.8630328,"Wisma Indomobil, RW.6, Kp. Melayu, Kecamatan Jatinegara, Kota Jakarta Timur, Daerah Khusus Ibukota Jakarta 13330, Indonesia","['car_dealer', 'store', 'point_of_interest', 'establishment']"
Volkswagen Golf,-6.1585279,106.8414835,"Jl. Angkasa No.18, RT.1/RW.2, Gn. Sahari Sel., Kec. Kemayoran, Kota Jakarta Pusat, Daerah Khusus Ibukota Jakarta 10610, Indonesia","['car_dealer', 'store', 'point_of_interest', 'establishment']"
VW BSD,-6.276306,106.65894,"BSD Sektor VI, Jl. Raya Serpong No.3, Lengkong Karya, Kec. Serpong, Kota Tangerang Selatan, Banten 15320, Indonesia","['car_dealer', 'store', 'point_of_interest', 'establishment']"
Volkswagen TB Simatupang,-6.293938,106.825268,"Gedung Metropolitan Tower, Jl. R.A.Kartini Jl. TB Simatupang No.kav.14, RT.7/RW.4, Jati Padang, Kec. Ps. Minggu, Kota Jakarta Selatan, Daerah Khusus Ibukota Jakarta 12430, Indonesia","['car_dealer', 'store', 'point_of_interest', 'establishment']"
VW Wisma Indomobil,-6.2424664,106.8636189,"Wisma Indomobil 1 lantai 3, RW.6, Kp. Melayu, Kecamatan Jatinegara, Kota Jakarta Timur, Daerah Khusus Ibukota Jakarta 13330, Indonesia","['car_dealer', 'store', 'point_of_interest', 'establishment']"
Audi Volkswagen GSO Jakarta,-6.1585279,106.8414835,"Jl. Angkasa No.18, RT.1/RW.2, Gn. Sahari Sel., Kec. Kemayoran, Kota Jakarta Pusat, Daerah Khusus Ibukota Jakarta 10610, Indonesia","['car_dealer', 'store', 'point_of_interest', 'establishment']"
Dealer Volkswagen Jakarta,-6.2426327,106.8631118,"Wisma Indomobil 1 LT 3, Jl. Letjen Mt. Haryono, RW.6, Cawang, Kecamatan Jatinegara, Kota Jakarta Timur, Daerah Khusus Ibukota Jakarta 13330, Indonesia","['car_dealer', 'store', 'point_of_interest', 'establishment']"
Mobil VW Audi Jakarta,-6.2424922,106.863545,"Wisma Indomobil, RW.6, Kp. Melayu, Kecamatan Jatinegara, Kota Jakarta Timur, Daerah Khusus Ibukota Jakarta 13330, Indonesia","['car_dealer', 'store', 'point_of_interest', 'establishment']"
Dealer VW Indomobil tower,-6.2427597,106.8644732,"Wisma Indomobil, Jl. Letjen M.T. Haryono No.Kav.11, RW.6, Kp. Melayu, Kecamatan Jatinegara, Jakarta, Daerah Khusus Ibukota Jakarta 13330, Indonesia","['car_dealer', 'store', 'point_of_interest', 'establishment']"
VW Puri Indah,-6.1864353,106.731477,"Jl. Komplek Puri Indah Blok R No. 1, Kembangan Sel., Daerah Khusus Ibukota Jakarta 11610, Indonesia","['car_dealer', 'store', 'point_of_interest', 'establishment']"
Scirocco VW Indonesia,-6.1582577,106.841024,"Gg. Spoor II, RT.1/RW.2, Gn. Sahari Sel., Kec. Kemayoran, Kota Jakarta Pusat, Daerah Khusus Ibukota Jakarta 10610, Indonesia","['car_dealer', 'store', 'point_of_interest', 'establishment']"
Dealer VW Jakarta,-6.2426169,106.863121,"Jl. Letjen Mt. Haryono No.Kav. 8, RW.6, Kp. Melayu, Kecamatan Jatinegara, Kota Jakarta Timur, Daerah Khusus Ibukota Jakarta 13330, Indonesia","['car_dealer', 'store', 'point_of_interest', 'establishment']"
Dealer Mazda Sunter,-6.1483975,106.8889354,"No, Jl. Yos Sudarso No.88, RT.10/RW.11, Sunter Jaya, Tj. Priok, Kota Jkt Utara, Daerah Khusus Ibukota Jakarta 14350, Indonesia","['car_dealer', 'store', 'point_of_interest', 'establishment']"
Mazda Jakarta Selatan,-6.252494,106.7814419,"Jl. Sultan Iskandar Muda Arteri Pondok Indah No.55 C, RT.8/RW.1, Kby. Lama Sel., Kec. Kby. Lama, Kota Jakarta Selatan, Daerah Khusus Ibukota Jakarta 12240, Indonesia","['car_dealer', 'store', 'point_of_interest', 'establishment']"
Mazda,-6.2087634,106.845599,"RT.2/RW.10, Pasar Manggis, Setiabudi, South Jakarta City, Jakarta 12970, Indonesia","['car_dealer', 'store', 'point_of_interest', 'establishment']"
Mazda Puri,-6.1772742,106.7289591,"Jalan Lingkar Luar Kav. 87, Kembangan, RT.6/RW.1, Kembangan Utara, Kec. Kembangan, Kota Jakarta Barat, Daerah Khusus Ibukota Jakarta 11610, Indonesia","['car_dealer', 'store', 'point_of_interest', 'establishment']"
Mazda Jakarta Timur,-6.221968,106.865306,"Jl. Jatinegara Bar. No.140, RT.10/RW.1, Bidara Cina, Kecamatan Jatinegara, Kota Jakarta Timur, Daerah Khusus Ibukota Jakarta 13320, Indonesia","['car_dealer', 'car_repair', 'store', 'point_of_interest', 'establishment']"
Harga Mobil Mazda - Mazda Indonesia,-6.170427,106.815738,"Jl. Raya Suryopranoto No.77 & 79, RT.2/RW.7, Petojo Sel., Kec. Gambir, Kota Jakarta Pusat, Daerah Khusus Ibukota Jakarta 10160, Indonesia","['car_dealer', 'store', 'point_of_interest', 'establishment']"
SALES Mazda Cibubur - PT Asia Berjaya Mobilindo,-6.387464,106.940156,"Jl. Alternatif Cibubur, Nagrak, Kec. Gn. Putri, Bogor, Jawa Barat 17435, Indonesia","['car_dealer', 'store', 'point_of_interest', 'establishment']"
Dealer Mazda Jakarta,-6.2443029,106.7819042,"Jl. Sultan Iskandar Muda No.55C, RT.8/RW.1, Kby. Lama Sel., Kec. Kby. Lama, Kota Jakarta Selatan, Daerah Khusus Ibukota Jakarta 12240, Indonesia","['car_dealer', 'store', 'point_of_interest', 'establishment']"
Mazda Bogor,-6.585313,106.805766,"Raya, Jl. Pajajaran/Komp. Peternakan No.45, Babakan, Central Bogor, Bogor City, West Java 16128, Indonesia","['car_dealer', 'store', 'point_of_interest', 'establishment']"
Dealer Nissan Datsun Bekasi,-6.233009,106.989145,"Jalan Jendral Sudirman No.Km 32, Kayuringin Jaya, Bekasi Barat, Kayuringin Jaya, Bekasi Selatan, Kayuringin Jaya, Kec. Bekasi Sel., Kota Bks, Jawa Barat 17144, Indonesia","['car_dealer', 'store', 'point_of_interest', 'establishment']"
MAZDA MT. HARYONO,-6.2424905,106.8581775,"MT Haryono Street No.Kav. 30, RT.8/RW.9, East Tebet, Tebet, South Jakarta City, Jakarta 12820, Indonesia","['car_dealer', 'car_repair', 'store', 'point_of_interest', 'establishment']"
Mazda Jakarta Barat,-6.1913509,106.7966331,"Jalan Letjen S. Parman Kav. N1 Kemanggisan RT.1, RT.13/RW.8, Kota Bambu Utara, Kec. Palmerah, Kota Jakarta Barat, Daerah Khusus Ibukota Jakarta 11480, Indonesia","['car_dealer', 'store', 'point_of_interest', 'establishment']"
Mazda Kelapa Gading,-6.174975,106.896495,"Jl. Boulevard Raya Blk. DA No.1, RT.2/RW.17, Klp. Gading Tim., Kec. Klp. Gading, Kota Jkt Utara, Daerah Khusus Ibukota Jakarta 14240, Indonesia","['car_dealer', 'store', 'point_of_interest', 'establishment']"
Mazda Eurokars South Jakarta,-6.2404124,106.7825241,"Jl. Sultan Iskandar Muda No.9BCD, RT.2/RW.3, Kby. Lama Utara, Kec. Kby. Lama, Kota Jakarta Selatan, Daerah Khusus Ibukota Jakarta 12240, Indonesia","['car_dealer', 'store', 'point_of_interest', 'establishment']"
Promo mazda raja diskon,-6.2522543,106.6503937,"Jl. Raya Serpong, Pakulonan, Kec. Serpong Utara, Tangerang, Banten 15520, Indonesia","['car_dealer', 'store', 'point_of_interest', 'establishment']"
Dealer Mazda,-6.174852,106.896498,"Jl. Boulevard Raya Blok DA No.1 RT.2/RW.17, RT.2/RW.17, Klp. Gading Tim., Kec. Klp. Gading, Kota Jkt Utara, Daerah Khusus Ibukota Jakarta 14240, Indonesia","['car_dealer', 'store', 'point_of_interest', 'establishment']"
Mazda Sunter - Eurokars Group,-6.1484444,106.8889437,"Jl. Kom L Yos Sudarso Kav 89 Sunter Agung Tanjung Priok Jakarta Utara DKI Jakarta, RT.10/RW.11, Sunter Jaya, Tj. Priok, Kota Jkt Utara, Daerah Khusus Ibukota Jakarta 14360, Indonesia","['car_dealer', 'store', 'point_of_interest', 'establishment']"
Pusat Mazda Jakarta Raya,-6.2504029,106.7815093,"Jl. Sultan Iskandar Muda No.55C, RT.10/RW.2, Pondok Indah, Kec. Kby. Lama, Kota Jakarta Selatan, Daerah Khusus Ibukota Jakarta 12240, Indonesia","['car_dealer', 'store', 'point_of_interest', 'establishment']"
Dealer Mazda | Dealer Mazda Jakarta,-6.174896,106.896492,"Jl.Boulevard Raya Timur Blok DA. 1, Jl. Klp. Gading No.2, RT.2/RW.17, Klp. Gading Tim., Kec. Klp. Gading, Kota Jkt Utara, Daerah Khusus Ibukota Jakarta 14420, Indonesia","['car_dealer', 'store', 'point_of_interest', 'establishment']"
Promo Kredit & Info Diskon Mobil Mazda area BSD Tangerang Selatan - Jakarta,-6.2921979,106.6661613,"Jalan Raya Serpong No.8, RT.001/RW.04, Kel, Lengkong Gudang, Kec. Serpong, Kota Tangerang Selatan, Banten 15321, Indonesia","['car_dealer', 'store', 'point_of_interest', 'establishment']"
Bengkel Mobil Oscar Autocars,-6.254492,106.619625,"Jl. Desa Curug Tgr. No.69, Curug Sangereng, Kec. Klp. Dua, Tangerang, Banten 15810, Indonesia","['car_repair', 'point_of_interest', 'establishment']"
Bengkel Mobil BOS Bintaro,-6.275658,106.762904,"Jalan RC Veteran Nomor 19, Kelurahan Bintaro, Kecamatan Pesanggrahan, RT.4/RW.7, Bintaro, Pesanggrahan, RT.4/RW.7, Bintaro, Kec. Pesanggrahan, Kota Jakarta Selatan, Daerah Khusus Ibukota Jakarta 12330, Indonesia","['car_wash', 'car_repair', 'store', 'point_of_interest', 'establishment']"
Bengkel Mobil BOS BSD,-6.3055346,106.6696253,"Jl. Kp., Cilenggang, Kec. Serpong, Kota Tangerang Selatan, Banten 15310, Indonesia","['car_repair', 'point_of_interest', 'establishment']"
New Bengkel 99,-6.23806,106.869208,"Jl. Otista Raya No.139, RT.6/RW.8, Bidara Cina, Kecamatan Jatinegara, Kota Jakarta Timur, Daerah Khusus Ibukota Jakarta 13330, Indonesia","['car_repair', 'point_of_interest', 'establishment']"
Bengkel Ford Kota Tangerang,-6.1898487,106.6420029,"Jl. Jenderal Sudirman No.89, Babakan, Kec. Tangerang, Kota Tangerang, Banten 15118, Indonesia","['car_repair', 'point_of_interest', 'establishment']"
Bengkel mobil Om Noto,-6.2488246,106.5747736,"Gg. Keong Ronyok, Suka Bakti, Kec. Curug, Tangerang, Banten 15810, Indonesia","['car_repair', 'point_of_interest', 'establishment']"
Bengkel Kita BSD,-6.3168077,106.700542,"Jalan Masjid Ciater Kp. Maruga RT 04 RW 009 Serpong BSD Banten, Ciater, Kec. Serpong, Kota Tangerang Selatan, Banten 15317, Indonesia","['car_repair', 'point_of_interest', 'establishment']"
Worner Matic - Bintaro (Bengkel Spesialis Mobil Matic),-6.280355,106.718584,"Jl. Tegal Rotan Raya, Pd. Pucung, Kec. Pd. Aren, Kota Tangerang Selatan, Banten 15412, Indonesia","['car_repair', 'point_of_interest', 'establishment']"
PT Buana Sakti Aneka Motor 109,-6.2550322,106.8273649,"Jl. Warung Jati Barat No.109, RT.1/RW.1, Duren Tiga, Kec. Pancoran, Kota Jakarta Selatan, Daerah Khusus Ibukota Jakarta 12760, Indonesia","['car_repair', 'point_of_interest', 'establishment']"
Klr Racing,-6.3372996,106.8538812,"Jl. Kalisari II No.20, RT.12/RW.11, Kalisari, Kec. Ps. Rebo, Kota Jakarta Timur, Daerah Khusus Ibukota Jakarta 13790, Indonesia","['car_repair', 'point_of_interest', 'establishment']"
Bengkel AUTOFRESH,-6.3453798,106.8148223,"Jl. Mohamad Kafi II No.8, Kelurahan Cipedak, Kecamatan Jagakarsa, RT.2/RW.5, Cipedak, Jakarta Selatan, Kota Jakarta Selatan, Daerah Khusus Ibukota Jakarta 12630, Indonesia","['car_repair', 'point_of_interest', 'establishment']"
Bengkel Metropolitan,-6.3744345,106.8321238,"Jl. Margonda Raya No.335, Kemiri Muka, Kec. Beji, Kota Depok, Jawa Barat 16421, Indonesia","['car_repair', 'point_of_interest', 'establishment']"
Bengkel Las dan Mobil GadingSerpong SMS AJA,-6.243345,106.6196453,"Jl. Boulevard Raya Gading Serpong, Klp. Dua, Kec. Klp. Dua, Tangerang, Banten 15810, Indonesia","['car_repair', 'point_of_interest', 'establishment']"
Car Repair Body Repair,-6.238551,106.9336143,"Jl. Pd. Kelapa Raya No.90, RT.7/RW.9, 1, Pd. Klp., Kec. Duren Sawit, Kota Jakarta Timur, Daerah Khusus Ibukota Jakarta 13450, Indonesia","['car_repair', 'point_of_interest', 'establishment']"
Bengkel Mobil BOS Kedoya,-6.183121,106.767828,"Jalan Panjang Nomor 28, Kedoya Selatan, Kebon Jeruk, RT.7/RW.1, Kedoya Sel., Kec. Kb. Jeruk, Kota Jakarta Barat, Daerah Khusus Ibukota Jakarta 11520, Indonesia","['car_wash', 'car_repair', 'point_of_interest', 'establishment']"
"Bengkel Motor "" Motorworld "" Tangerang",-6.18494,106.634681,"No. (Kapling), Jl. Kh. Soleh Ali No.111, Sukasari, Kec. Tangerang, Kota Tangerang, Banten 15118, Indonesia","['car_repair', 'point_of_interest', 'establishment']"
Bengkel Subur Jaya 3,-6.377376,107.1675455,"No.3500 kp tembong gunung ds, Jl. Warung Ampel, Sukamahi, Kec. Cikarang Pusat, Bekasi, Jawa Barat 17530, Indonesia","['car_repair', 'point_of_interest', 'establishment']"
Bengkel Mobil BOS Kavling DKI,-6.1920066,106.7248685,"Jl. Meruya Utara Blok Marjuki No.25, RT.1/RW.11, Meruya Utara, Kec. Kembangan, Kota Jakarta Barat, Daerah Khusus Ibukota Jakarta 11620, Indonesia","['car_repair', 'point_of_interest', 'establishment']"
Pranawa Motor - Bengkel Motor,-6.2596742,106.9699445,"Jl. Taman Aster Grand Galaxi City No.10, Jaka Setia, Kec. Bekasi Sel., Kota Bks, Jawa Barat 17147, Indonesia","['car_repair', 'point_of_interest', 'establishment']"
Bengkel Quattro,-6.30955,106.8138,"Jl. Cilandak KKO No.1 A RT.014/08, Cilandak Ragunan, RT.1/RW.7, Ragunan, Pasar Minggu, South Jakarta City, Jakarta 12550, Indonesia","['car_dealer', 'car_repair', 'store', 'point_of_interest', 'establishment']"
Bengkel Mobil - Sinar Surya,-6.1904971,106.8377547,"Samping Bank Mega, Jl. Cikini 2 No.2, RT.13/RW.5, Cikini, Kec. Menteng, Kota Jakarta Pusat, Daerah Khusus Ibukota Jakarta 10330, Indonesia","['car_repair', 'point_of_interest', 'establishment']"
CV. Karya Indah Motor,-6.2636475,106.9972286,"Jalan Siliwangi No. 20, Rawa Panjang, Sepanjang Jaya, Kota Bks, Jawa Barat 17132, Indonesia","['car_repair', 'point_of_interest', 'establishment']"
Bengkel primatama,-6.1889824,106.7743514,"Jl. Kb. Jeruk Baru No.17, RT.8/RW.8, Kb. Jeruk, Kec. Kb. Jeruk, Kota Jakarta Barat, Daerah Khusus Ibukota Jakarta 11530, Indonesia","['car_repair', 'point_of_interest', 'establishment']"
Bengkel Yamaha,-6.2148688,106.8789878,"Gg. Nangka No.150, RT.8/RW.13, Cipinang Besar Utara, Kecamatan Jatinegara, Kota Jakarta Timur, Daerah Khusus Ibukota Jakarta 13410, Indonesia","['car_repair', 'point_of_interest', 'establishment']"
Bengkel Auto Clinic (Kresna Mitra Asuransi Tbk.),-6.1895573,106.8848139,"Jl. Bangunan Barat No.2, RT.1/RW.4, Kayu Putih, Kec. Pulo Gadung, Kota Jakarta Timur, Daerah Khusus Ibukota Jakarta 13210, Indonesia","['car_repair', 'point_of_interest', 'establishment']"
Sudiono Bengkel Radiator (jumat libur),-6.2888495,106.795213,"Jl. RS. Fatmawati Raya No.5, RT.3/RW.5, Cilandak Bar., Kec. Cilandak, Kota Jakarta Selatan, Daerah Khusus Ibukota Jakarta 12430, Indonesia","['car_repair', 'store', 'point_of_interest', 'establishment']"
Bengkel BOS Bekasi Timur,-6.2557416,107.0219712,"Jl. HM. Joyo Martono No.105, Margahayu, Kec. Bekasi Tim., Kota Bks, Jawa Barat 17115, Indonesia","['car_repair', 'point_of_interest', 'establishment']"
Auto Point Bengkel,-6.2754101,106.7425879,"Jl. Nusa Jaya No.3, Pd. Ranji, Kec. Ciputat Tim., Kota Tangerang Selatan, Banten 15412, Indonesia","['car_repair', 'point_of_interest', 'establishment']"
AHASS 13311 (Bengkel Resmi Honda),-6.2691989,107.1777416,"Jl. Urip Sumoharjo, Tanjungsari, Kec. Cikarang Tim., Bekasi, Jawa Barat 17530, Indonesia","['car_repair', 'point_of_interest', 'establishment']"
Bengkel Mobil BOS Ciledug,-6.2361854,106.7465705,"Jalan Bahagia Nomor 5 Rt 003 Rw 02 Kreo Selatan Larangan, Petukangan Utara, Pesanggrahan, RT.1, Petukangan Utara, Kec. Pesanggrahan, Kota Tangerang, Banten 15156, Indonesia","['car_repair', 'store', 'point_of_interest', 'establishment']"
Bengkel Mobil BOS Cibubur,-6.3889907,106.9454,"Jl. Alternatif Cibubur, Nagrak, Kec. Gn. Putri, Bogor, Jawa Barat 16967, Indonesia","['car_repair', 'point_of_interest', 'establishment']"
Bengkel Mobil BOS Pasar Rebo,-6.3452184,106.8681821,"km 27.5 RT 003/07, Jl. Raya Jakarta-Bogor, RT.3/RW.7, Pabuaran, Bogor, Jawa Barat 13710, Indonesia","['car_repair', 'point_of_interest', 'establishment']"
Bengkel Ketok Magic Ary Motor,-6.2582674,106.8624654,"Jl. Raya Kalibata No.56, RT.2/RW.7, Cililitan, Kec. Kramat jati, Kota Jakarta Timur, Daerah Khusus Ibukota Jakarta 13630, Indonesia","['car_repair', 'point_of_interest', 'establishment']"
Bengkel BAW,-6.1996812,106.7688801,"Jl. B No.17, RT.4/RW.1, Kb. Jeruk, Kec. Kb. Jeruk, Kota Jakarta Barat, Daerah Khusus Ibukota Jakarta 11530, Indonesia","['car_repair', 'point_of_interest', 'establishment']"
Bengkel Motor,-6.2334045,106.8441777,"Jl. Prof. DR. Soepomo No.6, RT.1/RW.2, Menteng Dalam, Kec. Tebet, Kota Jakarta Selatan, Daerah Khusus Ibukota Jakarta 12870, Indonesia","['car_repair', 'point_of_interest', 'establishment']"
Bengkel Mobilku (Honda Specialist),-6.2693078,106.8310617,"no., Jl. Warung Jati Barat Blok Darul Muslimin No.2, RT.4/RW.5, Kalibata, Kec. Pancoran, Kota Jakarta Selatan, Daerah Khusus Ibukota Jakarta 12740, Indonesia","['car_repair', 'point_of_interest', 'establishment']"
Bengkel Mobil Budi Laksana Motor,-6.6523673,106.9084184,"Jl. Raya Puncak - Cianjur No.77, Cilember, Kec. Cisarua, Bogor, Jawa Barat 16750, Indonesia","['car_repair', 'point_of_interest', 'establishment']"
Baik'ers Garas,-6.2727457,106.7977493,"Jl. RS. Fatmawati Raya No.6B, RT.1/RW.3, Cipete Sel., Kec. Cilandak, Kota Jakarta Selatan, Daerah Khusus Ibukota Jakarta 12410, Indonesia","['car_repair', 'store', 'point_of_interest', 'establishment']"
Bengkel Pak Mani,-6.1941312,106.949387,"B, Jl. Pulau Sangiyang No.3, RT.4/RW.5, Pulo Gebang, Kec. Cakung, Kota Jakarta Timur, Daerah Khusus Ibukota Jakarta 13950, Indonesia","['car_repair', 'point_of_interest', 'establishment']"
Workshop yps Puja,-6.3825316,106.8142802,"Jl. Nusantara Raya No.90, RT.6/RW.2, Beji, Kec. Beji, Kota Depok, Jawa Barat 16421, Indonesia","['car_repair', 'point_of_interest', 'establishment']"
Cuci Mobil,-6.3087323,107.1494339,"Pasirsari, South Cikarang, Bekasi, West Java 17530, Indonesia","['gas_station', 'point_of_interest', 'establishment']"
Lapangan Parkir Mobil Dasa 4,-6.2589817,106.7849485,"Jl. Dasa IV No.47, RT.5/RW.11, Kby. Lama Sel., Kec. Kby. Lama, Kota Jakarta Selatan, Daerah Khusus Ibukota Jakarta 12240, Indonesia","['gas_station', 'point_of_interest', 'establishment']"
Cuci Mobil Kelapa Gading,-6.1469997,106.8966835,"RT.18/RW.8, West Kelapa Gading, Kelapa Gading, North Jakarta City, Jakarta 14240, Indonesia","['gas_station', 'point_of_interest', 'establishment']"
jasa pengiriman mobil,-6.5165457,106.861783,"Jl. Raya Sirkuit Sentul No.95, Leuwinutug, Kec. Citeureup, Bogor, Jawa Barat 16810, Indonesia","['gas_station', 'point_of_interest', 'establishment']"
Mobil Oil Singapore Pte Ltd,-6.2174443,106.8129015,"Jl. Jend. Sudirman No.28, RT.14/RW.1, Bend. Hilir, Kec. Tanah Abang, Kota Jakarta Pusat, Daerah Khusus Ibukota Jakarta 10210, Indonesia","['point_of_interest', 'establishment']"
Bengkel Mobil Yons Service,-6.1362359,106.8315957,"Mangga Dua Square Lantai Bursa Mobil Bekas Lot E, Jl. Gn. Sahari No.RT.11, RT.11/RW.6, Ancol, Kec. Pademangan, Kota Jkt Utara, Daerah Khusus Ibukota Jakarta 10710, Indonesia","['car_dealer', 'car_repair', 'store', 'point_of_interest', 'establishment']"
BeliMobilGue.co.id,-6.2883506,106.8180431,"Jl. Ampera Raya No.4, Cilandak Tim., Kec. Ps. Minggu, Kota Jakarta Selatan, Daerah Khusus Ibukota Jakarta 12560, Indonesia","['point_of_interest', 'establishment']"
Dokter MOBIL BEKASI,-6.248925,106.937012,"Blok G9 No.7, Service, Mobil, Jl. Inspeksi Kalimalang, RT.2/RW.11, Pd. Klp., Kec. Duren Sawit, Kota Jakarta Timur, Daerah Khusus Ibukota Jakarta 13450, Indonesia","['electronics_store', 'car_repair', 'store', 'point_of_interest', 'establishment']"
BeliMobilGue.co.id,-6.1832793,106.9786616,"Jl. Komp. Ruko Boulevard Blok c No.16, Harapan Indah, Kota Bks, Pejuang, Medan Satria, Bekasi City, West Java 17131, Indonesia","['car_repair', 'point_of_interest', 'establishment']"
BeliMobilGue.co.id,-6.1624539,106.8234325,"Jl. Batu Ceper No.59, RT.15/RW.1, Kb. Klp., Kec. Gambir, Kota Jakarta Pusat, Daerah Khusus Ibukota Jakarta 10120, Indonesia","['car_repair', 'point_of_interest', 'establishment']"
BeliMobilGue.co.id,-6.194945,106.724693,"Jl. Raden Saleh Blok 10 No.25, RT.5/RW.1, Meruya Utara, Kec. Kembangan, Jakarta, Daerah Khusus Ibukota Jakarta 15157, Indonesia","['car_repair', 'point_of_interest', 'establishment']"
BeliMobilGue.co.id,-6.2426204,106.6213419,"Kelapa Dua, Tangerang, Banten 15810, Indonesia","['car_repair', 'point_of_interest', 'establishment']"
Dokter Mobil Serpong,-6.244479,106.6261006,"RUKO Paramount Dotcom Blok Orange No. 5 Jl. CBD, Pakulonan Bar., Kec. Klp. Dua, Kota Tangerang, Banten 15810, Indonesia","['home_goods_store', 'car_repair', 'store', 'point_of_interest', 'establishment']"
Foxlogger GPS Tracker Pelacak Kendaraan,-6.1434436,106.8301595,"Ruko, 46 Blok B Kompleks, Jl. Pangeran Jayakarta Dalam No.18, RT.7/RW.7, Mangga Dua Sel., Kec. Kemayoran, Kota Jakarta Pusat, Daerah Khusus Ibukota Jakarta 10730, Indonesia","['car_repair', 'store', 'point_of_interest', 'establishment']"
OTOmart.id,-6.226153,106.804154,"Summitmas ll 18Fl. Jl. Jend. Sudirman Kav.61-62 Jakarta, RT.5/RW.3, Senayan, Kec. Kby. Baru, Kota Jakarta Selatan, Daerah Khusus Ibukota Jakarta 12190, Indonesia","['car_dealer', 'store', 'point_of_interest', 'establishment']"
Asep Power Window & Sliding Door - Pasar Mobil Kemayoran,-6.2071849,106.8459006,"Pasar Mobil Kemayoran Blok I No. 20 Masuk Dari Pintu 7 Pusat, RT.2/RW.10, Pasar Manggis, Menteng, South Jakarta City, Jakarta 12970, Indonesia","['car_repair', 'point_of_interest', 'establishment']"
Impreza Service Dashboard Mobil,-6.3706107,106.9923453,"Griya Alam Sentosa, Blok R9 No 7 Cileungsi, Pasir Angin, Kec. Cileungsi, Bogor, Jawa Barat 16820, Indonesia","['car_repair', 'point_of_interest', 'establishment']"
Khazanah Bengkel Mobil & Steam,-6.3191743,107.0240598,"Jl. Raya Cimuning, Jl. WR. Supratman, Cimuning, Kec. Mustika Jaya, Kota Bks, Jawa Barat 17155, Indonesia","['car_repair', 'point_of_interest', 'establishment']"
Bengkel Mobil Oscar Autocars,-6.254492,106.619625,"Jl. Desa Curug Tgr. No.69, Curug Sangereng, Kec. Klp. Dua, Tangerang, Banten 15810, Indonesia","['car_repair', 'point_of_interest', 'establishment']"
Bengkel mobil Om Noto,-6.2488246,106.5747736,"Gg. Keong Ronyok, Suka Bakti, Kec. Curug, Tangerang, Banten 15810, Indonesia","['car_repair', 'point_of_interest', 'establishment']"
SLT Pancoran,-6.2447504,106.8417662,"Jl. Raya Pasar Minggu No.11A, RT.1/RW.4, Pancoran, Kec. Pancoran, Kota Jakarta Selatan, Daerah Khusus Ibukota Jakarta 12780, Indonesia","['gas_station', 'car_wash', 'car_repair', 'point_of_interest', 'establishment']"
Sam AC Mobil,-6.4762386,106.8190772,"Jalan Raya Kusumayadi, Sukahati, Cibinong, Bogor, Jawa Barat 16914, Indonesia","['gas_station', 'car_repair', 'point_of_interest', 'establishment']"
Mira Mobil Ratnajaya,-6.1453187,106.8922056,"Jl. Raya Pegangsaan 2 Km.5 No. 88 Pegangsaan Dua Kelapa Gading Jakarta Utara DKI Jakarta, RT.18/RW.8, Klp. Gading Bar., Kec. Klp. Gading, Kota Jkt Utara, Daerah Khusus Ibukota Jakarta 14240, Indonesia","['gas_station', 'point_of_interest', 'establishment']"
Kiosban,-6.238391,106.820561,"Jl. Wijayakarta II / A6, Jakarta Selatan, RT.9/RW.3, Kuningan Bar., Kec. Mampang Prpt., Mampang Prapatan, Daerah Khusus Ibukota Jakarta 12710, Indonesia","['car_repair', 'store', 'point_of_interest', 'establishment']"
TV Mobil - ASUKA CAR TV,-6.135613,106.736032,"Ruko Citypark Business District Blok E-07, Jalan Malibu (Kamal, Cengkareng), Jakarta, RT.7/RW.14, Cengkareng Tim., Kecamatan Cengkareng, Kota Jakarta Barat, Daerah Khusus Ibukota Jakarta 11730, Indonesia","['electronics_store', 'car_repair', 'store', 'point_of_interest', 'establishment']"
Bengkel Mobil Retrofit,-6.3600808,106.8736027,"Jalan Blok Duku Raya No. 95 RT. 12 / RW. 10, Cibubur, Ciracas, RT.12/RW.10, Cibubur, Kec. Ciracas, Kota Jakarta Timur, Daerah Khusus Ibukota Jakarta 13720, Indonesia","['car_repair', 'point_of_interest', 'establishment']"
Cahaya Auto Mobil,-6.1898235,106.7894166,"Jl. Kemanggisan Utama No.18, RT.2/RW.7, Kemanggisan, Kec. Palmerah, Kota Jakarta Barat, Daerah Khusus Ibukota Jakarta 11480, Indonesia","['car_repair', 'point_of_interest', 'establishment']"
PANDAWA AC MOBIL,-6.157484,106.6322741,"Jl. Marsekal Surya Darma No.2, Neglasari, Kec. Neglasari, Kota Tangerang, Banten 15129, Indonesia","['car_repair', 'point_of_interest', 'establishment']"
Totalgard Antikarat / Paint Protection / Nano Coating /Salon Mobil,-6.381951,106.864463,"Jl. Ir H. Juanda, Cisalak, Kec. Sukmajaya, Kota Depok, Jawa Barat 16461, Indonesia","['car_repair', 'point_of_interest', 'establishment']"
Bengkel Mobil BOS Bintaro,-6.275658,106.762904,"Jalan RC Veteran Nomor 19, Kelurahan Bintaro, Kecamatan Pesanggrahan, RT.4/RW.7, Bintaro, Pesanggrahan, RT.4/RW.7, Bintaro, Kec. Pesanggrahan, Kota Jakarta Selatan, Daerah Khusus Ibukota Jakarta 12330, Indonesia","['car_wash', 'car_repair', 'store', 'point_of_interest', 'establishment']"
"MULTI BAN + Bengkel Mobil (Ban, Oli, Aki, Balancing, Kampas Rem, ShockBreaker, AC MOBil, dll)",-6.153461,106.984268,"Ruko Symphony Blok HX 1 No 105 Pusaka Rakyat, Tarumajaya, Bekasi, Pusaka Rakyat, Kec. Tarumajaya, Bekasi Barat, Jawa Barat 17214, Indonesia","['car_repair', 'point_of_interest', 'establishment']"
Service AC Mobil,-6.27226,106.65657,"BLK. SR I5, No. 45, Ruko Villa Melati Mas, JL. Raya Serpong Villa Melati Mas, Lengkong Wetan, 15322 Tangerang, Indonesia, Lengkong Karya, North Serpong, South Tangerang City, Banten 15310, Indonesia","['car_repair', 'point_of_interest', 'establishment']"
bengkel mobil khusus honda,-6.4075359,106.75455,"Jl. Sawangan Raya No.82, Sawangan Lama, Kec. Sawangan, Kota Depok, Jawa Barat 16517, Indonesia","['car_repair', 'point_of_interest', 'establishment']"
Bengkel Mobil Ipin,-6.2093466,106.9631012,"Jl. Rw. Bebek No.24, RT.2/RW.1, Pulo Gebang, Kec. Cakung, Kota Jakarta Timur, Daerah Khusus Ibukota Jakarta 13950, Indonesia","['car_repair', 'point_of_interest', 'establishment']"
Bengkel Cat Mobil & Body Repair PANCA BUANA Motor,-6.227627,106.714784,"Jalan Winong No. 1, Ciledug, East Sudimara, Tangerang, Tangerang City, Jawa Barat 15151, Indonesia","['car_repair', 'point_of_interest', 'establishment']"
Bengkel & Service Mobil,-6.7404541,106.8153809,"Jl. Raya Sukabumi No.53, Srogol, Cigombong, Bogor, Jawa Barat 16110, Indonesia","['car_repair', 'point_of_interest', 'establishment']"
Aksesoris Mobil,-6.1607832,106.9041501,"Jalan Boulevard Raya blok QJ 3 No.2, Kelapa Gading, RW.16, Klp. Gading Tim., Kec. Klp. Gading, Kota Jkt Utara, Daerah Khusus Ibukota Jakarta 14250, Indonesia","['car_repair', 'store', 'point_of_interest', 'establishment']"
Bursa Mobil Summarecon Serpong,-6.2550293,106.619685,"Summarecon Serpong, Curug Sangereng, Kelapa Dua, Tangerang, Banten 15810, Indonesia","['car_repair', 'point_of_interest', 'establishment']"
AUTOfame,-6.1403071,106.8323938,"Bursa Mobil Mangga Dua Square Lantai LG Lot L 18 - 21 Jalan Gunung Sahari Raya, Pademangan Barat Pademangan, RT.1/RW.1, Pademangan Bar., Jakarta Utara, DKI Jakarta, Daerah Khusus Ibukota Jakarta 14420, Indonesia","['car_dealer', 'store', 'point_of_interest', 'establishment']"
Uban Jaya Motor Spesialis Kaki Kaki Mobil,-6.2730588,106.7451615,"Jalan Bintaro Utama 3A Blok AM No. 39, Pondok Karya, Pondok Aren, Pd. Betung, Kec. Pd. Aren, Kota Tangerang Selatan, Banten 15221, Indonesia","['car_repair', 'point_of_interest', 'establishment']"
REV AUTOBODY REPAIR,-6.126414,106.85827,"Jl. Baru Ancol Selatan Blok A1 No.20 Sunter Agung, RT.1/RW.12, Sunter Agung, Tj. Priok, Kota Jkt Utara, Daerah Khusus Ibukota Jakarta 14350, Indonesia","['car_repair', 'store', 'point_of_interest', 'establishment']"
Auto Pro Body Repair,-6.270114,106.7750223,"Jl. Ciputat Raya Blok Anggrek No.63, RT.4/RW.11, Pd. Pinang, Kec. Kby. Lama, Kota Jakarta Selatan, Daerah Khusus Ibukota Jakarta 12310, Indonesia","['car_repair', 'point_of_interest', 'establishment']"
Asco Body Repair,-6.3923685,106.9544922,"Jl. Raya Jonggol - Cileungsi, Cileungsi, Kec. Cileungsi, Bogor, Jawa Barat 16820, Indonesia","['car_repair', 'point_of_interest', 'establishment']"
StarJaya Body Repair,-6.192791,106.7628748,"Jalan Perjuangan No.8 13 10, RT.13/RW.10, Kb. Jeruk, Kec. Kb. Jeruk, Kota Jakarta Barat, Daerah Khusus Ibukota Jakarta 11530, Indonesia","['car_repair', 'point_of_interest', 'establishment']"
Autowerke Body Repair,-6.271936,106.8069467,"Jalan Asem II Blok Ros No.32, RT.1/RW.1, South Cipete, Cilandak, South Jakarta City, Jakarta 12410, Indonesia","['car_repair', 'store', 'point_of_interest', 'establishment']"
Nico Car Body Repair,-6.2953835,106.7580005,"Jl. Pahlawan No.54, RT.1/RW.9, Rempoa, Kec. Ciputat Tim., Kota Tangerang Selatan, Banten 15412, Indonesia","['car_repair', 'point_of_interest', 'establishment']"
Paint Auto Repair,-6.411516,106.830918,"Blok Kampung Parung Serab, Jalan Raya Ksu / Pemancar Rri Blok Kampung Parung Serab #1, Tirtajaya, Sukmajaya, Tirtajaya, Kec. Sukmajaya, Kota Depok, Jawa Barat 16412, Indonesia","['car_repair', 'point_of_interest', 'establishment']"
MVM Auto Repair,-6.2569357,106.7809154,"Jl. Tanah Kusir II No.9, RT.1/RW.8, Kby. Lama Sel., Kec. Kby. Lama, Kota Jakarta Selatan, Daerah Khusus Ibukota Jakarta 12240, Indonesia","['car_repair', 'point_of_interest', 'establishment']"
Mekanika Motor - Bengkel Body repair & Oven painting,-6.2406227,106.8266361,"No 9 C, Jl. Kapten Tendean, RT.1/RW.3, Mampang Prpt., Kec. Mampang Prpt., Kota Jakarta Selatan, Daerah Khusus Ibukota Jakarta 12790, Indonesia","['insurance_agency', 'car_repair', 'point_of_interest', 'establishment']"
AutoCraft Body Repair,-6.2073034,106.7863784,"Jl. Palmerah Utara No.47 B, RT.2/RW.3, Grogol Utara, Kec. Kby. Lama, Kota Jakarta Selatan, Daerah Khusus Ibukota Jakarta 12210, Indonesia","['car_repair', 'point_of_interest', 'establishment']"
Rafet Auto - Bengkel Cat Mobil & Body Repair Depok,-6.401595,106.86221,"Jl. Raya Bogor KM.35 No.37, Sukamaju Baru, Kec. Tapos, Kota Depok, Jawa Barat 16455, Indonesia","['car_repair', 'point_of_interest', 'establishment']"
Formula Specialist & Body Repair,-6.1824912,106.982876,"Jl. Harapan Indah Raya, Pejuang, Kecamatan Medan Satria, Bekasi, Jawa Barat 17131, Indonesia","['car_repair', 'point_of_interest', 'establishment']"
Lief's Auto Body Repair,-6.1828519,106.7782362,"Jalan Patra Blok Guji Baru No.82 3, RT.2/RW.2, Duri Kepa, Kec. Kb. Jeruk, Kota Jakarta Barat, Daerah Khusus Ibukota Jakarta 11510, Indonesia","['car_repair', 'point_of_interest', 'establishment']"
MAX Autocar Paint & Body Repair,-6.143802,106.7214345,"Jln.Cendrawasih raya no.8 cengkareng barat seberang GOR Pemuda/ATM bank DKI. sebelah Pom bensin Cendrawasih RT07 / RW 6 Cengkareng, RT.6/RW.6, Cengkareng Bar., Kecamatan Cengkareng, Kota Jakarta Barat, Daerah Khusus Ibukota Jakarta 11730, Indonesia","['car_repair', 'point_of_interest', 'establishment']"
TOKLAR BODY REPAIR,-6.2588465,106.9543815,"Jl. Suluki Cemp. No.15 A-1, Jatibening, Kec. Pondokgede, Kota Bks, Jawa Barat 17412, Indonesia","['car_repair', 'point_of_interest', 'establishment']"
Kingsford Body Repair,-6.1685306,106.8695554,"Jalan Letjend. Suprapto No.78A, RT.16/RW.5, Cemp. Baru, Kec. Cemp. Putih, Kota Jakarta Pusat, Daerah Khusus Ibukota Jakarta 10640, Indonesia","['car_repair', 'point_of_interest', 'establishment']"
Spectra Body Repair,-6.289768,106.817185,"Jl. Jl.Ampera Raya No.1 (Disamping SMP/SMU Sumbangsih), RT.2/RW.2, Cilandak Tim., Cilandak Timur,Jakarta Selatan, DKI Jakarta, Daerah Khusus Ibukota Jakarta 12560, Indonesia","['car_repair', 'point_of_interest', 'establishment']"
Garasi kav.56 Auto Body Repair & Paint,-6.2496465,106.7417938,"Jl. Caraka Utama No.56, Cipadu Jaya, Kec. Larangan, Kota Tangerang, Banten 15155, Indonesia","['car_repair', 'point_of_interest', 'establishment']"
Body Repair @ BTC Bintaro Jaya,-6.279504,106.721639,"Ps. Modern Bintaro Jaya, Bintaro Trade Centre, Pd. Jaya, Kec. Pd. Aren, Kota Tangerang Selatan, Banten 15224, Indonesia","['car_repair', 'point_of_interest', 'establishment']"
Ikj Body Repair,-6.2655649,106.7753414,"Jalan Ciputat Raya No.27 5 2, RT.5/RW.2, Pd. Pinang, Kec. Kby. Lama, Kota Jakarta Selatan, Daerah Khusus Ibukota Jakarta 12310, Indonesia","['car_repair', 'point_of_interest', 'establishment']"
Roby Bengkel Opel Blazer,-6.2501927,107.0650969,"Jl. Kali Baru, Tridaya Sakti, Kec. Tambun Sel., Bekasi, Jawa Barat 17510, Indonesia","['car_repair', 'point_of_interest', 'establishment']"
DIAN OPEL,-6.1765323,106.8411527,"Plaza Atrium Senen Lantai 5-A42, JL. Senen Raya, No. 135, Senen, RW.2, Senen, Kec. Senen, Kota Jakarta Pusat, Daerah Khusus Ibukota Jakarta 10410, Indonesia","['car_repair', 'store', 'point_of_interest', 'establishment']"
bengkel Mobil OPEL BLAZER,-6.2051452,106.6197466,"Jalan Imam Bonjol No.205, Bojong Jaya, Kec. Karawaci, Kota Tangerang, Banten 15115, Indonesia","['car_repair', 'point_of_interest', 'establishment']"
GGKars Garasi Gempol Karawangs (Spesialis Opel - Chevrolet),-6.3046334,107.2869018,"Gg. Masjid Albarkah, Sukamakmur, Kec. Telukjambe Tim., Kabupaten Karawang, Jawa Barat 41361, Indonesia","['car_repair', 'point_of_interest', 'establishment']"
Bengkel ABM Opel/Chevrolet,-6.3701735,107.1136043,"Jl. Mbah Kilong No.1, Sukadami, Cikarang Pusat, Sukadami, Kec. Cikarang Pusat, Bekasi, Jawa Barat 17530, Indonesia","['car_repair', 'point_of_interest', 'establishment']"
Toko Sperpart Chevrolet Opel Peugeot didepok,-6.39831,106.790143,"Jl. Jagal Gg Aula Anur No.93, Rangkapan Jaya, Kec. Pancoran Mas, Kota Depok, Jawa Barat 16412, Indonesia","['car_repair', 'store', 'point_of_interest', 'establishment']"
"Rensen Motors, Chevrolet - Opel",-6.15185,106.8435819,"Pasar Mobil Kemayoran Blok F No. 38-39, Jl. Industri Raya, RW.10, Kemayoran, Kec. Kemayoran, Kota Jakarta Pusat, Daerah Khusus Ibukota Jakarta 10620, Indonesia","['car_repair', 'point_of_interest', 'establishment']"
BENGKEL OPEL CHEVROLET,-6.3711418,106.8828592,"Jl. Radar Auri No.23, Cisalak Ps., Kec. Cimanggis, Kota Depok, Jawa Barat 16452, Indonesia","['car_repair', 'point_of_interest', 'establishment']"
Opel Toko,-6.1751816,106.8414989,"Jl. Senen Raya Senen Senen Jakarta Pusat DKI Jakarta, RW.3, Senen, Kec. Senen, Kota Jakarta Pusat, Daerah Khusus Ibukota Jakarta 10410, Indonesia","['car_repair', 'store', 'point_of_interest', 'establishment']"
Megajaya Motor Chevrolet Opel,-6.1504285,106.843747,"Pasar Mobil Kemayoran Blok A No. 30A, Jalan Industri Raya, Pademangan Timur, Pademangan, RW.10, Pademangan Tim., Kec. Pademangan, Kota Jkt Utara, Daerah Khusus Ibukota Jakarta 14410, Indonesia","['car_repair', 'point_of_interest', 'establishment']"
toko sparepart chevrolet opel peugeot,-6.4026387,106.833756,"Pasar segar depok jln.tole iskandar blok KGB1, no8 Hp:085715388137, Kec. Pancoran Mas, Kota Depok, Jawa Barat 16431, Indonesia","['car_repair', 'store', 'point_of_interest', 'establishment']"
Bengkel 7 Umum dan Spesialis,-6.250245,107.065046,"Jalan Kali Baru yapink rt 005 rw 02 no 3, Jl. Mangunjaya, Mangunjaya, Kec. Tambun Sel., Bekasi, Jawa Barat 17510, Indonesia","['car_repair', 'point_of_interest', 'establishment']"
SBM SERVICE OPEL & CHEVROLET,-6.1843635,106.945065,"Jalan Bekasi Raya No.39 1 2, RT.1/RW.3, Cakung Tim., Kec. Cakung, Kota Jakarta Timur, Daerah Khusus Ibukota Jakarta 13910, Indonesia","['car_repair', 'point_of_interest', 'establishment']"
Opel'd Mode,-6.3922326,106.822782,"ITC Depok Lt. 1 Blok CO No. 10, Jl. Margonda Raya, Depok, Kec. Pancoran Mas, Kota Depok, Jawa Barat 16431, Indonesia","['clothing_store', 'store', 'point_of_interest', 'establishment']"
Andi. S Motor (Opel Blazer Chevrolet),-6.3700572,107.1138065,"Jl. Raya Serang - Cibarusah No.32, Sukadami, Cikarang Sel., Bekasi, Jawa Barat 17330, Indonesia","['car_repair', 'point_of_interest', 'establishment']"
Opel D'Mode,-6.375865,106.822798,"ITC Lantai 1 Blok CO No. 10, JL. Margonda Raya, No. 56, Beji Tim., Depok, Kota Depok, Jawa Barat 16431, Indonesia","['store', 'point_of_interest', 'establishment']"
Opel'd Mode,-6.3928526,106.8230077,"ITC Depok, Jl. Margonda Raya No.26, Depok, Kec. Pancoran Mas, Kota Depok, Jawa Barat 16431, Indonesia","['clothing_store', 'store', 'point_of_interest', 'establishment']"
OPEL'D COLLECTION,-6.175689,106.690608,"Ruko Poris Paradise Eksklusif Blok C 2, No 11, Jl. Maulana Hasanudin No.2, RW.4, Cipondoh Indah, Tangerang, Kota Tangerang, Banten 15122, Indonesia","['store', 'point_of_interest', 'establishment']"
Bengkel Opel Chevrolet Depok Pandit Jaya Motor (PJM),-6.3863564,106.844335,"Jl. Waru Jaya No.133A, RT.08/RW.21, Mekar Jaya, Kec. Sukmajaya, Kota Depok, Jawa Barat 16411, Indonesia","['car_repair', 'point_of_interest', 'establishment']"
Warung Opel Nonstop,-6.3580157,106.4675446,"Babakan, Tenjo, Bogor, West Java 16370, Indonesia","['store', 'point_of_interest', 'establishment']"
Opel'd,-6.1714966,106.6828886,"Ruko Poris Paradise Eksklusif, Jl. Maulana Hasanudin Blok C2 No.11, Poris Gaga, Kec. Batuceper, Kota Tangerang, Banten 15122, Indonesia","['shoe_store', 'store', 'point_of_interest', 'establishment']"
Jaya Motor Depok Toko Sparepart Chevrolet Opel Peugeot Di Depok,-6.3985006,106.7901158,"Jalan Jagal, gg aula anur, Jl. Caringin, Rangkapan Jaya, Kec. Pancoran Mas, Kota Depok, Jawa Barat 16435, Indonesia","['store', 'point_of_interest', 'establishment']"
Pangkalan Bang Opel,-6.1943755,106.8199912,"Jl. Kebon Kacang Raya No.55, Kb. Melati, Kec. Tanah Abang, Kota Jakarta Pusat, Daerah Khusus Ibukota Jakarta 10230, Indonesia","['point_of_interest', 'establishment']"
Andalan Motor Pondok Indah,-6.2407922,106.7833723,"Jl. Sultan Iskandar Muda No.8-9, RT.3/RW.2, Kby. Lama Utara, Kec. Kby. Lama, Kota Jakarta Selatan, Daerah Khusus Ibukota Jakarta 12240, Indonesia","['car_dealer', 'store', 'point_of_interest', 'establishment']"
Alexander Motor,-6.1518676,106.8448244,"Pasar Mobil Kemayoran Blok A No. 17A, Jl. Pekan Raya, RT.3/RW.10, Pademangan Tim., Kec. Pademangan, Kota Jakarta Pusat, Daerah Khusus Ibukota Jakarta 10620, Indonesia","['car_repair', 'store', 'point_of_interest', 'establishment']"
Opel Car,-6.163628,106.846921,"Pasar Mobil Kemayoran, JL. Kemayoran, Blok F/38-39, RT.5/RW.7, Kemayoran, Kec. Kemayoran, Kota Jakarta Pusat, Daerah Khusus Ibukota Jakarta 10620, Indonesia","['point_of_interest', 'establishment']"
Warung Betawi Po OpeL,-6.2636889,106.6876973,"Jl. Graha Raya Bintaro No.25, Parigi Baru, Kec. Pd. Aren, Kota Tangerang Selatan, Banten 15228, Indonesia","['restaurant', 'food', 'point_of_interest', 'establishment']"
Opel on Bodywear,-6.194128,106.634031,"GF Tangcity Mall, JL. Jend. Sudirman, No. 1, Cikokol, 15117 Tangerang, Indonesia, Babakan, Tangerang, Tangerang City, Banten 15118, Indonesia","['point_of_interest', 'establishment']"
Opel Motor,-6.1881024,107.2886503,"desa kertajaya kampung teko no34 rt003, Kertajaya, Pebayuran, Bekasi, Jawa Barat rw003, Indonesia","['point_of_interest', 'establishment']"
Opel Mtr,-6.48186,106.731588,"Jl. Raya Parung No.Rt 03/05, Jampang, Kemang, Bogor, Jawa Barat 16310, Indonesia","['point_of_interest', 'establishment']"
Opel'd,-6.17083,106.60978,"City Mall Tangerang, Jl. Moh Toha Km.2 No.1, Nambo Jaya, Kec. Karawaci, Kota Bumi, Tangerang 15560, Indonesia","['point_of_interest', 'establishment']"
PT.Mitra Setia Grafitama (OPEL),-6.153226,106.9453949,"RT.1/RW.10, Rorotan, Cilincing, North Jakarta City, Jakarta 14140, Indonesia","['point_of_interest', 'establishment']"
"Ben Motor, Plasa Atrium Senen Lt.5 Blok E-63",-6.176653,106.841115,"Senen Raya Road No.Plaza Atrium Senen Lantai 5 Blok E-63 Jl. Senen Raya No. 135, RT.5/RW.2, Senen, Jakarta, 10410, Indonesia","['car_dealer', 'car_repair', 'store', 'point_of_interest', 'establishment']"
PT. Sun Motor Kebon Jeruk,-6.1965042,106.7685459,"Jl. Panjang No.1, RT.4/RW.10, Kedoya Utara, Kec. Kb. Jeruk, Kota Jakarta Barat, Daerah Khusus Ibukota Jakarta 11530, Indonesia","['car_dealer', 'store', 'point_of_interest', 'establishment']"
Prima Autoworld Chevrolet Serpong,-6.2594513,106.6528879,"Serpong, Jl. Raya Serpong No.23, Pondok Jagung, North Serpong, South Tangerang City, Banten 15326, Indonesia","['car_dealer', 'car_repair', 'store', 'point_of_interest', 'establishment']"
GM,-6.3305908,106.7663361,"Jl. Vila Terusan No.3, Pd. Cabe Ilir, Kec. Pamulang, Kota Tangerang Selatan, Banten 15418, Indonesia","['electronics_store', 'store', 'point_of_interest', 'establishment']"
Surabaya Motor,-6.1842423,106.9448709,"Jl. Raya Bekasi Km. 23,5 No.39, RT.1/RW.3, Cakung Tim., Kec. Cakung, Kota Jakarta Timur, Daerah Khusus Ibukota Jakarta 13950, Indonesia","['car_dealer', 'store', 'point_of_interest', 'establishment']"
BD: Bengkelnya Donnie,-6.298987,106.835977,"Jl. Gabus Raya Rw. Bambu No.20A, RT.5/RW.9, Ps. Minggu, Kec. Ps. Minggu, Kota Jakarta Selatan, Daerah Khusus Ibukota Jakarta 12540, Indonesia","['car_repair', 'point_of_interest', 'establishment']"
Gm,-6.2951266,106.7654135,"Jl. Ir H. Juanda No.12e, RW.2, Cireundeu, Kec. Ciputat Tim., Kota Tangerang Selatan, Banten 15412, Indonesia","['point_of_interest', 'establishment']"
Bengkel Opel/chevrolet Blazer/Gugun&yadi,-6.935926,107.6418127,"Jalan Jendral Ibrahim Adjie, Babakan Sari, Kiaracondong, Binong, Kec. Batununggal, Kota Bandung, Jawa Barat 40275, Indonesia","['point_of_interest', 'establishment']"
Bengkel Perorangan Opel dan Chevrolet Cimahi,-6.8719646,107.5621678,"Unnamed Road, Sariwangi, Kec. Parongpong, Kabupaten Bandung Barat, Jawa Barat 40514, Indonesia","['car_repair', 'point_of_interest', 'establishment']"
Opel,-7.0107132,106.5650771,"Jl. Raya Bagbagan, Citarik, Pelabuhan Ratu, Sukabumi, Jawa Barat 43364, Indonesia","['hair_care', 'health', 'point_of_interest', 'establishment']"
PT AUTOMOTIF HOLDEN INDONESIA,-6.2616092,106.8643084,"Jalan Dewi Sartika No.17, Cawang, Kramatjati, RT.2/RW.13, Cililitan, Kec. Kramat jati, Kota Jakarta Timur, Daerah Khusus Ibukota Jakarta 13640, Indonesia","['point_of_interest', 'establishment']"
Mentari Motor (Chevrolet),-6.2688819,106.830815,"Jl. Warung Jati Barat No.477, RT.9/RW.5, Kalibata, Kec. Pancoran, Kota Jakarta Selatan, Daerah Khusus Ibukota Jakarta 12740, Indonesia","['point_of_interest', 'establishment']"
Variant Specialist Ac Opel (Tempat Akan Dijual),-6.9400548,107.592575,"Jl. KH. Wahid Hasyim No.156-158, Kopo, Kec. Bojongloa Kaler, Kota Bandung, Jawa Barat 40233, Indonesia","['store', 'point_of_interest', 'establishment']"
Bengkel Blazer,-6.1844995,106.9446824,"Jl. Raya Bekasi No.2, RT.1/RW.3, Cakung Tim., Kec. Cakung, Kota Jakarta Timur, Daerah Khusus Ibukota Jakarta 13910, Indonesia","['point_of_interest', 'establishment']"
Fajar Motor,-6.3078961,106.8383523,"No. 41, Rt. 003/001, Jl. Raya Lenteng Agung, RT.4/RW.1, Lenteng Agung, Kec. Jagakarsa, Kota Jakarta Selatan, Daerah Khusus Ibukota Jakarta 12530, Indonesia","['car_dealer', 'store', 'point_of_interest', 'establishment']"
Nano Opel,-5.4619217,105.2465219,"Jl. Sinar Mulya, Keteguhan, Tlk. Betung Bar., Kota Bandar Lampung, Lampung 35231, Indonesia","['store', 'point_of_interest', 'establishment']"
Budi Opel,-5.3707562,105.2892582,"Jl. Pulau Damar No.65-66, Way Dadi, Kec. Sukarame, Kota Bandar Lampung, Lampung 35131, Indonesia","['car_repair', 'point_of_interest', 'establishment']"
Opel,-6.240821,106.82225,"Jl. Kapten Tendean No.10, RT.2/RW.1, Mampang Prpt., Kec. Mampang Prpt., Kota Jakarta Selatan, Daerah Khusus Ibukota Jakarta 12790, Indonesia","['car_dealer', 'store', 'point_of_interest', 'establishment']"