name,lat,long,formatted_address,types
Proton,-6.411535499999999,106.8163327,"Jl. Raya Citayam No.47, Depok, Kec. Pancoran Mas, Kota Depok, Jawa Barat 16431, Indonesia","['car_dealer', 'store', 'point_of_interest', 'establishment']"
Proton,-6.1949732,106.7826316,"Jl. Kemanggisan Raya No.5, RT.5/RW.13, Palmerah, Kec. Palmerah, Kota Jakarta Barat, Daerah Khusus Ibukota Jakarta 11530, Indonesia","['car_dealer', 'store', 'point_of_interest', 'establishment']"
Proton,-6.229255800000001,106.7207334,"Jl. HOS Cokroaminoto, RT.1/RW.3, Sudimara Tim., Kec. Ciledug, Kota Tangerang, Banten 15151, Indonesia","['car_dealer', 'store', 'point_of_interest', 'establishment']"
Proton,-6.2937543,106.6674429,"Ruko CBD, Jl. Pahlawan Seribu, Lengkong Gudang, Kec. Serpong, Kota Tangerang Selatan, Banten 15322, Indonesia","['car_dealer', 'store', 'point_of_interest', 'establishment']"
Proton,-6.2002975,106.6203473,"Ruko Victoria, Jl. Imam Bonjol, Bojong Jaya, Kec. Karawaci, Kota Tangerang, Banten 15138, Indonesia","['point_of_interest', 'establishment']"
Proton Edar Indonesia. PT,-6.291429099999999,106.6674485,"Ruko CBD - BSD Blok F12 - 15, Serpong, Lengkong Gudang, Kec. Serpong, Tangerang, Banten 15321, Indonesia","['car_dealer', 'store', 'point_of_interest', 'establishment']"
Mobil Proton Exora Star MT,-6.4032455,106.8186951,"Jl. Kartini No.47, Depok, Kec. Pancoran Mas, Kota Depok, Jawa Barat 16431, Indonesia","['car_dealer', 'car_repair', 'store', 'point_of_interest', 'establishment']"
Proton Gumilang,-6.2062518,106.7790428,"Jl. Sulaiman No.3, RT.7/RW.3, Sukabumi Utara, Kec. Kb. Jeruk, Kota Jakarta Barat, Daerah Khusus Ibukota Jakarta 11540, Indonesia","['home_goods_store', 'store', 'point_of_interest', 'establishment']"
PT. PROTON GUMILANG Head Office,-6.197841299999999,106.6386524,"Jl. Hartono Raya, Modern Golf Shop Houses T03/08B, Kota Modern, Kelapa Indah, Tangerang, Tangerang City, Banten 15117, Indonesia","['home_goods_store', 'store', 'point_of_interest', 'establishment']"
PT. Proton Gumilang,-6.1979003,106.7930735,"Jl. Anggrek Cendrawasih II No.17 Kemanggisan Palmerah Jakarta Barat DKI Jakarta, RT.8/RW.2, Palmerah, Kec. Palmerah, Kota Jakarta Barat, Daerah Khusus Ibukota Jakarta 11480, Indonesia","['home_goods_store', 'store', 'point_of_interest', 'establishment']"
Proton Jatiasih,-6.310484199999999,106.9531837,"Jl. Wibawa Mukti II No.1, Jatiasih, Kec. Jatiasih, Kota Bks, Jawa Barat 17423, Indonesia","['car_repair', 'point_of_interest', 'establishment']"
Proton & SHELL Warehouse,-6.2323755,106.9893877,"Jl. Jend. Sudirman No.1, Harapan Mulya, Kecamatan Medan Satria, Kota Bks, Jawa Barat 17143, Indonesia","['store', 'point_of_interest', 'establishment']"
Proton,-6.198264,106.935682,"Jl. Jendral Sudirman, RT.19/RW.7, Penggilingan, Kec. Cakung, Kota Jakarta Timur, Daerah Khusus Ibukota Jakarta 17144, Indonesia","['point_of_interest', 'establishment']"
Pt. Proton Liftindo Perkasa,-6.309131,107.14275,"Jl. Industri Raya, Pasirsari, Cikarang Sel., Bekasi, Jawa Barat 17530, Indonesia","['store', 'point_of_interest', 'establishment']"
BPM Autowork - Specialist Proton Service - Om Dino,-6.2358107,107.0471514,"Jl. Permata X, Karangsatria, Kec. Tambun Utara, Bekasi, Jawa Barat 17510, Indonesia","['car_repair', 'point_of_interest', 'establishment']"
Spesialis Mitsubishi Dan Proton,-6.2241648,106.9388607,"Jl. Mawar Merah II, RT.6/RW.1, Pd. Kopi, Kec. Duren Sawit, Kota Jakarta Timur, Daerah Khusus Ibukota Jakarta 13460, Indonesia","['car_repair', 'point_of_interest', 'establishment']"
PT. PROTON GUMILANG,-6.1994133,106.7967208,"Jalan Sulaiman Blok Yusuf No.3, RT.1/RW.4, Slipi, Kec. Kb. Jeruk, Kota Jakarta Barat, Daerah Khusus Ibukota Jakarta 11540, Indonesia","['home_goods_store', 'store', 'point_of_interest', 'establishment']"
Proton,-6.376985599999999,106.9698635,"Jl. Narogong Raya, Limus Nunggal, Kec. Cileungsi, Bogor, Jawa Barat 16820, Indonesia","['point_of_interest', 'establishment']"
Proton Gumilang. PT,-6.186720999999999,106.635661,"JL. Veteran Raya, Block D-12 No. 12, 15881, Babakan, Kec. Tangerang, Kota Tangerang, Banten 12330, Indonesia","['home_goods_store', 'store', 'point_of_interest', 'establishment']"
Proton Hydraulic,-6.2953826,107.2936693,"Jl. Ahmad Yani, Jl. Raya Tj. Pura Baru, Tanjungmekar, Kec. Karawang Bar., Kabupaten Karawang, Jawa Barat 41316, Indonesia","['hardware_store', 'store', 'point_of_interest', 'establishment']"
PT. PROTON GUMILANG,-6.322705999999999,107.1390769,"Taman Sentosa K-2/9 Cikarang, Daerah Khusus Ibukota Jakarta 13220, Indonesia","['pharmacy', 'home_goods_store', 'health', 'store', 'point_of_interest', 'establishment']"
Proton Electronics,-6.1539376,106.8180378,"Hayam Wuruk Sreet No.99F, RT.3/RW.8, Maphar, Taman Sari, West Jakarta City, Jakarta 11160, Indonesia","['electronics_store', 'store', 'point_of_interest', 'establishment']"
SPARE PART PROTON,-6.2470035,107.0864802,"PERUMAHAN MUSTIKA WANASARI BLOK D6 NO 3, Wanasari, Kec. Cibitung, Bekasi, Jawa Barat 51981, Indonesia","['car_repair', 'point_of_interest', 'establishment']"
Proton Edar Indonesia Warehouse,-6.196438000000001,106.976635,"Jl. Pejuang No.45, Medan Satria, Kec. Bekasi Bar., Kota Bks, Jawa Barat 17132, Indonesia","['point_of_interest', 'establishment']"
Proton Edar Indonesia. PT,-6.4117959,106.8163387,"JL. Kartini Raya No.47, Depok, Pancoran Mas, Depok City, West Java 16431, Indonesia","['point_of_interest', 'establishment']"
Gedung Proton,-6.223672400000001,106.8664924,"RT.1/RW.3, Bali Mester, Jatinegara, East Jakarta City, Jakarta 13310, Indonesia","['point_of_interest', 'establishment']"
Pt Proton,-6.1968583,106.97925,"Medan Satria, Bekasi City, West Java 17132, Indonesia","['point_of_interest', 'establishment']"
KANG EMUY GARAGE Mitsubishi - Proton,-6.563637,106.802876,"Jl. Let. Tata Winata No.37, RT.6/RW.2, Kedung Badak, Kec. Tanah Sereal, Kota Bogor, Jawa Barat 16164, Indonesia","['electronics_store', 'store', 'point_of_interest', 'establishment']"
Penghemat BBM Mobil Proton Saga JSOne - Dokter Mobil,-6.1466669,106.9094441,"Blok QJ 1 No. 17, Jl. Boulevard Raya, RT.12/RW.15, Klp. Gading Bar., Kelapa, Kota Jkt Utara, Daerah Khusus Ibukota Jakarta 14240, Indonesia","['point_of_interest', 'establishment']"
Proton Liftindo Perkasa,-6.139401700000001,106.8195661,"Jl P Jayakarta 93-A Pinang Siang Tambora Jakarta Barat DKI Jakarta, RT.1/RW.3, Pinangsia, Kec. Taman Sari, Kota Jakarta Barat, Daerah Khusus Ibukota Jakarta 11110, Indonesia","['car_dealer', 'store', 'point_of_interest', 'establishment']"
Proton,-6.2711018,106.9807213,"Jl. Raya Pekayon No.27B, Jaka Setia, Kec. Bekasi Sel., Kota Bks, Jawa Barat 17147, Indonesia","['point_of_interest', 'establishment']"
Sentro,-6.2795527,106.7217671,"Bintaro Trade Center, Blok E 3, No. 1-2,, Jalan Jendral Sudirman, Bintaro Jaya Sektor 7, Pondok Jaya, Pondok Aren, Pd. Jaya, Kec. Pd. Aren, Kota Tangerang Selatan, Banten 15224, Indonesia","['car_repair', 'store', 'point_of_interest', 'establishment']"
Proton Saga. PT,-6.225332,107.01647,"Jalan Bekasi Permai No.20, RT.5/RW.3, Bekasi Jaya, Kec. Bekasi Tim., Kota Bks, Jawa Barat 17112, Indonesia","['point_of_interest', 'establishment']"
Proton Futures Investasi,-6.2723322,106.7255402,"Bintaro Jaya Sektor 7, Jl. Wahid Hasyim, Jurang Mangu Barat, Kec. Pd. Aren, Kota Tangerang Selatan, Banten 15224, Indonesia","['finance', 'point_of_interest', 'establishment']"
Proton Arjuna utara,-6.183794,106.7875835,"Jl. Way Seputih No.1A, RT.4/RW.1, Tj. Duren Sel., Kec. Grogol petamburan, Kota Jakarta Barat, Daerah Khusus Ibukota Jakarta 11470, Indonesia","['point_of_interest', 'establishment']"
Proton Panel Beton,-6.4000492,106.6240649,"Taman Sari, Rumpin, Bogor, West Java 16350, Indonesia","['general_contractor', 'point_of_interest', 'establishment']"
Penghemat BBM Mobil Proton Saga JSOne-Dokter Mobil,-6.1464962,106.9094012,"Blok QJ 1 No. 17, Jl. Boulevard Raya, RT.12/RW.15, Klp. Gading Bar., Kec. Klp. Gading, Kota Jkt Utara, Daerah Khusus Ibukota Jakarta 14240, Indonesia","['point_of_interest', 'establishment']"
Pt. Proton Liftindo Jaya,-6.127882400000001,106.8143568,"Jl. Lodan Raya No.12-A, RT.4/RW.1, Ancol, Kec. Pademangan, Kota Jkt Utara, Daerah Khusus Ibukota Jakarta 14430, Indonesia","['point_of_interest', 'establishment']"
PT PROTON EDAR INDONESIA,-6.270908899999999,106.9806675,"Jl. Raya Pekayon No.27B, Pekayon Jaya, Kec. Bekasi Sel., Kota Bks, Jawa Barat 17147, Indonesia","['point_of_interest', 'establishment']"
Proton Edar Indonesia Head Office and Warehouse,-6.1969071,106.9796444,"Jl. Raya Kaliabang, Medan Satria, Kecamatan Medan Satria, Kota Bks, Jawa Barat 17132, Indonesia","['point_of_interest', 'establishment']"
