name,lat,long,formatted_address,types
Bengkel Mobil Oscar Autocars,-6.254492000000001,106.619625,"Jl. Desa Curug Tgr. No.69, Curug Sangereng, Kec. Klp. Dua, Tangerang, Banten 15810, Indonesia","['car_repair', 'point_of_interest', 'establishment']"
Bengkel Mobil BOS Bintaro,-6.275658,106.762904,"Jalan RC Veteran Nomor 19, Kelurahan Bintaro, Kecamatan Pesanggrahan, RT.4/RW.7, Bintaro, Pesanggrahan, RT.4/RW.7, Bintaro, Kec. Pesanggrahan, Kota Jakarta Selatan, Daerah Khusus Ibukota Jakarta 12330, Indonesia","['car_wash', 'car_repair', 'store', 'point_of_interest', 'establishment']"
Bengkel Mobil BOS BSD,-6.3055346,106.6696253,"Jl. Kp., Cilenggang, Kec. Serpong, Kota Tangerang Selatan, Banten 15310, Indonesia","['car_repair', 'point_of_interest', 'establishment']"
Bengkel Motor Fatih,-6.2246413,106.5543409,"Jl.Raya Serang km.10,5 No.6, Jl. Kp. Kadu Suka Mulya No.Ds, Bunder, Kec. Cikupa, Tangerang, Banten 15710, Indonesia","['car_repair', 'point_of_interest', 'establishment']"
Bengkel Ford Kota Tangerang,-6.1898487,106.6420029,"Jl. Jenderal Sudirman No.89, Babakan, Kec. Tangerang, Kota Tangerang, Banten 15118, Indonesia","['car_repair', 'point_of_interest', 'establishment']"
Hra Car Repair,-6.2638595,106.791696,"No 15 Kebayoran Baru, Jl. H. Nawi Raya No.1A, RT.7/RW.7, Gandaria Utara, Kec. Kby. Baru, DKI Jakarta, Daerah Khusus Ibukota Jakarta 12140, Indonesia","['car_repair', 'point_of_interest', 'establishment']"
Bengkel mobil Om Noto,-6.2488246,106.5747736,"Gg. Keong Ronyok, Suka Bakti, Kec. Curug, Tangerang, Banten 15810, Indonesia","['car_repair', 'point_of_interest', 'establishment']"
Bengkel Kita BSD,-6.3168077,106.700542,"Jalan Masjid Ciater Kp. Maruga RT 04 RW 009 Serpong BSD Banten, Ciater, Kec. Serpong, Kota Tangerang Selatan, Banten 15317, Indonesia","['car_repair', 'point_of_interest', 'establishment']"
Bengkel Fatih Motor,-6.2243643,106.5541076,"Jl. Raya Serang No.55, RT.1/RW.2, Bunder, Kec. Cikupa, Tangerang, Banten 15710, Indonesia","['car_repair', 'point_of_interest', 'establishment']"
Bengkel AUTOFRESH,-6.3453798,106.8148223,"Jl. Mohamad Kafi II No.8, Kelurahan Cipedak, Kecamatan Jagakarsa, RT.2/RW.5, Cipedak, Jakarta Selatan, Kota Jakarta Selatan, Daerah Khusus Ibukota Jakarta 12630, Indonesia","['car_repair', 'point_of_interest', 'establishment']"
Bengkel Las dan Mobil GadingSerpong SMS AJA,-6.243345,106.6196453,"Jl. Boulevard Raya Gading Serpong, Klp. Dua, Kec. Klp. Dua, Tangerang, Banten 15810, Indonesia","['car_repair', 'point_of_interest', 'establishment']"
Bengkel Metropolitan,-6.3744345,106.8321238,"Jl. Margonda Raya No.335, Kemiri Muka, Kec. Beji, Kota Depok, Jawa Barat 16421, Indonesia","['car_repair', 'point_of_interest', 'establishment']"
Suzuki Putra Wijaya Motor,-6.153301,106.7241861,"Jalan Daan Mogot KM 14 no. 22-23, RT.8/RW.2, Cengkareng Bar., Kecamatan Cengkareng, Kota Jakarta Barat, Daerah Khusus Ibukota Jakarta 11730, Indonesia","['car_repair', 'point_of_interest', 'establishment']"
Bengkel Mobil BOS Kedoya,-6.183121000000001,106.767828,"Jalan Panjang Nomor 28, Kedoya Selatan, Kebon Jeruk, RT.7/RW.1, Kedoya Sel., Kec. Kb. Jeruk, Kota Jakarta Barat, Daerah Khusus Ibukota Jakarta 11520, Indonesia","['car_wash', 'car_repair', 'point_of_interest', 'establishment']"
"Bengkel Motor "" Motorworld "" Tangerang",-6.18494,106.634681,"No. (Kapling), Jl. Kh. Soleh Ali No.111, Sukasari, Kec. Tangerang, Kota Tangerang, Banten 15118, Indonesia","['car_repair', 'point_of_interest', 'establishment']"
Bengkel Subur Jaya 3,-6.377376000000001,107.1675455,"No.3500 kp tembong gunung ds, Jl. Warung Ampel, Sukamahi, Kec. Cikarang Pusat, Bekasi, Jawa Barat 17530, Indonesia","['car_repair', 'point_of_interest', 'establishment']"
Bengkel Mobil BOS Kavling DKI,-6.1920066,106.7248685,"Jl. Meruya Utara Blok Marjuki No.25, RT.1/RW.11, Meruya Utara, Kec. Kembangan, Kota Jakarta Barat, Daerah Khusus Ibukota Jakarta 11620, Indonesia","['car_repair', 'point_of_interest', 'establishment']"
Car Repair & Truck | Jaya Perkasa Motor,-6.1848,106.944591,"Jalan Raya Bekasi 23.5 No 8, km Blok KM No.18, RT.2/RW.2, Cakung Tim., Kec. Cakung, DKI Jakarta, Daerah Khusus Ibukota Jakarta 13910, Indonesia","['car_repair', 'point_of_interest', 'establishment']"
Pranawa Motor - Bengkel Motor,-6.2596742,106.9699445,"Jl. Taman Aster Grand Galaxi City No.10, Jaka Setia, Kec. Bekasi Sel., Kota Bks, Jawa Barat 17147, Indonesia","['car_repair', 'point_of_interest', 'establishment']"
Bengkel Mobil - Sinar Surya,-6.1904971,106.8377547,"Samping Bank Mega, Jl. Cikini 2 No.2, RT.13/RW.5, Cikini, Kec. Menteng, Kota Jakarta Pusat, Daerah Khusus Ibukota Jakarta 10330, Indonesia","['car_repair', 'point_of_interest', 'establishment']"
Bengkel primatama,-6.1889824,106.7743514,"Jl. Kb. Jeruk Baru No.17, RT.8/RW.8, Kb. Jeruk, Kec. Kb. Jeruk, Kota Jakarta Barat, Daerah Khusus Ibukota Jakarta 11530, Indonesia","['car_repair', 'point_of_interest', 'establishment']"
Bengkel Yamaha,-6.2148688,106.8789878,"Gg. Nangka No.150, RT.8/RW.13, Cipinang Besar Utara, Kecamatan Jatinegara, Kota Jakarta Timur, Daerah Khusus Ibukota Jakarta 13410, Indonesia","['car_repair', 'point_of_interest', 'establishment']"
Bengkel Auto Clinic (Kresna Mitra Asuransi Tbk.),-6.1895573,106.8848139,"Jl. Bangunan Barat No.2, RT.1/RW.4, Kayu Putih, Kec. Pulo Gadung, Kota Jakarta Timur, Daerah Khusus Ibukota Jakarta 13210, Indonesia","['car_repair', 'point_of_interest', 'establishment']"
Sudiono Bengkel Radiator (jumat libur),-6.2888495,106.795213,"Jl. RS. Fatmawati Raya No.5, RT.3/RW.5, Cilandak Bar., Kec. Cilandak, Kota Jakarta Selatan, Daerah Khusus Ibukota Jakarta 12430, Indonesia","['car_repair', 'store', 'point_of_interest', 'establishment']"
Bengkel Quattro,-6.30955,106.8138,"Jl. Cilandak KKO No.1 A RT.014/08, Cilandak Ragunan, RT.1/RW.7, Ragunan, Pasar Minggu, South Jakarta City, Jakarta 12550, Indonesia","['car_dealer', 'car_repair', 'store', 'point_of_interest', 'establishment']"
GT Auto Bekasi,-6.243010399999999,106.9685565,"Jl. Sekolah No.59, Jakasampurna, Kec. Bekasi Bar., Kota Bks, Jawa Barat 17145, Indonesia","['car_repair', 'point_of_interest', 'establishment']"
Auto Point Bengkel,-6.275410099999999,106.7425879,"Jl. Nusa Jaya No.3, Pd. Ranji, Kec. Ciputat Tim., Kota Tangerang Selatan, Banten 15412, Indonesia","['car_repair', 'point_of_interest', 'establishment']"
AHASS 13311 (Bengkel Resmi Honda),-6.2691989,107.1777416,"Jl. Urip Sumoharjo, Tanjungsari, Kec. Cikarang Tim., Bekasi, Jawa Barat 17530, Indonesia","['car_repair', 'point_of_interest', 'establishment']"
Bengkel Mobil BOS Ciledug,-6.2361854,106.7465705,"Jalan Bahagia Nomor 5 Rt 003 Rw 02 Kreo Selatan Larangan, Petukangan Utara, Pesanggrahan, RT.1, Petukangan Utara, Kec. Pesanggrahan, Kota Tangerang, Banten 15156, Indonesia","['car_repair', 'store', 'point_of_interest', 'establishment']"
Bengkel Mobil BOS Cibubur,-6.3889907,106.9454,"Jl. Alternatif Cibubur, Nagrak, Kec. Gn. Putri, Bogor, Jawa Barat 16967, Indonesia","['car_repair', 'point_of_interest', 'establishment']"
Bengkel Ketok Magic Ary Motor,-6.258267399999999,106.8624654,"Jl. Raya Kalibata No.56, RT.2/RW.7, Cililitan, Kec. Kramat jati, Kota Jakarta Timur, Daerah Khusus Ibukota Jakarta 13630, Indonesia","['car_repair', 'point_of_interest', 'establishment']"
Bengkel BAW,-6.1996812,106.7688801,"Jl. B No.17, RT.4/RW.1, Kb. Jeruk, Kec. Kb. Jeruk, Kota Jakarta Barat, Daerah Khusus Ibukota Jakarta 11530, Indonesia","['car_repair', 'point_of_interest', 'establishment']"
Bengkel Motor,-6.2334045,106.8441777,"Jl. Prof. DR. Soepomo No.6, RT.1/RW.2, Menteng Dalam, Kec. Tebet, Kota Jakarta Selatan, Daerah Khusus Ibukota Jakarta 12870, Indonesia","['car_repair', 'point_of_interest', 'establishment']"
Bengkel Mobilku (Honda Specialist),-6.2693078,106.8310617,"no., Jl. Warung Jati Barat Blok Darul Muslimin No.2, RT.4/RW.5, Kalibata, Kec. Pancoran, Kota Jakarta Selatan, Daerah Khusus Ibukota Jakarta 12740, Indonesia","['car_repair', 'point_of_interest', 'establishment']"
Bengkel Tigawe Lamindo,-6.574443899999999,106.8082472,"Padjadjaran Road No.91, Bantarjati, North Bogor, Bogor City, West Java 16153, Indonesia","['car_repair', 'point_of_interest', 'establishment']"
Bengkel Mobil Budi Laksana Motor,-6.6523673,106.9084184,"Jl. Raya Puncak - Cianjur No.77, Cilember, Kec. Cisarua, Bogor, Jawa Barat 16750, Indonesia","['car_repair', 'point_of_interest', 'establishment']"
Sinar Alam Motor,-6.3701211,106.8338548,"Jl. Margonda Raya No.1-2, RT.2/RW.11, Kemiri Muka, Kec. Beji, Kota Depok, Jawa Barat 16424, Indonesia","['car_repair', 'point_of_interest', 'establishment']"
Asuransi Ramayana Tbk. PT (Bengkel Rekaan Tangerang),-6.29043,106.666167,"Metro Auto Care Serpong BSD City, JL. Pahlawan Seribu, No.3, Kav. Komersil III A, Lengkong Gudang, Tangerang, Kota Tangerang Selatan, Banten 15321, Indonesia","['insurance_agency', 'car_repair', 'point_of_interest', 'establishment']"
Bengkel Setya Jaya Motor,-6.269062,106.911804,"Jl. Raya Jatiwaringin No.45, RW.3, Jaticempaka, Kec. Pondokgede, Kota Bks, Jawa Barat 17411, Indonesia","['car_repair', 'point_of_interest', 'establishment']"
Bengkel Pak Mani,-6.1941312,106.949387,"B, Jl. Pulau Sangiyang No.3, RT.4/RW.5, Pulo Gebang, Kec. Cakung, Kota Jakarta Timur, Daerah Khusus Ibukota Jakarta 13950, Indonesia","['car_repair', 'point_of_interest', 'establishment']"
