name,lat,long,formatted_address,types
Datsun,-6.278945299999999,107.1676478,"Jalan Lemah Abang Raya No. 207, Cibarusah, Cikarang, Simpangan, Kec. Cikarang Utara, Bekasi, Jawa Barat 17530, Indonesia","['car_dealer', 'store', 'point_of_interest', 'establishment']"
Datsun Leuwiliang,-6.573920299999999,106.6326192,"Leuwiliang, Bogor, West Java 16640, Indonesia","['car_dealer', 'store', 'point_of_interest', 'establishment']"
Nissan Datsun Bekasi Barat (Mimosa),-6.233395799999999,106.9896868,"No. 27, Jl. Jend. Sudirman No.KM, Kayuringin Jaya, Kec. Bekasi Sel., Kota Bks, Jawa Barat 17144, Indonesia","['car_dealer', 'store', 'point_of_interest', 'establishment']"
NISSAN DATSUN TOMANG,-6.184183,106.789818,"Jl. Arjuna Utara No.4-44, RT.1/RW.1, Tj. Duren Sel., Kec. Grogol petamburan, Kota Jakarta Barat, Daerah Khusus Ibukota Jakarta 11470, Indonesia","['car_dealer', 'store', 'point_of_interest', 'establishment']"
Datsun Leuwiliang - Yasmin,-6.5725604,106.629171,"No., Jl. Raya Leuwiliang No.47, Leuwiliang, Bogor, Jawa Barat 16640, Indonesia","['car_dealer', 'store', 'point_of_interest', 'establishment']"
Showroom Indomobil Nissan Datsun,-6.278654,106.796244,"Raya No.60 Kecamatan., Jl. RS. Fatmawati Raya, RT.11/RW.6, Cilandak Bar., Jakarta Selatan, DKI Jakarta, Daerah Khusus Ibukota Jakarta 12430, Indonesia","['car_dealer', 'store', 'point_of_interest', 'establishment']"
Indomobil Nissan Datsun Gading Serpong,-6.2486193,106.6265125,"Blok M 5 No. 22, Jl. Gading Serpong Boulevard No.23, Curug Sangereng, Kec. Klp. Dua, Tangerang, Banten 15810, Indonesia","['car_dealer', 'store', 'point_of_interest', 'establishment']"
Indomobil Nisan - Datsun Dealer Jakarta,-6.206141199999999,106.7699137,"Jl. Panjang Arteri Klp. Dua Raya No.30, RT.2/RW.2, Klp. Dua, Kec. Kb. Jeruk, Kota Jakarta Barat, Daerah Khusus Ibukota Jakarta 11550, Indonesia","['car_dealer', 'store', 'point_of_interest', 'establishment']"
Nissan Datsun Radin Inten,-6.2251243,106.9229265,"Kaveling 8 Nomor 18, Jl. Raden Inten II, RT.7/RW.10, Duren Sawit, Kec. Duren Sawit, Kota Jakarta Timur, Daerah Khusus Ibukota Jakarta 13440, Indonesia","['car_dealer', 'store', 'point_of_interest', 'establishment']"
Datsun Gading Serpong,-6.248491,106.6264618,"Jl. Gading Serpong Boulevard No.M5-18, Curug Sangereng, Kec. Klp. Dua, Tangerang, Banten 15810, Indonesia","['car_repair', 'point_of_interest', 'establishment']"
"Datsun Karawang 3S ( Sales, Service & Sparepart )",-6.323843,107.272815,"Jl Interchange Tol Karawang Barat, Kampung Pintu Air Wadas, Wadas, Telukjambe Timur, Karawang Regency, West Java 41361, Indonesia","['car_dealer', 'store', 'point_of_interest', 'establishment']"
Indomobil Nissan Datsun TB Simatupang,-6.290782999999999,106.783135,"Jl. R.A.Kartini No.RT.6, RT.6/RW.14, Pd. Pinang, Kec. Kby. Lama, Kota Jakarta Selatan, Daerah Khusus Ibukota Jakarta 12310, Indonesia","['car_dealer', 'store', 'point_of_interest', 'establishment']"
Showroom Nissan Datsun Cikarang,-6.3327458,107.1495747,"Jl. MH. Thamrin, Sukaresmi, Cikarang Sel., Bekasi, Jawa Barat 17530, Indonesia","['car_dealer', 'store', 'point_of_interest', 'establishment']"
Indomobil Nissan Datsun Depok Margonda,-6.385955,106.828159,"Jl. Margonda Raya No.191 - 193, Kemiri Muka, Kec. Beji, Kota Depok, Jawa Barat 16423, Indonesia","['car_dealer', 'store', 'point_of_interest', 'establishment']"
RAFFI AUTO CARE Specialist Nissan Datsun,-6.391791,106.84792,"Jalan Proklamasi No.28 Abadi Jaya Sukmajaya Depok II, Abadijaya, Kec. Sukmajaya, Kota Depok, Jawa Barat 16471, Indonesia","['car_repair', 'point_of_interest', 'establishment']"
CAK'I MOTOR ALTERNATIF SPESIALIS NISSAN DATSUN,-6.2262403,106.9388708,"Jl. Mawar Merah II No.17, RT.8/RW.1, Pd. Kopi, Kec. Duren Sawit, Kota Jakarta Timur, Daerah Khusus Ibukota Jakarta 13460, Indonesia","['car_repair', 'point_of_interest', 'establishment']"
Indomobil Nissan Datsun MT Haryono,-6.2427641,106.8640437,"Wisma Indomobil, Jl. Letjen Mt. Haryono No.3, RW.6, Kampung Melayu, Jatinegara, East Jakarta City, Jakarta 13330, Indonesia","['car_dealer', 'store', 'point_of_interest', 'establishment']"
Nissan Datsun Karawang,-6.314265199999999,107.3207858,"East Adiarsa, East Karawang, Karawang Regency, West Java 41311, Indonesia","['car_dealer', 'store', 'point_of_interest', 'establishment']"
Forte Auto spesialis nissan datsun,-6.3469598,106.7564232,"Pondok Cabe Udik, Pamulang, South Tangerang City, Banten 15418, Indonesia","['point_of_interest', 'establishment']"
Indomobil Nissan Datsun Bogor Pajajaran,-6.5834322,106.8059063,"Jalan Pajajaran No. 55 Babakan, Bantarjati, Kec. Bogor Utara, Kota Bogor, Jawa Barat 16143, Indonesia","['car_dealer', 'store', 'point_of_interest', 'establishment']"
Indomobil Nissan Datsun Radin Inten,-6.2252084,106.9230049,"Jl. Raden Inten II No.18, RT.7/RW.10, Duren Sawit, East Jakarta City, Jakarta 13440, Indonesia","['car_dealer', 'store', 'point_of_interest', 'establishment']"
Indomobil Nissan Datsun Jatake,-6.2053971,106.5704105,"Jl. Gatot Subroto KM. 8 Jatake, Manis Jaya, Jatiuwung, Tangerang City, Banten 15136, Indonesia","['car_dealer', 'store', 'point_of_interest', 'establishment']"
Sha Auto Service,-6.438285,106.7236624,"Jl. Pamegarsari, Pemagarsari, Kec. Parung, Bogor, Jawa Barat 16330, Indonesia","['car_repair', 'point_of_interest', 'establishment']"
Indomobil Nissan Datsun Jakarta Warung Buncit,-6.282465999999999,106.827665,"Jl. Warung Jati Barat No.34, RT.2/RW.5, Jati Padang, Jakarta Selatan, Kota Jakarta Selatan, Daerah Khusus Ibukota Jakarta 12540, Indonesia","['car_dealer', 'store', 'point_of_interest', 'establishment']"
SALES NISSAN DATSUN JAKARTA,-6.2317369,106.9224462,"Jl. Radin Intan II Kav. 8/18 Duren Sawit Jakarta 13440, RT.5/RW.14, Duren Sawit, Kec. Duren Sawit, Kota Jakarta Timur, Daerah Khusus Ibukota Jakarta 13440, Indonesia","['car_dealer', 'store', 'point_of_interest', 'establishment']"
Dealer Nissan Datsun Jakarta,-6.2847407,106.7958034,"Jl. RS. Fatmawati Raya No.60, RT.1/RW.10, Cilandak Bar., Kec. Cilandak, DKI JAKARTA, Daerah Khusus Ibukota Jakarta 12430, Indonesia","['car_dealer', 'store', 'point_of_interest', 'establishment']"
INDOMOBIL NISSAN DATSUN YASMIN BOGOR,-6.5572722,106.7717467,"Jalan KH. Raden, Jl. KH. R. Abdullah Bin Nuh, RT.02/RW.03, Curugmekar, West Bogor, Bogor City, West Java 16113, Indonesia","['car_dealer', 'store', 'point_of_interest', 'establishment']"
Indomobil Nissan Datsun Cikarang,-6.332712099999999,107.1496136,"Jl. Muhammad Haji Thamrin Kav. 200B, Cibatu, Cikarang Sel., Bekasi, Jawa Barat 17530, Indonesia","['car_dealer', 'store', 'point_of_interest', 'establishment']"
Indomobil Nissan Datsun Ancol,-6.1225171,106.8157471,"Kota Tua, Jl. Ancol Barat VII No.2, RT.02/RW.1, Ancol, Kec. Pademangan, Kota Jkt Utara, Daerah Khusus Ibukota Jakarta 14430, Indonesia","['car_dealer', 'store', 'point_of_interest', 'establishment']"
Adji Sales Nissan Datsun Bintaro,-6.275087,106.718164,"Jl. Rasuna Said Kav A-5-11 Blok B7 CBD Sektor VII, Bintaro, Pondok Jaya, Pondok Aren, Pd. Jaya, Kec. Pd. Aren, Kota Tangerang Selatan, Banten 15220, Indonesia","['car_dealer', 'store', 'point_of_interest', 'establishment']"
Indomobil Nissan Datsun Sunter,-6.1441911,106.883217,"Jl. Danau Sunter Selatan Blok O3 No.53-54 Sunter Jaya Tanjung Priok RT.10/RW.11 Sunter Jaya Tanjung Priok RT.10/RW.11 Sunter Jaya Tanjung Priok RT.10, RT.10/RW.11, Sunter Jaya, Sunt, North Jakarta City, Jakarta 14350, Indonesia","['car_dealer', 'store', 'point_of_interest', 'establishment']"
Indomobil Datsun,-6.290648699999999,106.7831973,"Jl. Term. Simatupang, RT.6/RW.14, Pd. Pinang, Kec. Kby. Lama, Kota Jakarta Selatan, Daerah Khusus Ibukota Jakarta 12310, Indonesia","['car_dealer', 'store', 'point_of_interest', 'establishment']"
Indomobil Nissan Datsun Cibubur,-6.390453,106.94999,"Raya Alternatif Cibubur Km 7 Cibubur, Nagrak, Gunung Putri, Bogor, West Java 16967, Indonesia","['car_dealer', 'store', 'point_of_interest', 'establishment']"
Bengkel Alternatif Nissan Datsun,-6.204074,106.0789852,"Pabuaran, Serang, Banten 42163, Indonesia","['store', 'point_of_interest', 'establishment']"
Indomobil Nissan Datsun Batu Ceper,-6.1623779,106.8244328,"Jl. Batu Ceper No.32, RT.1/RW.2, Kb. Klp., Jakarta Pusat, Kota Jakarta Pusat, Daerah Khusus Ibukota Jakarta 10120, Indonesia","['car_dealer', 'store', 'point_of_interest', 'establishment']"
"DATSUN GO PANCA, GO PLUS, GO CROSS Tanya Promo, Harga & Paket Kredit",-6.183867999999999,106.974673,"Harapan Indah Boulevard, Kav. Commercial Park I No.9E, Medan Satria, Kecamatan Medan Satria, Kota Bks, Jawa Barat 17132, Indonesia","['car_dealer', 'store', 'point_of_interest', 'establishment']"
Indomobil Nissan Datsun Pluit,-6.1254545,106.7972736,"Raya No. Penjaringan Jalan Pluit Selatan No.8, RT.1/RW.9, Penjaringan, Kec. Penjaringan, DKI Jakarta, Daerah Khusus Ibukota Jakarta 14440, Indonesia","['car_dealer', 'store', 'point_of_interest', 'establishment']"
"Dealer Datsun, BSD CITY",-6.292268,106.6656516,"Jl. Pahlawan Seribu No.5, Lengkong Gudang, Kec. Serpong, Kota Tangerang Selatan, Banten 15310, Indonesia","['store', 'point_of_interest', 'establishment']"
KREDIT DATSUN,-6.3630027,106.8335512,"Jl. Margonda Raya No.487, Pondok Cina, Kec. Beji, Kota Depok, Jawa Barat 16424, Indonesia","['finance', 'point_of_interest', 'establishment']"
NDS Auto Service - Nissan-Datsun Spesialis Serang,-6.162529999999999,106.179701,"Jl. Raya Petir Km.4 No, RT.003/RW.002, Serang, Cipocok Jaya, Serang City, Banten 42123, Indonesia","['car_repair', 'point_of_interest', 'establishment']"
Forte Auto spesialis nissan datsun,-6.3469641,106.7564015,"Pondok Cabe Udik, Pamulang, South Tangerang City, Banten 15418, Indonesia","['car_repair', 'point_of_interest', 'establishment']"
Nissan Datsun Fatmawati,-6.288596,106.795039,"Nissan Datsun Fatmawati, Jl. RS. Fatmawati Raya No.60, RT.3/RW.5, Cilandak Bar., Kec. Cilandak, Kota Jakarta Selatan, Daerah Khusus Ibukota Jakarta 12430, Indonesia","['car_dealer', 'store', 'point_of_interest', 'establishment']"
Nissan Datsun Roxy,-6.1660607,106.8090676,"Jl. KH. Hasyim Ashari No.45, RT.1/RW.11, Cideng, Kec. Gambir, Kota Jakarta Pusat, Daerah Khusus Ibukota Jakarta 10150, Indonesia","['point_of_interest', 'establishment']"
Datsun,-6.3856877,106.8284576,"Jl. Margonda Raya, RT.2/RW.15, Kemiri Muka, Kec. Beji, Kota Depok, Jawa Barat 16423, Indonesia","['car_dealer', 'store', 'point_of_interest', 'establishment']"
Showroom Nissan Datsun Tb.Simatupang,-6.290591,106.783204,"Jalan R.A.Kartini II-S Kav.7, RT.6/RW.14, Pondok Pinang, Kebayoran Lama, South Jakarta City, Jakarta 12430, Indonesia","['car_dealer', 'store', 'point_of_interest', 'establishment']"
Datsun Pamulang ( Nissan Bintaro ),-6.272004,106.714442,"Bintaro Jaya, Jl. HR Rasuna Said, Pd. Jaya, Kec. Pd. Aren, Kota Tangerang Selatan, Banten 15414, Indonesia","['car_dealer', 'store', 'point_of_interest', 'establishment']"
Dealer Nissan Datsun Jakarta Timur,-6.390079,106.947298,"Jl. Alt Cibubur Legenda Wisata, Cibubur km 7,5, Nagrak, Kec. Gn. Putri, Jakarta, DKI Jakarta 16966, Indonesia","['car_dealer', 'store', 'point_of_interest', 'establishment']"
Nissan Datsun Warung Buncit,-6.282383599999999,106.8276624,"Jl. Warung Jati Barat No.34, RT.2/RW.11, Ragunan, Kec. Ps. Minggu, Kota Jakarta Selatan, Daerah Khusus Ibukota Jakarta 12540, Indonesia","['car_dealer', 'store', 'point_of_interest', 'establishment']"
Indomobil Nissan Datsun Puri Indah,-6.186213200000001,106.7312962,"Jl. KOMP Puri Indah Blok R, No.1, RT.1/RW.2, South Kembangan, Kembangan, West Jakarta City, Jakarta 11610, Indonesia","['car_dealer', 'store', 'point_of_interest', 'establishment']"
Datsun,-6.315955,106.7065463,"Ruko Beranda Serpong No 06 Serua, Jl. Ciater Raya, Serua, Kec. Ciputat, Kota Tangerang Selatan, Banten 15310, Indonesia","['car_dealer', 'store', 'point_of_interest', 'establishment']"
Forte Auto spesialis Nissan Datsun,-6.346959999999999,106.756423,"Pondok Cabe Udik, Pamulang, South Tangerang City, Banten 15418, Indonesia","['point_of_interest', 'establishment']"
Indomobil Nissan Datsun Cinere,-6.353070799999999,106.7763232,"Jl. Limo Raya No.kav. 95, Meruyung, Kec. Limo, Kota Depok, Jawa Barat 16515, Indonesia","['car_dealer', 'store', 'point_of_interest', 'establishment']"
Datsun,-6.3834274,105.8357276,"Sukamaju, Labuan, Pandeglang Regency, Banten 42264, Indonesia","['car_dealer', 'store', 'point_of_interest', 'establishment']"
Anw Auto Service Nissan Datsun,-6.3644557,106.9196749,"Anw auto service nissan datsun, Jl. Kranggan Raya No.1, Jatiraden, Kec. Jatisampurna, Kota Bks, Jawa Barat 17433, Indonesia","['car_repair', 'point_of_interest', 'establishment']"
Datsun Galuga,-6.579045,106.6414994,"Jl. Raya Leuwiliang, Cemplang, Cibungbulang, Bogor, Jawa Barat 16630, Indonesia","['point_of_interest', 'establishment']"
Indomobil Nissan Datsun Cimone,-6.1841221,106.6191924,"Pabuaran, Kelapa Dua, Jl. Raya Merdeka No.2/125, Cimone Jaya, Karawaci Sub-District, Tangerang City, Banten 15114, Indonesia","['car_dealer', 'store', 'point_of_interest', 'establishment']"
Indomobil Nissan Datsun Bintaro,-6.2751002,106.7181887,"Bintaro Jaya Cbd, Jl. Rasuna Said Kav. A-5, Jl. Sektor VII No.11, Pondok Jaya, Pondok Aren, South Tangerang City, Banten 15220, Indonesia","['car_dealer', 'store', 'point_of_interest', 'establishment']"
Spesialis Nissan Datsun # Lasno Otronik #,-6.1429589,106.1601206,"Tembong, Cipocok Jaya, Serang City, Banten 42126, Indonesia","['point_of_interest', 'establishment']"
Indomobil Nissan Datsun Harapan Indah,-6.1836305,106.9745981,"Jalan Harapan Indah Bulevard, Kav Commercial Park I No.9E, Kota Harapan Indah, Medan Satria, Bekasi City, West Java 17132, Indonesia","['car_dealer', 'store', 'point_of_interest', 'establishment']"
Indomobil Nissan Datsun Jakarta Pos Pengumben,-6.2190866,106.7665339,"Jl. Pahlawan No.81, RT.3/RW.5, Sukabumi Sel., Kec. Kb. Jeruk, Kota Jakarta Barat, Daerah Khusus Ibukota Jakarta 11560, Indonesia","['car_dealer', 'store', 'point_of_interest', 'establishment']"
