Name,Specific Brand,lat,long,Address,types
"|| OPTI INDO || Nano Ceramic Coating Paint Protection, Autodetailing - Salon Mobil Jakarta",Misc,-6.1379897,106.8666118,"Jl. Danau Sunter Utara No.R 76, RT.1/RW.19, Sunter Agung, Tj. Priok, Kota Jkt Utara, Daerah Khusus Ibukota Jakarta 14350, Indonesia","['car_wash', 'car_repair', 'point_of_interest', 'establishment']"
3 Putra Motor Volvo,Volvo,-6.3313545,106.8082294,"Jl. M. Kahfi 1 No.11, RT.9/RW.2, Ciganjur, Kec. Jagakarsa, Kota Jakarta Selatan, Daerah Khusus Ibukota Jakarta 12630, Indonesia","['car_repair', 'point_of_interest', 'establishment']"
AAC Motor CHEVROLET,Chevrolet,-6.2676101,106.9950791,"Jalan Siliwangi Raya No.225, Sepanjang Jaya, Kec. Bekasi Tim., Kota Bks, Jawa Barat 17116, Indonesia","['car_repair', 'point_of_interest', 'establishment']"
Abi Zhidan Motor Mini,Misc,-6.22376,106.7583943,"Jl. Palem, RT.1/RW.8, Joglo, Kec. Kembangan, Kota Jakarta Barat, Daerah Khusus Ibukota Jakarta 11640, Indonesia","['store', 'point_of_interest', 'establishment']"
about vw all jakarta,VW,-6.1582955,106.8414905,"Jl. Angkasa No.20S, RT.5/RW.2, South Gunung Sahari, Kemayoran, Central Jakarta City, Jakarta 10610, Indonesia","['car_dealer', 'store', 'point_of_interest', 'establishment']"
Adji Sales Nissan Datsun Bintaro,Nissan/Datsun,-6.275087,106.718164,"Jl. Rasuna Said Kav A-5-11 Blok B7 CBD Sektor VII, Bintaro, Pondok Jaya, Pondok Aren, Pd. Jaya, Kec. Pd. Aren, Kota Tangerang Selatan, Banten 15220, Indonesia","['car_dealer', 'store', 'point_of_interest', 'establishment']"
Adlan Powder Coating,Misc,-6.3466025,106.8227374,"Jl. Klp., RT.No. 49/RW.6, Srengseng Sawah, Kec. Jagakarsa, Kota Jakarta Selatan, Daerah Khusus Ibukota Jakarta 12630, Indonesia","['point_of_interest', 'establishment']"
Adya Motor Mini!,Misc,-6.405711,106.746621,"Jalan Muchtar Raya RT 03 RW 05 Kelurahan Bojongsari Lama Kecamatan Sawangan, Depok, Bojongsari Lama, Kec. Bojongsari, Kota Depok, Jawa Barat 16516, Indonesia","['store', 'point_of_interest', 'establishment']"
Aegis Indonesia - Premium Nano Coating,Misc,-6.219328,106.619152,"No. 51, Cibodas Lippo Karawaci, Jl. Kalimantan, Panunggangan Bar., Kec. Tangerang, Kota Tangerang, Banten 15811, Indonesia","['general_contractor', 'point_of_interest', 'establishment']"
AHASS 13311 (Bengkel Resmi Honda),Honda,-6.2691989,107.1777416,"Jl. Urip Sumoharjo, Tanjungsari, Kec. Cikarang Tim., Bekasi, Jawa Barat 17530, Indonesia","['car_repair', 'point_of_interest', 'establishment']"
Ahmad Farid Sales Marketing Penjualan Mobil Baru Chevrolet,Chevrolet,-6.24086,106.783145,"Jl. Arteri Pondok Indah No. 8-9, Kebayoran Lama, Jakarta Selatan, DKI, Jakarta, RT.3/RW.2, Kby. Lama Utara, Kec. Kby. Lama, Kota Jakarta Selatan, Daerah Khusus Ibukota Jakarta 12240, Indonesia","['car_dealer', 'store', 'point_of_interest', 'establishment']"
Allwork Ford PT,Ford,-6.144243,106.786176,"Jl. Pangeran Tubagus Angke Blok D No.10, RT.13/RW.7, Jelambar Baru, Kec. Grogol petamburan, Kota Jakarta Barat, Daerah Khusus Ibukota Jakarta 11460, Indonesia","['car_dealer', 'store', 'point_of_interest', 'establishment']"
Andalan Motor Pondok Indah,Misc,-6.2407922,106.7833723,"Jl. Sultan Iskandar Muda No.8-9, RT.3/RW.2, Kby. Lama Utara, Kec. Kby. Lama, Kota Jakarta Selatan, Daerah Khusus Ibukota Jakarta 12240, Indonesia","['car_dealer', 'store', 'point_of_interest', 'establishment']"
Andalan Motor Samanhudi,Misc,-6.1595756,106.8355937,"Jl. Samanhudi No.43, RT.5/RW.3, Ps. Baru, Kec. Sawah Besar, Kota Jakarta Pusat, Daerah Khusus Ibukota Jakarta 10710, Indonesia","['car_dealer', 'store', 'point_of_interest', 'establishment']"
Anw Auto Service Nissan Datsun,Nissan/Datsun,-6.3644557,106.9196749,"Anw auto service nissan datsun, Jl. Kranggan Raya No.1, Jatiraden, Kec. Jatisampurna, Kota Bks, Jawa Barat 17433, Indonesia","['car_repair', 'point_of_interest', 'establishment']"
Arkhan Ferrari EO ENTERTAINMENT & Tour Travel,Ferrari,-6.274571,106.696127,"Jl Masjid assa'adah Kel. Parigi lama NO 26 RT 03 RW 04 KEC. Pondok Aren, Jalan Taman Makam Bahagia, Parigi, Kec. Pd. Aren, Kota Tangerang Selatan, Banten 15227, Indonesia","['store', 'point_of_interest', 'establishment']"
Asco Body Repair,Misc,-6.3923685,106.9544922,"Jl. Raya Jonggol - Cileungsi, Cileungsi, Kec. Cileungsi, Bogor, Jawa Barat 16820, Indonesia","['car_repair', 'point_of_interest', 'establishment']"
Asco Multi Kreasi,Misc,-6.185145,106.6675236,"Jalan K. Haji Mustofa No. 38, RT.0001 / RW.004, Poris Plawad, Cipondoh, Poris Plawad Utara, Kec. Cipondoh, Kota Tangerang, Banten 15122, Indonesia","['point_of_interest', 'establishment']"
Astra BMW Sunter,BMW,-6.140213,106.88501,"Jalan Gaya Motor Selatan No.1, RW.8, Sungai Bambu, Tj. Priok, Kota Jkt Utara, Daerah Khusus Ibukota Jakarta 14330, Indonesia","['car_dealer', 'store', 'point_of_interest', 'establishment']"
Asuransi Ramayana Tbk. PT (Bengkel Rekaan Tangerang),Misc,-6.29043,106.666167,"Metro Auto Care Serpong BSD City, JL. Pahlawan Seribu, No.3, Kav. Komersil III A, Lengkong Gudang, Tangerang, Kota Tangerang Selatan, Banten 15321, Indonesia","['insurance_agency', 'car_repair', 'point_of_interest', 'establishment']"
Audi All Jakarta,Misc,-6.1745127,106.8651682,"1, RT.1/RW.8, East Cempaka Putih, Cempaka Putih, Central Jakarta City, Jakarta 10510, Indonesia","['car_dealer', 'store', 'point_of_interest', 'establishment']"
Audi BSD,Misc,-6.276187,106.658759,"Sektor VI Blok 201 Kav. 3 Bumi Serpong Damai, Lengkong Karya, Kec. Serpong Utara, Kota Tangerang Selatan, Banten 15310, Indonesia","['car_dealer', 'car_repair', 'store', 'point_of_interest', 'establishment']"
AUDI CENTER JAKARTA INDONESIA,Misc,-6.1249521,106.754431,"Jl. Kapuk Muara Raya No.1, RT.1/RW.16, Kapuk Muara, Kec. Penjaringan, Kota Jkt Utara, Daerah Khusus Ibukota Jakarta 14460, Indonesia","['car_dealer', 'store', 'point_of_interest', 'establishment']"
Audi Center MT. Haryono,Misc,-6.2428591,106.8645059,"Gedung Indomobil Tower IV, Jl. Letjen M.T. Haryono No.Kav. 11, RW.6, Kp. Melayu, Kecamatan Jatinegara, Kota Jakarta Timur, Daerah Khusus Ibukota Jakarta 13330, Indonesia","['car_dealer', 'store', 'point_of_interest', 'establishment']"
Audi Halim Service Center,Misc,-6.2488121,106.880427,"Jl. Halim Perdanakusuma No.1 A, RT.1/RW.8, Kb. Pala, Kec. Makasar, Kota Jakarta Timur, Daerah Khusus Ibukota Jakarta 13330, Indonesia","['car_dealer', 'car_repair', 'store', 'point_of_interest', 'establishment']"
Audi Indonesia (ATPM),Misc,-6.242672,106.863316,"Jl. Letjen M.T. Haryono No.6, RW.6, Kp. Melayu, Jakarta, Kota Jakarta Timur, Daerah Khusus Ibukota Jakarta 13330, Indonesia","['car_dealer', 'store', 'point_of_interest', 'establishment']"
Audi Indonesia Dealer Resmi,Misc,-6.1245195,106.7534564,"Jl. Pantai Indah Selatan 1 Blok Da No.1A, RT.1/RW.6, Kapuk Muara, Kec. Penjaringan, Kota Jkt Utara, Daerah Khusus Ibukota Jakarta 14460, Indonesia","['car_dealer', 'store', 'point_of_interest', 'establishment']"
Audi Kemayoran,Misc,-6.158127,106.8414413,"Jl. Angkasa, RT.5/RW.10, Gn. Sahari Sel., Kec. Kemayoran, Kota Jakarta Pusat, Daerah Khusus Ibukota Jakarta 13330, Indonesia","['car_dealer', 'store', 'point_of_interest', 'establishment']"
Audi Metropolitan Tower,Misc,-6.29262,106.7847235,"Jl.RA.Kartini Kav.14 TB Simatupang, RT.10/RW.4, Cilandak Bar., Kec. Cilandak, Kota Jakarta Selatan, Daerah Khusus Ibukota Jakarta 12430, Indonesia","['car_dealer', 'car_repair', 'store', 'point_of_interest', 'establishment']"
Audi Pantai Indah Kapuk,Misc,-6.1248837,106.7536631,"Jl Pantai Indah Selatan 1 ST/A, Jl. Pantai Indah Kapuk, RT.1/RW.6, Kapuk Muara, Kec. Penjaringan, Kota Jkt Utara, Daerah Khusus Ibukota Jakarta 14440, Indonesia","['car_dealer', 'store', 'point_of_interest', 'establishment']"
Audi Puri Indah,Misc,-6.1864565,106.7313519,"Jalan Komplek Puri Blok R No.1 Kembangan RT.1/RW.2, Kembangan Selatan, RT.1/RW.2, Kembangan Sel., Kec. Kembangan, Kota Jakarta Barat, Daerah Khusus Ibukota Jakarta 11610, Indonesia","['car_dealer', 'store', 'point_of_interest', 'establishment']"
Audi Volkswagen GSO Jakarta,Volkswagen,-6.1585279,106.8414835,"Jl. Angkasa No.18, RT.1/RW.2, Gn. Sahari Sel., Kec. Kemayoran, Kota Jakarta Pusat, Daerah Khusus Ibukota Jakarta 10610, Indonesia","['car_dealer', 'store', 'point_of_interest', 'establishment']"
Audi VW jakarta,VW,-6.2929539,106.7846692,"Gedung Metropolitan Tower, Jalan R.A.Kartini, T. B. Simatupang, Gang C 1, Gg. RW No.RT.10, RT.10/RW.4, Cilandak Bar., Kec. Cilandak, Kota Jakarta Selatan, Daerah Khusus Ibukota Jakarta 12320, Indonesia","['car_dealer', 'store', 'point_of_interest', 'establishment']"
Audi Wisma Indomobil - 081218018121,Misc,-6.242513,106.862963,"Jl MT Haryono kav 8, RW.6, Kp. Melayu, Kecamatan Jatinegara, Kota Jakarta Timur, Daerah Khusus Ibukota Jakarta 13330, Indonesia","['car_dealer', 'store', 'point_of_interest', 'establishment']"
Authorized Dealer Mercedes Benz,Mercedes-Benz,-6.2111,106.91429,"Darma Niaga, Jalan Raya Bekasi KM.17 No.23, RT.2/RW.9, Jatinegara, Kec. Cakung, Kota Jakarta Timur, Daerah Khusus Ibukota Jakarta 13930, Indonesia","['car_dealer', 'store', 'point_of_interest', 'establishment']"
Authorized Mercedes Benz Dealer,Mercedes-Benz,-6.1250657,106.794723,"Jl. Pluit Selatan Raya No.1C, RT.16/RW.8, Penjaringan, Kec. Penjaringan, Kota Jkt Utara, Daerah Khusus Ibukota Jakarta 14440, Indonesia","['car_dealer', 'finance', 'store', 'point_of_interest', 'establishment']"
Auto Point Bengkel,Misc,-6.2754101,106.7425879,"Jl. Nusa Jaya No.3, Pd. Ranji, Kec. Ciputat Tim., Kota Tangerang Selatan, Banten 15412, Indonesia","['car_repair', 'point_of_interest', 'establishment']"
Auto Pro Body Repair,Misc,-6.270114,106.7750223,"Jl. Ciputat Raya Blok Anggrek No.63, RT.4/RW.11, Pd. Pinang, Kec. Kby. Lama, Kota Jakarta Selatan, Daerah Khusus Ibukota Jakarta 12310, Indonesia","['car_repair', 'point_of_interest', 'establishment']"
Auto Solution Peugeot Spesialis Supri,Peugeot,-6.3200519,106.9585116,"Jatiluhur, Jatiasih, Bekasi City, West Java 17425, Indonesia","['car_repair', 'point_of_interest', 'establishment']"
Auto2000 Body Paint Sunter,Misc,-6.1374146,106.8841854,"Tanjung Priuk, Jl. Gaya Motor III No.3, RW.8, Bambu River, Tanjung Priok, North Jakarta City, Jakarta 14330, Indonesia","['car_repair', 'car_dealer', 'store', 'point_of_interest', 'establishment']"
Auto2000 Puri Kembangan,Misc,-6.1814075,106.7296259,"Jl. Lingkar Luar Barat, Jl. Puri Kembangan No.40, RT.5/RW.1, North Kembangan, Kembangan, West Jakarta City, Jakarta 11500, Indonesia","['car_dealer', 'store', 'point_of_interest', 'establishment']"
Auto2000 Toyota,Toyota,-6.2471163,106.9205406,"Jl. Raya Kalimalang No.45, RT.1/RW.7, Duren Sawit, Kec. Duren Sawit, Kota Jakarta Timur, Daerah Khusus Ibukota Jakarta 13450, Indonesia","['car_dealer', 'store', 'point_of_interest', 'establishment']"
AutoCraft Body Repair,Misc,-6.2073034,106.7863784,"Jl. Palmerah Utara No.47 B, RT.2/RW.3, Grogol Utara, Kec. Kby. Lama, Kota Jakarta Selatan, Daerah Khusus Ibukota Jakarta 12210, Indonesia","['car_repair', 'point_of_interest', 'establishment']"
Autowerke Body Repair,Misc,-6.271936,106.8069467,"Jalan Asem II Blok Ros No.32, RT.1/RW.1, South Cipete, Cilandak, South Jakarta City, Jakarta 12410, Indonesia","['car_repair', 'store', 'point_of_interest', 'establishment']"
Bawang Goreng Gurih(Miss Bawang),Misc,-6.332438,106.855715,"JL.Kirai Indah kav.2 RT.06/10 no.29A. Kalisari, Pasar Rebo, Jakarta Timur, Kalisari, Jakarta, Kota Jakarta Timur, Daerah Khusus Ibukota Jakarta 13790, Indonesia","['car_dealer', 'store', 'point_of_interest', 'establishment']"
BeliMobilGue.co.id,Misc,-6.1832793,106.9786616,"Jl. Komp. Ruko Boulevard Blok c No.16, Harapan Indah, Kota Bks, Pejuang, Medan Satria, Bekasi City, West Java 17131, Indonesia","['car_repair', 'point_of_interest', 'establishment']"
BeliMobilGue.co.id,Misc,-6.1624539,106.8234325,"Jl. Batu Ceper No.59, RT.15/RW.1, Kb. Klp., Kec. Gambir, Kota Jakarta Pusat, Daerah Khusus Ibukota Jakarta 10120, Indonesia","['car_repair', 'point_of_interest', 'establishment']"
BeliMobilGue.co.id,Misc,-6.194945,106.724693,"Jl. Raden Saleh Blok 10 No.25, RT.5/RW.1, Meruya Utara, Kec. Kembangan, Jakarta, Daerah Khusus Ibukota Jakarta 15157, Indonesia","['car_repair', 'point_of_interest', 'establishment']"
BeliMobilGue.co.id,Misc,-6.2426204,106.6213419,"Kelapa Dua, Tangerang, Banten 15810, Indonesia","['car_repair', 'point_of_interest', 'establishment']"
BeliMobilGue.co.id,Misc,-6.2883506,106.8180431,"Jl. Ampera Raya No.4, Cilandak Tim., Kec. Ps. Minggu, Kota Jakarta Selatan, Daerah Khusus Ibukota Jakarta 12560, Indonesia","['point_of_interest', 'establishment']"
Bengawan Motor Volvo,Volvo,-6.248349,106.847587,"Jl. Pancoran Timur VIII No.1, RT.5/RW.8, Pengadegan, Kec. Pancoran, Kota Jakarta Selatan, Daerah Khusus Ibukota Jakarta 12770, Indonesia","['car_repair', 'point_of_interest', 'establishment']"
Bengkel 7 Umum dan Spesialis,Misc,-6.250245,107.065046,"Jalan Kali Baru yapink rt 005 rw 02 no 3, Jl. Mangunjaya, Mangunjaya, Kec. Tambun Sel., Bekasi, Jawa Barat 17510, Indonesia","['car_repair', 'point_of_interest', 'establishment']"
Bengkel ABM Opel/Chevrolet,Chevrolet,-6.3701735,107.1136043,"Jl. Mbah Kilong No.1, Sukadami, Cikarang Pusat, Sukadami, Kec. Cikarang Pusat, Bekasi, Jawa Barat 17530, Indonesia","['car_repair', 'point_of_interest', 'establishment']"
Bengkel Alternatif Nissan Datsun,Nissan/Datsun,-6.204074,106.0789852,"Pabuaran, Serang, Banten 42163, Indonesia","['store', 'point_of_interest', 'establishment']"
Bengkel Auto Clinic (Kresna Mitra Asuransi Tbk.),Misc,-6.1895573,106.8848139,"Jl. Bangunan Barat No.2, RT.1/RW.4, Kayu Putih, Kec. Pulo Gadung, Kota Jakarta Timur, Daerah Khusus Ibukota Jakarta 13210, Indonesia","['car_repair', 'point_of_interest', 'establishment']"
Bengkel AUTOFRESH,Misc,-6.3453798,106.8148223,"Jl. Mohamad Kafi II No.8, Kelurahan Cipedak, Kecamatan Jagakarsa, RT.2/RW.5, Cipedak, Jakarta Selatan, Kota Jakarta Selatan, Daerah Khusus Ibukota Jakarta 12630, Indonesia","['car_repair', 'point_of_interest', 'establishment']"
Bengkel BAW,Misc,-6.1996812,106.7688801,"Jl. B No.17, RT.4/RW.1, Kb. Jeruk, Kec. Kb. Jeruk, Kota Jakarta Barat, Daerah Khusus Ibukota Jakarta 11530, Indonesia","['car_repair', 'point_of_interest', 'establishment']"
Bengkel BMW Cibubur,BMW,-6.4011635,106.9373542,"Jl. Letda Natsir No.18, Cikeas Udik, Kec. Gn. Putri, Bogor, Jawa Barat 16966, Indonesia","['car_dealer', 'store', 'point_of_interest', 'establishment']"
Bengkel Chevrolet,Chevrolet,-6.5804173,106.8183243,"Achmad Adnawijaya Street No.17-42, Tegal Gundil, North Bogor, Bogor City, West Java 16152, Indonesia","['car_repair', 'point_of_interest', 'establishment']"
BENGKEL CHEVROLET - MULAND MOTOR,Chevrolet,-6.331814,107.176214,"Jayamukti, Central Cikarang, Bekasi, West Java 17530, Indonesia","['car_repair', 'point_of_interest', 'establishment']"
Bengkel Fatih Motor,Misc,-6.2243643,106.5541076,"Jl. Raya Serang No.55, RT.1/RW.2, Bunder, Kec. Cikupa, Tangerang, Banten 15710, Indonesia","['car_repair', 'point_of_interest', 'establishment']"
Bengkel Ford Kota Tangerang,Ford,-6.1898487,106.6420029,"Jl. Jenderal Sudirman No.89, Babakan, Kec. Tangerang, Kota Tangerang, Banten 15118, Indonesia","['car_repair', 'point_of_interest', 'establishment']"
Bengkel Ketok Magic Ary Motor,Misc,-6.2582674,106.8624654,"Jl. Raya Kalibata No.56, RT.2/RW.7, Cililitan, Kec. Kramat jati, Kota Jakarta Timur, Daerah Khusus Ibukota Jakarta 13630, Indonesia","['car_repair', 'point_of_interest', 'establishment']"
Bengkel Kita BSD,Misc,-6.3168077,106.700542,"Jalan Masjid Ciater Kp. Maruga RT 04 RW 009 Serpong BSD Banten, Ciater, Kec. Serpong, Kota Tangerang Selatan, Banten 15317, Indonesia","['car_repair', 'point_of_interest', 'establishment']"
Bengkel Las dan Mobil GadingSerpong SMS AJA,Misc,-6.243345,106.6196453,"Jl. Boulevard Raya Gading Serpong, Klp. Dua, Kec. Klp. Dua, Tangerang, Banten 15810, Indonesia","['car_repair', 'point_of_interest', 'establishment']"
Bengkel Metropolitan,Misc,-6.3744345,106.8321238,"Jl. Margonda Raya No.335, Kemiri Muka, Kec. Beji, Kota Depok, Jawa Barat 16421, Indonesia","['car_repair', 'point_of_interest', 'establishment']"
Bengkel Mobil - Sinar Surya,Misc,-6.1904971,106.8377547,"Samping Bank Mega, Jl. Cikini 2 No.2, RT.13/RW.5, Cikini, Kec. Menteng, Kota Jakarta Pusat, Daerah Khusus Ibukota Jakarta 10330, Indonesia","['car_repair', 'point_of_interest', 'establishment']"
Bengkel Mobil 24 Jam GALAXY CIKARANG “Rian Lamborghini”,Lamborghini,-6.255286,107.157187,"Jl. Ki Hajar Dewantara, Karangasih, Kec. Cikarang Utara, Bekasi, Jawa Barat 17530, Indonesia","['car_repair', 'home_goods_store', 'store', 'point_of_interest', 'establishment']"
Bengkel Mobil BOS Bintaro,Misc,-6.275658,106.762904,"Jalan RC Veteran Nomor 19, Kelurahan Bintaro, Kecamatan Pesanggrahan, RT.4/RW.7, Bintaro, Pesanggrahan, RT.4/RW.7, Bintaro, Kec. Pesanggrahan, Kota Jakarta Selatan, Daerah Khusus Ibukota Jakarta 12330, Indonesia","['car_wash', 'car_repair', 'store', 'point_of_interest', 'establishment']"
Bengkel Mobil BOS BSD,Misc,-6.3055346,106.6696253,"Jl. Kp., Cilenggang, Kec. Serpong, Kota Tangerang Selatan, Banten 15310, Indonesia","['car_repair', 'point_of_interest', 'establishment']"
Bengkel Mobil BOS Cibubur,Misc,-6.3889907,106.9454,"Jl. Alternatif Cibubur, Nagrak, Kec. Gn. Putri, Bogor, Jawa Barat 16967, Indonesia","['car_repair', 'point_of_interest', 'establishment']"
Bengkel Mobil BOS Ciledug,Misc,-6.2361854,106.7465705,"Jalan Bahagia Nomor 5 Rt 003 Rw 02 Kreo Selatan Larangan, Petukangan Utara, Pesanggrahan, RT.1, Petukangan Utara, Kec. Pesanggrahan, Kota Tangerang, Banten 15156, Indonesia","['car_repair', 'store', 'point_of_interest', 'establishment']"
Bengkel Mobil BOS Kavling DKI,Misc,-6.1920066,106.7248685,"Jl. Meruya Utara Blok Marjuki No.25, RT.1/RW.11, Meruya Utara, Kec. Kembangan, Kota Jakarta Barat, Daerah Khusus Ibukota Jakarta 11620, Indonesia","['car_repair', 'point_of_interest', 'establishment']"
Bengkel Mobil BOS Kedoya,Misc,-6.183121,106.767828,"Jalan Panjang Nomor 28, Kedoya Selatan, Kebon Jeruk, RT.7/RW.1, Kedoya Sel., Kec. Kb. Jeruk, Kota Jakarta Barat, Daerah Khusus Ibukota Jakarta 11520, Indonesia","['car_wash', 'car_repair', 'point_of_interest', 'establishment']"
Bengkel Mobil Budi Laksana Motor,Misc,-6.6523673,106.9084184,"Jl. Raya Puncak - Cianjur No.77, Cilember, Kec. Cisarua, Bogor, Jawa Barat 16750, Indonesia","['car_repair', 'point_of_interest', 'establishment']"
Bengkel mobil Om Noto,Misc,-6.2488246,106.5747736,"Gg. Keong Ronyok, Suka Bakti, Kec. Curug, Tangerang, Banten 15810, Indonesia","['car_repair', 'point_of_interest', 'establishment']"
Bengkel Mobil Oscar Autocars,Misc,-6.254492,106.619625,"Jl. Desa Curug Tgr. No.69, Curug Sangereng, Kec. Klp. Dua, Tangerang, Banten 15810, Indonesia","['car_repair', 'point_of_interest', 'establishment']"
bengkel mobil specialis volvo,Volvo,-6.372228,106.857541,"jl kramat benda ry no 9 taman duta cisalak depok blkg giant cimanggis, Tugu, Kec. Cimanggis, Kota Depok, Jawa Barat 16418, Indonesia","['car_repair', 'point_of_interest', 'establishment']"
Bengkel Mobilku (Honda Specialist),Honda,-6.2693078,106.8310617,"no., Jl. Warung Jati Barat Blok Darul Muslimin No.2, RT.4/RW.5, Kalibata, Kec. Pancoran, Kota Jakarta Selatan, Daerah Khusus Ibukota Jakarta 12740, Indonesia","['car_repair', 'point_of_interest', 'establishment']"
Bengkel Motor,Misc,-6.2334045,106.8441777,"Jl. Prof. DR. Soepomo No.6, RT.1/RW.2, Menteng Dalam, Kec. Tebet, Kota Jakarta Selatan, Daerah Khusus Ibukota Jakarta 12870, Indonesia","['car_repair', 'point_of_interest', 'establishment']"
"Bengkel Motor "" Motorworld "" Tangerang",Misc,-6.18494,106.634681,"No. (Kapling), Jl. Kh. Soleh Ali No.111, Sukasari, Kec. Tangerang, Kota Tangerang, Banten 15118, Indonesia","['car_repair', 'point_of_interest', 'establishment']"
Bengkel Motor Fatih,Misc,-6.2246413,106.5543409,"Jl.Raya Serang km.10,5 No.6, Jl. Kp. Kadu Suka Mulya No.Ds, Bunder, Kec. Cikupa, Tangerang, Banten 15710, Indonesia","['car_repair', 'point_of_interest', 'establishment']"
BENGKEL OPEL CHEVROLET,Chevrolet,-6.3711418,106.8828592,"Jl. Radar Auri No.23, Cisalak Ps., Kec. Cimanggis, Kota Depok, Jawa Barat 16452, Indonesia","['car_repair', 'point_of_interest', 'establishment']"
Bengkel Opel Chevrolet Depok Pandit Jaya Motor (PJM),Chevrolet,-6.3863564,106.844335,"Jl. Waru Jaya No.133A, RT.08/RW.21, Mekar Jaya, Kec. Sukmajaya, Kota Depok, Jawa Barat 16411, Indonesia","['car_repair', 'point_of_interest', 'establishment']"
Bengkel Pak Mani,Misc,-6.1941312,106.949387,"B, Jl. Pulau Sangiyang No.3, RT.4/RW.5, Pulo Gebang, Kec. Cakung, Kota Jakarta Timur, Daerah Khusus Ibukota Jakarta 13950, Indonesia","['car_repair', 'point_of_interest', 'establishment']"
Bengkel Peugeot,Peugeot,-6.3215853,106.924004,"Jl. Raya Hankam, RW.4, Jatimurni, Kec. Pd. Melati, Kota Bks, Jawa Barat 17431, Indonesia","['car_dealer', 'car_repair', 'store', 'point_of_interest', 'establishment']"
Bengkel primatama,Misc,-6.1889824,106.7743514,"Jl. Kb. Jeruk Baru No.17, RT.8/RW.8, Kb. Jeruk, Kec. Kb. Jeruk, Kota Jakarta Barat, Daerah Khusus Ibukota Jakarta 11530, Indonesia","['car_repair', 'point_of_interest', 'establishment']"
Bengkel Quattro,Misc,-6.30955,106.8138,"Jl. Cilandak KKO No.1 A RT.014/08, Cilandak Ragunan, RT.1/RW.7, Ragunan, Pasar Minggu, South Jakarta City, Jakarta 12550, Indonesia","['car_dealer', 'car_repair', 'store', 'point_of_interest', 'establishment']"
Bengkel Setya Jaya Motor,Misc,-6.269062,106.911804,"Jl. Raya Jatiwaringin No.45, RW.3, Jaticempaka, Kec. Pondokgede, Kota Bks, Jawa Barat 17411, Indonesia","['car_repair', 'point_of_interest', 'establishment']"
Bengkel Subur Jaya 3,Misc,-6.377376,107.1675455,"No.3500 kp tembong gunung ds, Jl. Warung Ampel, Sukamahi, Kec. Cikarang Pusat, Bekasi, Jawa Barat 17530, Indonesia","['car_repair', 'point_of_interest', 'establishment']"
Bengkel Tigawe Lamindo,Misc,-6.5744439,106.8082472,"Padjadjaran Road No.91, Bantarjati, North Bogor, Bogor City, West Java 16153, Indonesia","['car_repair', 'point_of_interest', 'establishment']"
Bengkel VOLVO,Volvo,-6.3002291,106.8275089,"Jl. Kebagusan No.80, RT.6/RW.1, Kebagusan, Kec. Ps. Minggu, Kota Jakarta Selatan, Daerah Khusus Ibukota Jakarta 12520, Indonesia","['car_repair', 'point_of_interest', 'establishment']"
Bengkel Volvo,Volvo,-6.3847742,106.8270649,"Jl. Kedondong 1 No.50, Kemiri Muka, Kec. Beji, Kota Depok, Jawa Barat 16423, Indonesia","['car_repair', 'point_of_interest', 'establishment']"
Bengkel Yamaha,Misc,-6.2148688,106.8789878,"Gg. Nangka No.150, RT.8/RW.13, Cipinang Besar Utara, Kecamatan Jatinegara, Kota Jakarta Timur, Daerah Khusus Ibukota Jakarta 13410, Indonesia","['car_repair', 'point_of_interest', 'establishment']"
Berkah Putera Khatulistiwa Powder Coating,Misc,-6.2301464,106.5120663,"Jl. Padat Karya No.19, Sukamulya, Kec. Cikupa, Tangerang, Banten 15710, Indonesia","['point_of_interest', 'establishment']"
Bmw,BMW,-6.2365126,106.9751973,"Jl. Fajar Utama No.6, Jakasampurna, Kec. Bekasi Bar., Kota Bks, Jawa Barat 17145, Indonesia","['car_dealer', 'store', 'point_of_interest', 'establishment']"
BMW Astra Pluit,BMW,-6.1256816,106.7980931,"Jl. Pluit Selatan Raya No.8A, RT.3/RW.8, Pluit, Kec. Penjaringan, Kota Jkt Utara, Daerah Khusus Ibukota Jakarta 14450, Indonesia","['car_dealer', 'store', 'point_of_interest', 'establishment']"
BMW Astra Serpong,BMW,-6.2874063,106.6386177,"Astra Biz Center No. 11A, Jl. BSD Raya Utama, BSD City, Serpong, Lengkong Kulon, Kec. Pagedangan, Tangerang, Banten 15331, Indonesia","['car_dealer', 'store', 'point_of_interest', 'establishment']"
BMW ASTRA TB.SIMATUPANG,BMW,-6.292564,106.789755,"Jl. R.A.Kartini No.KAV.203, RT.11/RW.4, Cilandak Bar., Kec. Cilandak, DKI JAKARTA, Daerah Khusus Ibukota Jakarta 12430, Indonesia","['car_dealer', 'store', 'point_of_interest', 'establishment']"
BMW BOGOR ( Business Counsulthant ),BMW,-6.184895,106.82277,"Indosurya Plaza, Jl. M.H. Thamrin No.8, RT.2/RW.1, Kb. Sirih, Kec. Menteng, Kota Jakarta Pusat, Daerah Khusus Ibukota Jakarta 10230, Indonesia","['car_dealer', 'store', 'point_of_interest', 'establishment']"
BMW Eurokars - Kebon Jeruk,BMW,-6.1920792,106.7686528,"Jl. Panjang No.6, RT.11/RW.10, Kb. Jeruk, Jakarta Barat, Kota Jakarta Barat, Daerah Khusus Ibukota Jakarta 11530, Indonesia","['car_dealer', 'store', 'point_of_interest', 'establishment']"
BMW Eurokars (duplicate) - Kebon Jeruk,BMW,-6.192092,106.768619,"Jalan Panjang Raya, RT.11/RW.10, Kebon Jeruk, RT.11/RW.10, Kb. Jeruk, Jakarta Barat, Kota Jakarta Barat, Daerah Khusus Ibukota Jakarta 11530, Indonesia","['car_dealer', 'store', 'point_of_interest', 'establishment']"
BMW Motorrad Indonesia Flagship Store,BMW,-6.2928148,106.7992232,"Jl. TB Simatupang No.100, RT.10/RW.2, Cilandak Bar., Kec. Cilandak, Kota Jakarta Selatan, Daerah Khusus Ibukota Jakarta 12430, Indonesia","['store', 'point_of_interest', 'establishment']"
BMW Thamrin,BMW,-6.1981227,106.8228722,"Tanah, Gedung Indosurya Plaza, Jl. M.H. Thamrin No.8-9, RT.5/RW.1, Kb. Melati, Kec. Tanah Abang, Kota Jakarta Pusat, Daerah Khusus Ibukota Jakarta 10230, Indonesia","['car_dealer', 'store', 'point_of_interest', 'establishment']"
BMW Thamrin - PT Artha Motor Lestari,BMW,-6.198461,106.822867,"Jalan MH Thamrin No 8, RT.5/RW.1, Kb. Melati, Kota Jakarta Pusat, Daerah Khusus Ibukota Jakarta 10230, Indonesia","['car_dealer', 'store', 'point_of_interest', 'establishment']"
BMW Tunas Bekasi,BMW,-6.226157,107.003612,"AXC Summarecon Bekasi Jalan Bulevar Timur Blok VA No. 9 - 10 Summarecon Bekasi, Marga Mulya, Kec. Bekasi Utara, Kota Bks, Jawa Barat 17143, Indonesia","['car_dealer', 'store', 'point_of_interest', 'establishment']"
BMW Tunas Hayam Wuruk,BMW,-6.1587022,106.8191852,"Hayam Wuruk Sreet No.51, RT.7/RW.7, Maphar, Taman Sari, West Jakarta City, Jakarta 11160, Indonesia","['car_dealer', 'store', 'point_of_interest', 'establishment']"
BMW Tunas Tebet,BMW,-6.2303314,106.8463702,"Jl. Prof. DR. Soepomo No.174, RT.1/RW.15, Menteng Dalam, Kec. Tebet, Kota Jakarta Selatan, Daerah Khusus Ibukota Jakarta 12870, Indonesia","['car_dealer', 'store', 'point_of_interest', 'establishment']"
BMW Tunas Tomang,BMW,-6.177598,106.7987653,"Jl. Tomang Raya No.19, RT.1/RW.1, Tomang, Kec. Grogol petamburan, Kota Jakarta Barat, Daerah Khusus Ibukota Jakarta 11440, Indonesia","['car_dealer', 'store', 'point_of_interest', 'establishment']"
Body Repair @ BTC Bintaro Jaya,Misc,-6.279504,106.721639,"Ps. Modern Bintaro Jaya, Bintaro Trade Centre, Pd. Jaya, Kec. Pd. Aren, Kota Tangerang Selatan, Banten 15224, Indonesia","['car_repair', 'point_of_interest', 'establishment']"
BPM Autowork - Specialist Proton Service - Om Dino,Misc,-6.2358107,107.0471514,"Jl. Permata X, Karangsatria, Kec. Tambun Utara, Bekasi, Jawa Barat 17510, Indonesia","['car_repair', 'point_of_interest', 'establishment']"
BUTIK OLI MOBIL,Misc,-6.1463144,106.8970491,"Jl.Boulevard Artha Gading Blok A7A No.1, RT.18/RW.8, Klp. Gading Bar., Kec. Klp. Gading, Kota Jkt Utara, Daerah Khusus Ibukota Jakarta 14240, Indonesia","['car_repair', 'point_of_interest', 'establishment']"
BV |VOLVO GARAGE|,Volvo,-6.222305,106.962256,"Blok OO1 No., Jl. Bintara Pradana No.9, Bintara, Bekasi Barat, Bekasi City, West Java 17134, Indonesia","['car_repair', 'store', 'point_of_interest', 'establishment']"
Cadas Jagat Raya. PT,Misc,-6.142335,106.584953,"Kawasan Industri Mekar JayaJL. Karet Jaya Raya Km 7, Tangerang, 15124, Lebak Wangi, Sepatan Timur, Karet, Kec. Sepatan, Tangerang, Banten 15520, Indonesia","['painter', 'point_of_interest', 'establishment']"
CAK'I MOTOR ALTERNATIF SPESIALIS NISSAN DATSUN,Nissan/Datsun,-6.2262403,106.9388708,"Jl. Mawar Merah II No.17, RT.8/RW.1, Pd. Kopi, Kec. Duren Sawit, Kota Jakarta Timur, Daerah Khusus Ibukota Jakarta 13460, Indonesia","['car_repair', 'point_of_interest', 'establishment']"
Cakra Adi Mandiri Bogor,Misc,-6.5764012,106.8077862,"Padjadjaran Road No.230, Bantarjati, North Bogor, Bogor City, West Java 16128, Indonesia","['car_dealer', 'store', 'point_of_interest', 'establishment']"
Car Repair & Truck | Jaya Perkasa Motor,Misc,-6.1848,106.944591,"Jalan Raya Bekasi 23.5 No 8, km Blok KM No.18, RT.2/RW.2, Cakung Tim., Kec. Cakung, DKI Jakarta, Daerah Khusus Ibukota Jakarta 13910, Indonesia","['car_repair', 'point_of_interest', 'establishment']"
Cartens® Autosound And Installation,Misc,-6.2634791,106.7996396,"Pusat Niaga Duta Mas Fatmawati Rukan Blok D2 No.22 Jl. Fatmawati Cipete Kebayoran Baru, RT.1/RW.5, Cipete Utara, Kec. Kby. Baru, Kota Jakarta Selatan, Daerah Khusus Ibukota Jakarta 12140, Indonesia","['electronics_store', 'home_goods_store', 'car_repair', 'store', 'point_of_interest', 'establishment']"
CAT building - BKN,Misc,-6.2582151,106.8692088,"Jl. Mayor Jendral Sutoyo No.12, RT.4/RW.14, Cililitan, Kec. Kramat jati, Kota Jakarta Timur, Daerah Khusus Ibukota Jakarta 13640, Indonesia","['point_of_interest', 'establishment']"
Chevrolet,Chevrolet,-6.252269,106.865307,"Chevrolet Sandjungan, Jl. Dewi Sartika No.295, RT.4/RW.5, Cawang, Kec. Kramat jati, Kota Jakarta Timur, Daerah Khusus Ibukota Jakarta 13630, Indonesia","['car_dealer', 'store', 'point_of_interest', 'establishment']"
Chevrolet,Chevrolet,-6.3727359,106.8331012,"Jl. Margonda Raya No.356, Samping, Margo City, Kota Depok, Jawa Barat 16424, Indonesia","['car_dealer', 'store', 'point_of_interest', 'establishment']"
Chevrolet AK Putera Bintaro Jaya,Chevrolet,-6.2728425,106.6985868,"Parigi Baru, Pondok Aren, South Tangerang City, Banten 15228, Indonesia","['car_repair', 'point_of_interest', 'establishment']"
Chevrolet Automotive Display,Chevrolet,-6.2228078,106.6521453,"Jl. Jalur Sutera Bar. No.16, Panunggangan Tim., Kec. Pinang, Kota Tangerang, Banten 15143, Indonesia","['car_dealer', 'store', 'point_of_interest', 'establishment']"
Chevrolet bintaro,Chevrolet,-6.2699989,106.6969285,"Jl. CBD blok CE No B-03, Parigi, Kec. Pd. Aren, Jakarta, Daerah Khusus Ibukota Jakarta 15227, Indonesia","['car_dealer', 'store', 'point_of_interest', 'establishment']"
Chevrolet Bintaro,Chevrolet,-6.2730181,106.6985921,"Jl. CBD Blok CE No. B-03 Perigi Lama Pondok Aren Parigi Pondok Aren Tangerang Selatan Banten 15227 ID, Jl. Emerald Boulevard, Parigi, Pondok Aren, South Tangerang City, Banten 15227, Indonesia","['car_dealer', 'store', 'point_of_interest', 'establishment']"
Chevrolet Cinere,Chevrolet,-6.3385225,106.7803098,"Cinere, Depok City, West Java 16514, Indonesia","['car_dealer', 'store', 'point_of_interest', 'establishment']"
Chevrolet Jakarta Kebon Jeruk (PT. Sun Motor Jakarta),Chevrolet,-6.196725,106.76862,"Jl. Panjang No.1A, RT.4/RW.10, Kb. Jeruk, Kec. Kb. Jeruk, Jakarta, Daerah Khusus Ibukota Jakarta 11530, Indonesia","['car_dealer', 'store', 'point_of_interest', 'establishment']"
Chevrolet Kencana Motor (KENMOT),Chevrolet,-6.30086,106.957266,"Jl. Wibawa Mukti II No.6, Jatiasih, Kec. Jatiasih, Kota Bks, Jawa Barat 17423, Indonesia","['car_repair', 'store', 'point_of_interest', 'establishment']"
Chevrolet MT Haryono,Chevrolet,-6.2425799,106.8572811,"RT.8/RW.9, East Tebet, Tebet, South Jakarta City, Jakarta 12820, Indonesia","['car_dealer', 'store', 'point_of_interest', 'establishment']"
CHEVROLET NUSANTARA CIBUBUR,Chevrolet,-6.3825215,106.9269809,"Jl. Alternatif Cibubur No.22, Cibubur, Kec. Jatisampurna, Kota Bks, Daerah Khusus Ibukota Jakarta 17435, Indonesia","['car_dealer', 'store', 'point_of_interest', 'establishment']"
Chevrolet Trax,Chevrolet,-6.259432,106.6529549,"chevrolet prima Serpong, Jl. Raya Serpong Sebrang RS Ashobirin No.23, Pondok Jagung, North Serpong, South Tangerang City, Banten 16423, Indonesia","['car_dealer', 'store', 'point_of_interest', 'establishment']"
Citra Bangun Buana Prima. PT,Misc,-6.208181,106.627808,"JL. MH Thamrin, Km 7 Blok E/19, Kawasan Bangun Multiguna, Tangerang, 15111, Cikokol, Tangerang, Tangerang City, Banten 15117, Indonesia","['point_of_interest', 'establishment']"
Citra Ford Jakarta Timur,Ford,-6.2304523,106.9221113,"Jl. Pendidikan Raya Blok K No.174, RT.5/RW.14, Duren Sawit, Kec. Duren Sawit, Kota Jakarta Timur, Daerah Khusus Ibukota Jakarta 13440, Indonesia","['car_repair', 'point_of_interest', 'establishment']"
Citra Ford Service,Ford,-6.2316567,106.9217521,"Jl. Pendidikan Raya Blk. K No.173, RT.5/RW.14, Duren Sawit, Kec. Duren Sawit, Kota Jakarta Timur, Daerah Khusus Ibukota Jakarta 13440, Indonesia","['car_repair', 'point_of_interest', 'establishment']"
Cuci Mobil,Misc,-6.3087323,107.1494339,"Pasirsari, South Cikarang, Bekasi, West Java 17530, Indonesia","['gas_station', 'point_of_interest', 'establishment']"
Cuci Mobil Kelapa Gading,Misc,-6.1469997,106.8966835,"RT.18/RW.8, West Kelapa Gading, Kelapa Gading, North Jakarta City, Jakarta 14240, Indonesia","['gas_station', 'point_of_interest', 'establishment']"
CV Nuur Muhgnii Jaya (NMJ Powder Coating),Misc,-6.2303103,106.5427529,"Bitung Jaya, Cikupa, Tangerang, Banten 15710, Indonesia","['point_of_interest', 'establishment']"
CV.Persatuan Putra Mandiri,Misc,-6.1494909,106.8978652,"Ruko gading bukit indah blok SA 31, RT.18/RW.8, Klp. Gading Bar., Jakarta, Kota Jkt Utara, Daerah Khusus Ibukota Jakarta 14240, Indonesia","['car_dealer', 'store', 'point_of_interest', 'establishment']"
Daffa Mini Motor,Misc,-6.332985,106.637064,"Jalan Raya Cisauk Kavling Bermis B4 RT. 007 RW. 004, Cisauk, Kec. Cisauk, Tangerang, Banten 15341, Indonesia","['store', 'point_of_interest', 'establishment']"
Datsun,Nissan/Datsun,-6.2789453,107.1676478,"Jalan Lemah Abang Raya No. 207, Cibarusah, Cikarang, Simpangan, Kec. Cikarang Utara, Bekasi, Jawa Barat 17530, Indonesia","['car_dealer', 'store', 'point_of_interest', 'establishment']"
Datsun,Nissan/Datsun,-6.3856877,106.8284576,"Jl. Margonda Raya, RT.2/RW.15, Kemiri Muka, Kec. Beji, Kota Depok, Jawa Barat 16423, Indonesia","['car_dealer', 'store', 'point_of_interest', 'establishment']"
Datsun,Nissan/Datsun,-6.315955,106.7065463,"Ruko Beranda Serpong No 06 Serua, Jl. Ciater Raya, Serua, Kec. Ciputat, Kota Tangerang Selatan, Banten 15310, Indonesia","['car_dealer', 'store', 'point_of_interest', 'establishment']"
Datsun,Nissan/Datsun,-6.3834274,105.8357276,"Sukamaju, Labuan, Pandeglang Regency, Banten 42264, Indonesia","['car_dealer', 'store', 'point_of_interest', 'establishment']"
Datsun Gading Serpong,Nissan/Datsun,-6.248491,106.6264618,"Jl. Gading Serpong Boulevard No.M5-18, Curug Sangereng, Kec. Klp. Dua, Tangerang, Banten 15810, Indonesia","['car_repair', 'point_of_interest', 'establishment']"
Datsun Galuga,Nissan/Datsun,-6.579045,106.6414994,"Jl. Raya Leuwiliang, Cemplang, Cibungbulang, Bogor, Jawa Barat 16630, Indonesia","['point_of_interest', 'establishment']"
"DATSUN GO PANCA, GO PLUS, GO CROSS Tanya Promo, Harga & Paket Kredit",Nissan/Datsun,-6.183868,106.974673,"Harapan Indah Boulevard, Kav. Commercial Park I No.9E, Medan Satria, Kecamatan Medan Satria, Kota Bks, Jawa Barat 17132, Indonesia","['car_dealer', 'store', 'point_of_interest', 'establishment']"
"Datsun Karawang 3S ( Sales, Service & Sparepart )",Nissan/Datsun,-6.323843,107.272815,"Jl Interchange Tol Karawang Barat, Kampung Pintu Air Wadas, Wadas, Telukjambe Timur, Karawang Regency, West Java 41361, Indonesia","['car_dealer', 'store', 'point_of_interest', 'establishment']"
Datsun Leuwiliang,Nissan/Datsun,-6.5739203,106.6326192,"Leuwiliang, Bogor, West Java 16640, Indonesia","['car_dealer', 'store', 'point_of_interest', 'establishment']"
Datsun Leuwiliang - Yasmin,Nissan/Datsun,-6.5725604,106.629171,"No., Jl. Raya Leuwiliang No.47, Leuwiliang, Bogor, Jawa Barat 16640, Indonesia","['car_dealer', 'store', 'point_of_interest', 'establishment']"
Datsun Pamulang ( Nissan Bintaro ),Nissan/Datsun,-6.272004,106.714442,"Bintaro Jaya, Jl. HR Rasuna Said, Pd. Jaya, Kec. Pd. Aren, Kota Tangerang Selatan, Banten 15414, Indonesia","['car_dealer', 'store', 'point_of_interest', 'establishment']"
Daya Toyota,Toyota,-6.192849,106.970638,"Jl. Raya Bekasi KM 26.5 Kel. Ujung Menteng Kec. Cakung, RT.7/RW.5, Medan Satria, Kecamatan Medan Satria, Kota Jakarta Timur, Daerah Khusus Ibukota Jakarta 13960, Indonesia","['car_dealer', 'store', 'point_of_interest', 'establishment']"
Dealer & Service Peugeot Scooters,Peugeot,-6.2731151,106.7450694,"Jl. Bintaro Utama 3A, Pd. Karya, Kec. Pd. Aren, Kota Tangerang Selatan, Banten 15221, Indonesia","['store', 'point_of_interest', 'establishment']"
Dealer & Service Peugeot Scooters,Peugeot,-6.2731364,106.7450463,"Jl. Bintaro Utama 3 Blok AM No.40, Pd. Betung, Kec. Pd. Aren, Kota Tangerang Selatan, Banten 15221, Indonesia","['store', 'point_of_interest', 'establishment']"
Dealer BMW Jakarta,BMW,-6.1983309,106.8227869,"Gedung Indosurya Plaza Lantai Dasar, Jl. MH. Thamrin No. 8-9, RT.4/RW.9, Kebon Melati, Tanah Abang, RT.5, RT.5/RW.1, 1, Kb. Melati, Kec. Tanah Abang, Kota Jakarta Pusat, Daerah Khusus Ibukota Jakarta 10230, Indonesia","['car_dealer', 'store', 'point_of_interest', 'establishment']"
Dealer CHEVROLET,Chevrolet,-6.3759619,106.9129593,"Jatikarya, Jatisampurna, Bekasi City, West Java 17435, Indonesia","['car_dealer', 'store', 'point_of_interest', 'establishment']"
Dealer Chevrolet Cibubur ( Divisi Sales ),Chevrolet,-6.375798,106.913044,"Khusus Ibukota Jakarta, Jl. Alternatif Cibubur KM 2 No.22 Jatikarya Jatisampurna Kota Bekasi Daerah, Jatikarya, Kec. Jatisampurna, Kota Bks, Jawa Barat 17435, Indonesia","['car_dealer', 'store', 'point_of_interest', 'establishment']"
Dealer Chevrolet Jakarta Andalan Pondok Indah,Chevrolet,-6.2407931,106.7830582,"Jl. Sultan Iskandar Muda No.8-9, RT.3/RW.2, Kby. Lama Utara, Kec. Kby. Lama, Kota Jakarta Selatan, Daerah Khusus Ibukota Jakarta 12240, Indonesia","['car_dealer', 'store', 'point_of_interest', 'establishment']"
"Dealer Datsun, BSD CITY",Nissan/Datsun,-6.292268,106.6656516,"Jl. Pahlawan Seribu No.5, Lengkong Gudang, Kec. Serpong, Kota Tangerang Selatan, Banten 15310, Indonesia","['store', 'point_of_interest', 'establishment']"
Dealer Honda Hasta Mandiri,Honda,-6.1398637,106.2899354,"Jl. Raya Serang - Jkt No.15, Kragilan, Kec. Kragilan, Serang, Banten 42184, Indonesia","['car_dealer', 'store', 'point_of_interest', 'establishment']"
Dealer Maserati,Misc,-6.2414102,106.7823102,"Jl. Sultan Iskandar Muda No.51, RT.6/RW.3, Kby. Lama Utara, Kec. Kby. Lama, Kota Jakarta Selatan, Daerah Khusus Ibukota Jakarta 12430, Indonesia","['car_dealer', 'store', 'point_of_interest', 'establishment']"
Dealer Mercedes Benz Jakarta,Mercedes-Benz,-6.2183453,106.8162282,"Jl. Jend. Sudirman No.5, RT.5/RW.4, Karet Semanggi, Setia Budi, Kota Jakarta Selatan, Daerah Khusus Ibukota Jakarta 12930, Indonesia","['car_dealer', 'store', 'point_of_interest', 'establishment']"
Dealer Mercedes Benz Kuningan,Mercedes-Benz,-6.224679,106.831578,"Jl. Denpasar Raya No.Kav. 12, RT.7/RW.4, Kuningan, Karet Kuningan, Kuningan, Kota Jakarta Selatan, Daerah Khusus Ibukota Jakarta 12940, Indonesia","['car_dealer', 'store', 'point_of_interest', 'establishment']"
Dealer Mercedes-Benz,Mercedes-Benz,-6.242459,106.824152,"Jl. Mampang Prpt. Raya No.68-69 13 1, RT.13/RW.1, Mampang Prpt., Kec. Mampang Prpt., Kota Jakarta Selatan, Daerah Khusus Ibukota Jakarta 12790, Indonesia","['car_dealer', 'store', 'point_of_interest', 'establishment']"
Dealer Mercedes-Benz Bintaro,Mercedes-Benz,-6.274544,106.7090205,"Showroom mercedes Benz Car Di ruko, Jl. Boulevard Bintaro Jaya. Pondok Aren Tangerang Selatan Ruko Kebayoran Arcade 5. Blok KA S3 - 6, Pd. Pucung, Kec. Pd. Aren, Kota Tangerang Selatan, Banten 15220, Indonesia","['car_dealer', 'store', 'point_of_interest', 'establishment']"
Dealer mitsubishi,Mitsubishi,-6.2517716,106.781253,"Jl. Sultan Iskandar Muda No.28-29, RT.8/RW.1, Kby. Lama Sel., Kec. Kby. Lama, Kota Jakarta Selatan, Daerah Khusus Ibukota Jakarta 12240, Indonesia","['car_dealer', 'store', 'point_of_interest', 'establishment']"
dealer Mitsubishi Jakarta,Mitsubishi,-6.2490599,106.7809394,"Jl. Sultan Iskandar Muda No.28-29, RT.2/RW.1, Kby. Lama Sel., jakarta selatan, Kota Jakarta Selatan, Daerah Khusus Ibukota Jakarta 12240, Indonesia","['car_dealer', 'store', 'point_of_interest', 'establishment']"
Dealer Mitsubishi Kelapa Gading,Mitsubishi,-6.1638107,106.9098072,"Al Azhar, Komp. Ruko Graha Boulevard Blok NC 1 No 29 Seberang, RT.1/RW.12, Pegangsaan Dua, Kec. Klp. Gading, Kota Jkt Utara, Daerah Khusus Ibukota Jakarta 14250, Indonesia","['car_dealer', 'store', 'point_of_interest', 'establishment']"
Dealer Mobil Audi MT haryono,Misc,-6.2425402,106.8630534,"Jl. Letjen MT Haryono Kav. 8 Bidaracina Jatinegara Jakarta Timur DKI Jakarta, RW.6, Kampung Melayu, Jatinegara, RW.6, Kp. Melayu, Kecamatan Jatinegara, Kota Jakarta Timur, Daerah Khusus Ibukota Jakarta 13330, Indonesia","['car_dealer', 'store', 'point_of_interest', 'establishment']"
Dealer Mobil Peugeot Lebak Bulus,Peugeot,-6.2926882,106.7894774,"Jl. Letjen TB Simatupang No. 10 Lebak Bulus Cilandak Jakarta Selatan DKI Jakarta, RT.11/RW.4, Cilandak Bar., Kec. Cilandak, Kota Jakarta Selatan, Daerah Khusus Ibukota Jakarta 12430, Indonesia","['car_dealer', 'store', 'point_of_interest', 'establishment']"
Dealer Motor HONDA PT.Pacific Motor 1,Honda,-6.2625557,107.1408916,"Jl. RE. Martadinata No.3, Karangbaru, Kec. Cikarang Utara, Bekasi, Jawa Barat 17530, Indonesia","['car_dealer', 'store', 'point_of_interest', 'establishment']"
Dealer Nissan Datsun Jakarta,Nissan/Datsun,-6.2847407,106.7958034,"Jl. RS. Fatmawati Raya No.60, RT.1/RW.10, Cilandak Bar., Kec. Cilandak, DKI JAKARTA, Daerah Khusus Ibukota Jakarta 12430, Indonesia","['car_dealer', 'store', 'point_of_interest', 'establishment']"
Dealer Nissan Datsun Jakarta Timur,Nissan/Datsun,-6.390079,106.947298,"Jl. Alt Cibubur Legenda Wisata, Cibubur km 7,5, Nagrak, Kec. Gn. Putri, Jakarta, DKI Jakarta 16966, Indonesia","['car_dealer', 'store', 'point_of_interest', 'establishment']"
Dealer Peugeot,Peugeot,-6.2310929,106.6594335,"Alam Sutera, Jalan Jalur Sutera, Pakualam, Tangerang Selatan, Kota Tangerang Selatan, Banten 15143, Indonesia","['car_dealer', 'store', 'point_of_interest', 'establishment']"
DEALER RESMI MERCEDES-BENZ JAKARTA,Mercedes-Benz,-6.2428055,106.8609985,"JL Jl. Letjen M.T. Haryono No.KAV 5-6, RT.1/RW.14, Kb. Baru, Kec. Tebet, Kota Jakarta Selatan, Daerah Khusus Ibukota Jakarta 12820, Indonesia","['car_dealer', 'store', 'point_of_interest', 'establishment']"
Dealer Resmi Wuling Motor,Wuling,-6.2776552,106.9921358,"Blok Haji Keoi Jl. Raya Siliwangi No.28, Bojong Rawalumbu, Kec. Rawalumbu, Kota Bks, Jawa Barat 17116, Indonesia","['point_of_interest', 'establishment']"
Dealer Toyota Jakarta Pusat,Toyota,-6.2059639,106.8214328,"Showroom Toyota, Jl. Jend. Sudirman Kav.3-4 Wisma Keiai Kav.3 Lt.1, RT.10/RW.11, Karet Tengsin, Kec. Tanah Abang, Kota Jakarta Pusat, Daerah Khusus Ibukota Jakarta 10220, Indonesia","['car_dealer', 'store', 'point_of_interest', 'establishment']"
Dealer Volkswagen Jakarta,Volkswagen,-6.2426327,106.8631118,"Wisma Indomobil 1 LT 3, Jl. Letjen Mt. Haryono, RW.6, Cawang, Kecamatan Jatinegara, Kota Jakarta Timur, Daerah Khusus Ibukota Jakarta 13330, Indonesia","['car_dealer', 'store', 'point_of_interest', 'establishment']"
Dealer VW Indomobil tower,VW,-6.2427597,106.8644732,"Wisma Indomobil, Jl. Letjen M.T. Haryono No.Kav.11, RW.6, Kp. Melayu, Kecamatan Jatinegara, Jakarta, Daerah Khusus Ibukota Jakarta 13330, Indonesia","['car_dealer', 'store', 'point_of_interest', 'establishment']"
Dealer VW MT Haryono,VW,-6.2426962,106.8630328,"Wisma Indomobil, RW.6, Kp. Melayu, Kecamatan Jatinegara, Kota Jakarta Timur, Daerah Khusus Ibukota Jakarta 13330, Indonesia","['car_dealer', 'store', 'point_of_interest', 'establishment']"
Dealer Wuling Jakarta Barat,Wuling,-6.1221,106.731762,"Jl. Lkr. Luar Barat No.129, RT.10/RW.2, Cengkareng Bar., Kecamatan Cengkareng, Kota Jakarta Barat, Daerah Khusus Ibukota Jakarta 11730, Indonesia","['car_dealer', 'car_repair', 'store', 'point_of_interest', 'establishment']"
Dealer wuling jakarta(Penjualan),Wuling,-6.1395919,106.8195526,"Jl. Pangeran Jayakarta No.33, RT.1/RW.3, Taman Sari, Kec. Taman Sari, Jakarta, Daerah Khusus Ibukota Jakarta 11110, Indonesia","['car_dealer', 'store', 'point_of_interest', 'establishment']"
Dealer Wuling Kelapa Gading (3s),Wuling,-6.1741732,106.8969888,"Jalan boulevard Raya blok DG Kelapa gading,Jakarta utara, Daerah khusus ibukota Jakarta 14240, RT.4/RW.17, Klp. Gading Tim., Kec. Klp. Gading, Kota Jkt Utara, Daerah Khusus Ibukota Jakarta 14240, Indonesia","['point_of_interest', 'establishment']"
DEKA MOTOR spesialis PEUGEOT,Peugeot,-6.2256206,106.9474679,"Jl. Malaka Baru No.24, Bintara, Kec. Bekasi Bar., Kota Bks, Jawa Barat 13460, Indonesia","['car_repair', 'point_of_interest', 'establishment']"
DEON PROMO BMW JAKARTA,BMW,-6.292631,106.7898435,"Jl. R.A.Kartini No.Kav 203, RT.11/RW.4, Cilandak Bar., Kec. Cilandak, Kota Jakarta Selatan, Daerah Khusus Ibukota Jakarta 12430, Indonesia","['car_dealer', 'store', 'point_of_interest', 'establishment']"
Distro Motor Mini,Misc,-6.348408,106.73543,"Jl. Dr. Setiabudi No.24, RT.01/RW.04, Pamulang Bar., Kec. Pamulang, Kota Tangerang Selatan, Banten 15417, Indonesia","['store', 'point_of_interest', 'establishment']"
Dokter MOBIL BEKASI,Misc,-6.248925,106.937012,"Blok G9 No.7, Service, Mobil, Jl. Inspeksi Kalimalang, RT.2/RW.11, Pd. Klp., Kec. Duren Sawit, Kota Jakarta Timur, Daerah Khusus Ibukota Jakarta 13450, Indonesia","['electronics_store', 'car_repair', 'store', 'point_of_interest', 'establishment']"
Dokter Mobil Serpong,Misc,-6.244479,106.6261006,"RUKO Paramount Dotcom Blok Orange No. 5 Jl. CBD, Pakulonan Bar., Kec. Klp. Dua, Kota Tangerang, Banten 15810, Indonesia","['home_goods_store', 'car_repair', 'store', 'point_of_interest', 'establishment']"
Endang Volvo Car Service,Volvo,-6.5616463,106.825307,"Jl. Ciluar Asri Blok A No.C4-02, Ciluar, Kec. Bogor Utara, Kota Bogor, Jawa Barat 16156, Indonesia","['car_repair', 'point_of_interest', 'establishment']"
"Engine Block Autoworks, Peugeot Specialist",Peugeot,-6.271982,106.710093,"No, Jl. Camat Pd. Aren No.28, Pondok Jaya, Pondok Aren, South Tangerang City, Banten 15229, Indonesia","['car_repair', 'point_of_interest', 'establishment']"
"EPOXY COATING , PT.SATYA DIAN PRATAMA",Misc,-6.284807,106.76471,"Jl. Mawar I No.14, RT.2/RW.14, Bintaro, Kec. Pesanggrahan, Jakarta, Daerah Khusus Ibukota Jakarta 12330, Indonesia","['point_of_interest', 'establishment']"
"EYNA MOTOR, Spesialis Ford",Ford,-6.291527,106.739777,"Jl. Menjangan No.50, Pd. Ranji, Kec. Ciputat Tim., Kota Tangerang Selatan, Banten 15412, Indonesia","['car_repair', 'point_of_interest', 'establishment']"
FAS Ford Auto Solution and C'fas cafe,Ford,-6.3008333,106.764201,"Jl. Gn. Raya No.53, Cireundeu, Kec. Ciputat Tim., Kota Tangerang Selatan, Banten 15419, Indonesia","['car_repair', 'point_of_interest', 'establishment']"
Ferari Jok & Car Interior,Misc,-6.3866033,106.9383534,"Unnamed Road, Nagrak, Gunung Putri, Bogor, West Java 16967, Indonesia","['store', 'point_of_interest', 'establishment']"
Ferrari Audio,Ferrari,-6.3457561,106.2343968,"Jl. Soekarno Hatta No.17, Kaduagung Tim., Cibadak, Kabupaten Lebak, Banten 42317, Indonesia","['electronics_store', 'store', 'point_of_interest', 'establishment']"
FERRARI Audio & Variasi,Ferrari,-6.2549623,106.619588,"Kompleks Bursa Mobil Summarecon blok H no. 9, Curug Sangereng, Kec. Klp. Dua, Tangerang, Banten 15810, Indonesia","['electronics_store', 'store', 'point_of_interest', 'establishment']"
Ferrari Cellular,Ferrari,-6.129312,106.899172,"1 No., Jl. Alur Laut No.8, RT.1/RW.3, Rawabadak Sel., Jakarta Utara, DKI Jakarta, Daerah Khusus Ibukota Jakarta 14230, Indonesia","['store', 'point_of_interest', 'establishment']"
Ferrari Jakarta,Ferrari,-6.2638968,106.7826428,"Jl. Kartika Utama, RT.1/RW.16, Pd. Pinang, Kec. Kby. Lama, Kota Jakarta Selatan, Daerah Khusus Ibukota Jakarta 12310, Indonesia","['point_of_interest', 'establishment']"
Ferrari Jakarta Showroom,Ferrari,-6.2919748,106.7964021,"Wisma MRA Lantai Dasar, Jalan Tb. Simatupang No.19, Cilandak Barat, Cilandak, RT.7/RW.9, Cilandak Bar., Kec. Cilandak, Kota Jakarta Selatan, Daerah Khusus Ibukota Jakarta 12430, Indonesia","['car_dealer', 'store', 'point_of_interest', 'establishment']"
Ferrari Kalimulya Residence,Ferrari,-6.4250841,106.8243142,"Jl. Mandor Dami 2, Kalimulya, Kec. Cilodong, Kota Depok, Jawa Barat 16413, Indonesia","['point_of_interest', 'establishment']"
Ferrari Motor,Ferrari,-6.122278,106.1724553,"Jl. KH Abdul Fatah Hasan, Sumurpecung, Kec. Serang, Kota Serang, Banten 42118, Indonesia","['car_repair', 'point_of_interest', 'establishment']"
Ferrari Oil,Ferrari,-6.204004,106.71553,"Jalan Raya Raden Saleh Nomor 49 Depan Komplek Permata 1, Kelurahan Karang Mulya Kecamatan Karang Tengah, Karang Mulya, Kec. Karang Tengah, Tanggerang, Banten 15157, Indonesia","['car_repair', 'point_of_interest', 'establishment']"
Ford Bekasi Jatibening,Ford,-6.2612009,106.944484,"Jl. Jati Bening II No. 9 - 10, Jatibening, Pondok Gede, Jatibening, Kec. Pondokgede, Kota Bks, Jawa Barat 17412, Indonesia","['car_dealer', 'car_repair', 'store', 'point_of_interest', 'establishment']"
Ford Motor Indonesia,Ford,-6.2425402,106.8630534,"Jl. Letjen MT Haryono Kav. 8 Bidaracina Jatinegara Jakarta Timur DKI Jakarta, RW.6, Kp. Melayu, Kecamatan Jatinegara, Kota Jakarta Timur, Daerah Khusus Ibukota Jakarta 13330, Indonesia","['store', 'point_of_interest', 'establishment']"
Ford Nusantara Service,Ford,-6.2715551,106.9940368,"Sepanjang Jaya, Rawalumbu, Sepanjang Jaya, Kota Bks, Jawa Barat 17114, Indonesia","['car_repair', 'point_of_interest', 'establishment']"
Ford Pluit,Ford,-6.120895,106.7913677,"Jl.pluit putra, Jl. Pluit Utara Raya No.15, RT.13/RW.6, Pluit, Kec. Penjaringan, Kota Jkt Utara, Daerah Khusus Ibukota Jakarta 14450, Indonesia","['car_dealer', 'store', 'point_of_interest', 'establishment']"
Ford Sahabat,Ford,-6.332957,106.784618,"Pasar Segar Cinere Blok OAB No. 16, JL. Bukit Cinere, No. 145, Cinere, Kec. Cinere, Kota Depok, Jawa Barat 16514, Indonesia","['car_repair', 'store', 'point_of_interest', 'establishment']"
Formula Specialist & Body Repair,Misc,-6.1824912,106.982876,"Jl. Harapan Indah Raya, Pejuang, Kecamatan Medan Satria, Bekasi, Jawa Barat 17131, Indonesia","['car_repair', 'point_of_interest', 'establishment']"
Forte Auto spesialis nissan datsun,Nissan/Datsun,-6.3469641,106.7564015,"Pondok Cabe Udik, Pamulang, South Tangerang City, Banten 15418, Indonesia","['car_repair', 'point_of_interest', 'establishment']"
Forte Auto spesialis nissan datsun,Nissan/Datsun,-6.3469598,106.7564232,"Pondok Cabe Udik, Pamulang, South Tangerang City, Banten 15418, Indonesia","['point_of_interest', 'establishment']"
Forte Auto spesialis Nissan Datsun,Nissan/Datsun,-6.34696,106.756423,"Pondok Cabe Udik, Pamulang, South Tangerang City, Banten 15418, Indonesia","['point_of_interest', 'establishment']"
Foxlogger GPS Tracker Pelacak Kendaraan,Misc,-6.1434436,106.8301595,"Ruko, 46 Blok B Kompleks, Jl. Pangeran Jayakarta Dalam No.18, RT.7/RW.7, Mangga Dua Sel., Kec. Kemayoran, Kota Jakarta Pusat, Daerah Khusus Ibukota Jakarta 10730, Indonesia","['car_repair', 'store', 'point_of_interest', 'establishment']"
Garasi kav.56 Auto Body Repair & Paint,Misc,-6.2496465,106.7417938,"Jl. Caraka Utama No.56, Cipadu Jaya, Kec. Larangan, Kota Tangerang, Banten 15155, Indonesia","['car_repair', 'point_of_interest', 'establishment']"
Gedung Hyundai Indonesia,Hyundai,-6.2320901,106.7879645,"Jl. Teuku Nyak Arief No.14, RT.4/RW.2, Grogol Sel., Kec. Kby. Lama, Kota Jakarta Selatan, Daerah Khusus Ibukota Jakarta 12220, Indonesia","['car_dealer', 'store', 'point_of_interest', 'establishment']"
Gedung Proton,Misc,-6.2236724,106.8664924,"RT.1/RW.3, Bali Mester, Jatinegara, East Jakarta City, Jakarta 13310, Indonesia","['point_of_interest', 'establishment']"
GGKars Garasi Gempol Karawangs (Spesialis Opel - Chevrolet),Chevrolet,-6.3046334,107.2869018,"Gg. Masjid Albarkah, Sukamakmur, Kec. Telukjambe Tim., Kabupaten Karawang, Jawa Barat 41361, Indonesia","['car_repair', 'point_of_interest', 'establishment']"
GSA COATING SYSTEM,Misc,-6.4708085,106.8594261,"Jl. KH. Nawawi No.24, RT.1/RW.1, Cirimekar, Cibinong, Bogor, Jawa Barat 16917, Indonesia","['store', 'point_of_interest', 'establishment']"
GT Auto Bekasi,Misc,-6.2430104,106.9685565,"Jl. Sekolah No.59, Jakasampurna, Kec. Bekasi Bar., Kota Bks, Jawa Barat 17145, Indonesia","['car_repair', 'point_of_interest', 'establishment']"
Haji Agus / Vicki Causar Volvo,Volvo,-6.2687479,106.8445827,"Jl. H. Noor No.10, RT.14/RW.1, Pejaten Bar., Kec. Ps. Minggu, Kota Jakarta Selatan, Daerah Khusus Ibukota Jakarta 12510, Indonesia","['car_repair', 'point_of_interest', 'establishment']"
Hanggar Body Repair,Misc,-6.5443401,106.7734157,"Jl. Sholeh Iskandar KM.4 No.3, Cibadak, Kec. Tanah Sereal, Kota Bogor, Jawa Barat 16166, Indonesia","['car_repair', 'point_of_interest', 'establishment']"
Hariko Satutama,Misc,-6.1907612,106.7503087,"Jl. Puri Kencana, RT.11/RW.7, Kembangan Sel., Kec. Kembangan, Kota Jakarta Barat, Daerah Khusus Ibukota Jakarta 11610, Indonesia","['point_of_interest', 'establishment']"
Hobbies Motor Mini,Misc,-6.2535332,106.7895207,"Komplek Yado 1, Jalan Haji Sajim No. 2, RT02/02, Radio Dalam, RT.7, Gandaria Utara, Kec. Kby. Baru, Kota Jakarta Selatan, Daerah Khusus Ibukota Jakarta 12140, Indonesia","['store', 'point_of_interest', 'establishment']"
Honda,Honda,-6.193449,106.7684198,"Jalan Panjang No.200, Kebon Jeruk, RT.11/RW.10, Kb. Jeruk, Kec. Kb. Jeruk, Kota Jakarta Barat, Daerah Khusus Ibukota Jakarta 11530, Indonesia","['car_dealer', 'car_repair', 'store', 'point_of_interest', 'establishment']"
Honda,Honda,-6.2399148,106.8185722,"Jl. Kapten Tendean No.8, RT.1/RW.1, Pela Mampang, Kec. Mampang Prpt., Kota Jakarta Selatan, Daerah Khusus Ibukota Jakarta 12720, Indonesia","['car_dealer', 'car_repair', 'store', 'point_of_interest', 'establishment']"
Honda,Honda,-6.1708505,106.5959129,"Jl. Raya Villa Tangerang Indah, Gebang Raya, Kec. Periuk, Kota Tangerang, Banten 15132, Indonesia","['car_dealer', 'store', 'point_of_interest', 'establishment']"
Honda,Honda,-6.4189012,106.7956441,"Jl. Raya Meruyung, Cipayung, Kec. Cipayung, Kota Depok, Jawa Barat 16442, Indonesia","['car_dealer', 'store', 'point_of_interest', 'establishment']"
Honda,Honda,-6.318009,106.9859423,"Jl. Narogong Raya No.24, RT.3/RW.7, Bantargebang, Kota Bks, Jawa Barat 17151, Indonesia","['car_dealer', 'store', 'point_of_interest', 'establishment']"
Honda,Honda,-6.3437052,106.7325679,"Jl. Siliwangi, Pamulang Bar., Kec. Pamulang, Kota Tangerang Selatan, Banten 15417, Indonesia","['car_dealer', 'store', 'point_of_interest', 'establishment']"
Honda Auto Serang,Honda,-6.0949612,106.1332884,"Jl. Raya Cilegon No.517, Drangong, Kec. Taktakan, Kota Serang, Banten 42162, Indonesia","['car_dealer', 'store', 'point_of_interest', 'establishment']"
Honda Bintaro,Honda,-6.2769685,106.7230491,"Pondok Jaya, Pondok Aren, South Tangerang City, Banten 15220, Indonesia","['car_dealer', 'car_repair', 'store', 'point_of_interest', 'establishment']"
Honda Dealer Graha Surya,Honda,-6.2437861,106.8256657,"Jalan Mampang Prapatan Raya No. 25, RT.04 / RW.06, Mampang Prapatan, RT.4/RW.6, Mampang Prpt., Kec. Mampang Prpt., Kota Jakarta Selatan, Daerah Khusus Ibukota Jakarta 12790, Indonesia","['car_dealer', 'store', 'point_of_interest', 'establishment']"
Honda Fatmawati,Honda,-6.2785497,106.797904,"Jl. RS. Fatmawati Raya No.21, RT.5/RW.4, Cipete Sel., Kec. Cilandak, Kota Jakarta Selatan, Daerah Khusus Ibukota Jakarta 12410, Indonesia","['car_dealer', 'store', 'point_of_interest', 'establishment']"
Honda Kedoya,Honda,-6.1884807,106.7622024,"Jl. Kedoya Alkamal No.12, RT.9/RW.4, Kedoya Sel., Kec. Kb. Jeruk, Kota Jakarta Barat, Daerah Khusus Ibukota Jakarta 11520, Indonesia","['car_dealer', 'store', 'point_of_interest', 'establishment']"
Honda Kumala Purwakarta,Honda,-6.5568193,107.4362228,"Jl. A Yani 165, RT.10/RW.03, cipaisan, purwakarta, Cipaisan, Purwakarta Sub-District, Purwakarta Regency, West Java 41113, Indonesia","['car_dealer', 'store', 'point_of_interest', 'establishment']"
Honda Megah Cinere (PT. Setianita Megah Motor),Honda,-6.3467443,106.776568,"Gedung Honda Cinere Jl. Cinere Raya No. 88, Cinere, Depok, Jawa Barat, Cinere, Kec. Cinere, Jakarta Selatan, Daerah Khusus Ibukota Jakarta 16514, Indonesia","['car_dealer', 'store', 'point_of_interest', 'establishment']"
Honda Motor,Honda,-6.3339276,106.6389073,"Cibogo, Cisauk, Tangerang, Banten 15344, Indonesia","['car_dealer', 'store', 'point_of_interest', 'establishment']"
Honda Motorcycle Dealer,Honda,-6.1617401,106.6221959,"Tanah Tinggi, Jl. Daan Mogot Km-23 No.36 E - F, Ps. Baru, Kec. Karawaci, Kota Tangerang, Banten 15119, Indonesia","['car_dealer', 'store', 'point_of_interest', 'establishment']"
Honda Permata Serpong,Honda,-6.2470635,106.6256463,"Jl. Boulevard Gading Serpong CBD Lot. 1, Gading Serpong, Curug Sangereng, Tangerang, Banten 15810, Indonesia","['car_dealer', 'car_repair', 'store', 'point_of_interest', 'establishment']"
Honda Union Serpong,Honda,-6.2534709,106.6513353,"Jl. Raya Serpong No.KM.10, Pd. Jagung, Kec. Serpong Utara, Kota Tangerang Selatan, Banten 15326, Indonesia","['car_dealer', 'car_repair', 'store', 'point_of_interest', 'establishment']"
Honda Union Tangerang,Honda,-6.1955577,106.6371728,"Jl. Hartono Raya, RT.02/RW.05, Babakan, Tangerang, Babakan, Kec. Tangerang, Kota Tangerang, Banten 15117, Indonesia","['car_dealer', 'store', 'point_of_interest', 'establishment']"
Hra Car Repair,Misc,-6.2638595,106.791696,"No 15 Kebayoran Baru, Jl. H. Nawi Raya No.1A, RT.7/RW.7, Gandaria Utara, Kec. Kby. Baru, DKI Jakarta, Daerah Khusus Ibukota Jakarta 12140, Indonesia","['car_repair', 'point_of_interest', 'establishment']"
Hyundai Arti Industrial Service. PT,Hyundai,-6.337521,107.134252,"Bekasi International Industrial Estate Blok C-8/1, RW.2, Cibatu, Cikarang Sel., Bekasi, Jawa Barat 17530, Indonesia","['car_dealer', 'store', 'point_of_interest', 'establishment']"
Hyundai Cibubur,Hyundai,-6.3797289,106.923044,"Jalan Alternatif Cibubur No.25, Jatisampurna, Kec. Jatisampurna, Kota Bks, Jawa Barat 13720, Indonesia","['car_dealer', 'store', 'point_of_interest', 'establishment']"
Hyundai Cilandak,Hyundai,-6.3081513,106.780928,"Jalan Karang Tengah Raya No.11D, RT.2/RW.3, Lb. Bulus, Kec. Cilandak, Kota Jakarta Selatan, Daerah Khusus Ibukota Jakarta 12440, Indonesia","['car_dealer', 'store', 'point_of_interest', 'establishment']"
Hyundai Inkopal Kelapa Gading,Hyundai,-6.1555041,106.8953214,"Jl. Boulevard Bukit Gading Raya No.1, RT.15/RW.3, Klp. Gading Bar., Kec. Klp. Gading, Kota Jkt Utara, Daerah Khusus Ibukota Jakarta 14240, Indonesia","['car_dealer', 'store', 'point_of_interest', 'establishment']"
"hyundai Kalimalang, showroom Hyundai Bekasi",Hyundai,-6.2477694,106.9288964,"Jl.Raya Kalimalang Komp.Billy & Moon Blok M1 No.1A, RT.2/RW.10, Pondok Kelapa, Duren Sawit, RT.2/RW.10, Pd. Klp., Kec. Duren Sawit, Kota Jakarta Timur, Daerah Khusus Ibukota Jakarta 13450, Indonesia","['car_dealer', 'store', 'point_of_interest', 'establishment']"
Hyundai Margonda Depok,Hyundai,-6.372927,106.833071,"Jl. Margonda Raya No.358, Kemiri Muka, Kec. Beji, Kota Depok, Jawa Barat 16423, Indonesia","['car_dealer', 'store', 'point_of_interest', 'establishment']"
Hyundai Mobil Alam Sutera,Hyundai,-6.2325366,106.6600848,"Pakualam, North Serpong, South Tangerang City, Banten 15320, Indonesia","['car_dealer', 'store', 'point_of_interest', 'establishment']"
HYUNDAI MOBIL BEKASI,Hyundai,-6.2094219,106.9702804,"Jl. Wahab Affan No.2, Medan Satria, Kecamatan Medan Satria, Kota Bks, Jawa Barat 17132, Indonesia","['car_dealer', 'store', 'point_of_interest', 'establishment']"
Hyundai Mobil Indonesia. PT,Hyundai,-6.3156185,106.6629092,"Jl. Raya Serpong KM.7 No.32, Serpong, Kec. Serpong, Kota Tangerang Selatan, Banten 15156, Indonesia","['car_dealer', 'store', 'point_of_interest', 'establishment']"
Hyundai Mobil Kalimalang Jakarta Timur,Hyundai,-6.2477833,106.9288639,"Komplek Perumahan Billy & Moon M1/1A, Jl. Raya Kalimalang, Pondok Kelapa, Duren Sawit, RT.2/RW.10, Pd. Klp., Kec. Duren Sawit, Kota Jakarta Timur, Daerah Khusus Ibukota Jakarta 13450, Indonesia","['car_dealer', 'store', 'point_of_interest', 'establishment']"
Hyundai Pasar Minggu,Hyundai,-6.2458051,106.8431129,"Jalan Raya Pasar Minggu No.7, Pancoran, RT.7/RW.9, Pancoran, Kec. Pancoran, Kota Jakarta Selatan, Daerah Khusus Ibukota Jakarta 12780, Indonesia","['car_dealer', 'store', 'point_of_interest', 'establishment']"
Hyundai Pluit,Hyundai,-6.1115408,106.7786616,"Jl. Pluit Karang Utara No.26, RT.20/RW.2, Pluit, Kec. Penjaringan, Kota Jkt Utara, Daerah Khusus Ibukota Jakarta 14450, Indonesia","['car_dealer', 'store', 'point_of_interest', 'establishment']"
HYUNDAI PUSAT [ Simprug ],Hyundai,-6.2321163,106.7880651,"Jl. Teuku Nyak Arief No.14, RT.4/RW.2, Grogol Sel., Kec. Kby. Lama, Kota Jakarta Selatan, Daerah Khusus Ibukota Jakarta 12220, Indonesia","['car_dealer', 'store', 'point_of_interest', 'establishment']"
Hyundai Serpong,Hyundai,-6.2328402,106.6427525,"Jalan Raya Serpong KM.7 No.32, Pakualam, Serpong Utara, Pakualam, Kec. Serpong Utara, Tangerang, Banten 15312, Indonesia","['car_dealer', 'store', 'point_of_interest', 'establishment']"
Hyundai showroom and workshop in Ciputat,Hyundai,-6.2958928,106.7650858,"Jl. Ir H. Juanda No.76, RT.7/RW.2, Rempoa, Kec. Ciputat Tim., Kota Tangerang Selatan, Banten 15412, Indonesia","['car_dealer', 'store', 'point_of_interest', 'establishment']"
HYUNDAI SIMPRUG [ Hyundai Pusat ] Promo Hyundai | Harga Hyundai | Dealer Hyundai,Hyundai,-6.2321163,106.7880651,"Jl. Teuku Nyak Arief No.14, RT.4/RW.2, Grogol Sel., Kec. Kby. Lama, Kota Jakarta Selatan, Daerah Khusus Ibukota Jakarta 12220, Indonesia","['car_dealer', 'store', 'point_of_interest', 'establishment']"
Hyundai Sunter,Hyundai,-6.1312179,106.8554925,"Jl. Danau Sunter Barat Blok A1-A2 No. 7, Tanjung Priok, RT.2/RW.7, Sunter Agung, Tj. Priok, Kota Jkt Utara, Daerah Khusus Ibukota Jakarta 14350, Indonesia","['car_dealer', 'car_repair', 'store', 'point_of_interest', 'establishment']"
Indoderco Semesta Raya,Misc,-6.2495771,106.4984272,"Jl. Milenium 9 Blok E2 No. 26-27, Peusar, Kec. Panongan, Tangerang, Banten 15710, Indonesia","['point_of_interest', 'establishment']"
Indomobil Datsun,Nissan/Datsun,-6.2906487,106.7831973,"Jl. Term. Simatupang, RT.6/RW.14, Pd. Pinang, Kec. Kby. Lama, Kota Jakarta Selatan, Daerah Khusus Ibukota Jakarta 12310, Indonesia","['car_dealer', 'store', 'point_of_interest', 'establishment']"
Indomobil Nisan - Datsun Dealer Jakarta,Nissan/Datsun,-6.2061412,106.7699137,"Jl. Panjang Arteri Klp. Dua Raya No.30, RT.2/RW.2, Klp. Dua, Kec. Kb. Jeruk, Kota Jakarta Barat, Daerah Khusus Ibukota Jakarta 11550, Indonesia","['car_dealer', 'store', 'point_of_interest', 'establishment']"
Indomobil Nissan Datsun Ancol,Nissan/Datsun,-6.1225171,106.8157471,"Kota Tua, Jl. Ancol Barat VII No.2, RT.02/RW.1, Ancol, Kec. Pademangan, Kota Jkt Utara, Daerah Khusus Ibukota Jakarta 14430, Indonesia","['car_dealer', 'store', 'point_of_interest', 'establishment']"
Indomobil Nissan Datsun Batu Ceper,Nissan/Datsun,-6.1623779,106.8244328,"Jl. Batu Ceper No.32, RT.1/RW.2, Kb. Klp., Jakarta Pusat, Kota Jakarta Pusat, Daerah Khusus Ibukota Jakarta 10120, Indonesia","['car_dealer', 'store', 'point_of_interest', 'establishment']"
Indomobil Nissan Datsun Bintaro,Nissan/Datsun,-6.2751002,106.7181887,"Bintaro Jaya Cbd, Jl. Rasuna Said Kav. A-5, Jl. Sektor VII No.11, Pondok Jaya, Pondok Aren, South Tangerang City, Banten 15220, Indonesia","['car_dealer', 'store', 'point_of_interest', 'establishment']"
Indomobil Nissan Datsun Bogor Pajajaran,Nissan/Datsun,-6.5834322,106.8059063,"Jalan Pajajaran No. 55 Babakan, Bantarjati, Kec. Bogor Utara, Kota Bogor, Jawa Barat 16143, Indonesia","['car_dealer', 'store', 'point_of_interest', 'establishment']"
Indomobil Nissan Datsun Cibubur,Nissan/Datsun,-6.390453,106.94999,"Raya Alternatif Cibubur Km 7 Cibubur, Nagrak, Gunung Putri, Bogor, West Java 16967, Indonesia","['car_dealer', 'store', 'point_of_interest', 'establishment']"
Indomobil Nissan Datsun Cikarang,Nissan/Datsun,-6.3327121,107.1496136,"Jl. Muhammad Haji Thamrin Kav. 200B, Cibatu, Cikarang Sel., Bekasi, Jawa Barat 17530, Indonesia","['car_dealer', 'store', 'point_of_interest', 'establishment']"
Indomobil Nissan Datsun Cimone,Nissan/Datsun,-6.1841221,106.6191924,"Pabuaran, Kelapa Dua, Jl. Raya Merdeka No.2/125, Cimone Jaya, Karawaci Sub-District, Tangerang City, Banten 15114, Indonesia","['car_dealer', 'store', 'point_of_interest', 'establishment']"
Indomobil Nissan Datsun Cinere,Nissan/Datsun,-6.3530708,106.7763232,"Jl. Limo Raya No.kav. 95, Meruyung, Kec. Limo, Kota Depok, Jawa Barat 16515, Indonesia","['car_dealer', 'store', 'point_of_interest', 'establishment']"
Indomobil Nissan Datsun Depok Margonda,Nissan/Datsun,-6.385955,106.828159,"Jl. Margonda Raya No.191 - 193, Kemiri Muka, Kec. Beji, Kota Depok, Jawa Barat 16423, Indonesia","['car_dealer', 'store', 'point_of_interest', 'establishment']"
Indomobil Nissan Datsun Gading Serpong,Nissan/Datsun,-6.2486193,106.6265125,"Blok M 5 No. 22, Jl. Gading Serpong Boulevard No.23, Curug Sangereng, Kec. Klp. Dua, Tangerang, Banten 15810, Indonesia","['car_dealer', 'store', 'point_of_interest', 'establishment']"
Indomobil Nissan Datsun Harapan Indah,Nissan/Datsun,-6.1836305,106.9745981,"Jalan Harapan Indah Bulevard, Kav Commercial Park I No.9E, Kota Harapan Indah, Medan Satria, Bekasi City, West Java 17132, Indonesia","['car_dealer', 'store', 'point_of_interest', 'establishment']"
Indomobil Nissan Datsun Jakarta Pos Pengumben,Nissan/Datsun,-6.2190866,106.7665339,"Jl. Pahlawan No.81, RT.3/RW.5, Sukabumi Sel., Kec. Kb. Jeruk, Kota Jakarta Barat, Daerah Khusus Ibukota Jakarta 11560, Indonesia","['car_dealer', 'store', 'point_of_interest', 'establishment']"
Indomobil Nissan Datsun Jakarta Warung Buncit,Nissan/Datsun,-6.282466,106.827665,"Jl. Warung Jati Barat No.34, RT.2/RW.5, Jati Padang, Jakarta Selatan, Kota Jakarta Selatan, Daerah Khusus Ibukota Jakarta 12540, Indonesia","['car_dealer', 'store', 'point_of_interest', 'establishment']"
Indomobil Nissan Datsun Jatake,Nissan/Datsun,-6.2053971,106.5704105,"Jl. Gatot Subroto KM. 8 Jatake, Manis Jaya, Jatiuwung, Tangerang City, Banten 15136, Indonesia","['car_dealer', 'store', 'point_of_interest', 'establishment']"
Indomobil Nissan Datsun MT Haryono,Nissan/Datsun,-6.2427641,106.8640437,"Wisma Indomobil, Jl. Letjen Mt. Haryono No.3, RW.6, Kampung Melayu, Jatinegara, East Jakarta City, Jakarta 13330, Indonesia","['car_dealer', 'store', 'point_of_interest', 'establishment']"
Indomobil Nissan Datsun Pluit,Nissan/Datsun,-6.1254545,106.7972736,"Raya No. Penjaringan Jalan Pluit Selatan No.8, RT.1/RW.9, Penjaringan, Kec. Penjaringan, DKI Jakarta, Daerah Khusus Ibukota Jakarta 14440, Indonesia","['car_dealer', 'store', 'point_of_interest', 'establishment']"
Indomobil Nissan Datsun Puri Indah,Nissan/Datsun,-6.1862132,106.7312962,"Jl. KOMP Puri Indah Blok R, No.1, RT.1/RW.2, South Kembangan, Kembangan, West Jakarta City, Jakarta 11610, Indonesia","['car_dealer', 'store', 'point_of_interest', 'establishment']"
Indomobil Nissan Datsun Radin Inten,Nissan/Datsun,-6.2252084,106.9230049,"Jl. Raden Inten II No.18, RT.7/RW.10, Duren Sawit, East Jakarta City, Jakarta 13440, Indonesia","['car_dealer', 'store', 'point_of_interest', 'establishment']"
Indomobil Nissan Datsun Sunter,Nissan/Datsun,-6.1441911,106.883217,"Jl. Danau Sunter Selatan Blok O3 No.53-54 Sunter Jaya Tanjung Priok RT.10/RW.11 Sunter Jaya Tanjung Priok RT.10/RW.11 Sunter Jaya Tanjung Priok RT.10, RT.10/RW.11, Sunter Jaya, Sunt, North Jakarta City, Jakarta 14350, Indonesia","['car_dealer', 'store', 'point_of_interest', 'establishment']"
Indomobil Nissan Datsun TB Simatupang,Nissan/Datsun,-6.290783,106.783135,"Jl. R.A.Kartini No.RT.6, RT.6/RW.14, Pd. Pinang, Kec. Kby. Lama, Kota Jakarta Selatan, Daerah Khusus Ibukota Jakarta 12310, Indonesia","['car_dealer', 'store', 'point_of_interest', 'establishment']"
INDOMOBIL NISSAN DATSUN YASMIN BOGOR,Nissan/Datsun,-6.5572722,106.7717467,"Jalan KH. Raden, Jl. KH. R. Abdullah Bin Nuh, RT.02/RW.03, Curugmekar, West Bogor, Bogor City, West Java 16113, Indonesia","['car_dealer', 'store', 'point_of_interest', 'establishment']"
INDONESIA AUDI JAKARTA,Misc,-6.1585279,106.8414835,"Jalan Angkasa No.18bd, RT.1/RW.2, Gn. Sahari Sel., Kec. Kemayoran, Kota Jakarta Pusat, Daerah Khusus Ibukota Jakarta 11610, Indonesia","['car_dealer', 'store', 'point_of_interest', 'establishment']"
Irwan Audi Santoso,Misc,-6.293938,106.825268,"Jl. R.A.Kartini Jl. TB Simatupang No.Kav 14, RT.7/RW.4, Jati Padang, Kec. Ps. Minggu, Kota Jakarta Selatan, Daerah Khusus Ibukota Jakarta 12430, Indonesia","['car_dealer', 'store', 'point_of_interest', 'establishment']"
Jaco Jaya Sejahtera,Misc,-6.096777,106.669768,"Belimbing, Kosambi, Tangerang, Banten 15212, Indonesia","['point_of_interest', 'establishment']"
Jago Powder coating & Sandblasting,Misc,-6.325006,106.743065,"Jl. Otista Raya No.17, Seberang Alfa, Midi, Kota Tangerang Selatan, Banten 15411, Indonesia","['point_of_interest', 'establishment']"
Jasa Floor Coating Revology,Misc,-6.2874262,106.9218753,"Jl. Masjid Hudal Islam No.98, Jatimakmur, Kec. Pondokgede, Kota Bks, Jawa Barat 17413, Indonesia","['general_contractor', 'point_of_interest', 'establishment']"
Jasa Pengecatan Powder Coating Jakarta,Misc,-6.199703,106.922254,"Jl. Dr. KRT Radjiman Widyodiningrat, Jaticempaka, Kec. Cakung, Kota Jakarta Timur, Jawa Barat 17426, Indonesia","['point_of_interest', 'establishment']"
jasa pengiriman mobil,Misc,-6.5165457,106.861783,"Jl. Raya Sirkuit Sentul No.95, Leuwinutug, Kec. Citeureup, Bogor, Jawa Barat 16810, Indonesia","['gas_station', 'point_of_interest', 'establishment']"
Jasa Powder Coating Tangerang,Misc,-6.2093027,106.6816528,"Jl. Kp., Nerogtog, Kec. Pinang, Kota Tangerang, Banten 15145, Indonesia","['general_contractor', 'point_of_interest', 'establishment']"
JAVUTO INDONESIA CERAMIC COATING & DETAILING,Misc,-6.2959434,106.6402659,"Ruko Alicante, Jl. BSD Raya Utama, Gading, Kec. Serpong, Tangerang, Banten 15334, Indonesia","['home_goods_store', 'car_repair', 'store', 'point_of_interest', 'establishment']"
Jotun Powder Coatings Indonesia,Misc,-6.2832486,106.5942257,"Jl. Raya Legok Km 6%2C8 RT 004 RW 03 Legok Tangerang Tangerang Banten, Bojong, Cikupa, Tangerang, Banten 15710, Indonesia","['painter', 'point_of_interest', 'establishment']"
Jual Mitsubishi Pajero : Jeff,Mitsubishi,-6.188653,106.782945,"Jl. Pos Pengumben, Jl. Budi Raya No.20, RT.1/RW.5, Kb. Jeruk, Kec. Kb. Jeruk, Kota Jakarta Barat, Daerah Khusus Ibukota Jakarta 11560, Indonesia","['car_dealer', 'store', 'point_of_interest', 'establishment']"
jual sparepart volvo,Volvo,-6.1455678,106.9160568,"Jl. Orchard Bar., RT.11/RW.1, Sukapura, Kec. Cilincing, Kota Jkt Utara, Daerah Khusus Ibukota Jakarta 14140, Indonesia","['car_repair', 'store', 'point_of_interest', 'establishment']"
jual sparepart volvo,Volvo,-6.1284307,106.9140183,"Jl. Intan No.35, RT.6/RW.9, Tugu Utara, Kec. Koja, Kota Jkt Utara, Daerah Khusus Ibukota Jakarta 14260, Indonesia","['car_repair', 'store', 'point_of_interest', 'establishment']"
Kamil Motor Peugeot,Peugeot,-6.3513667,106.7541323,"Jl. Kunir 4 No.21A, Pd. Cabe Udik, Kec. Pamulang, Kota Tangerang Selatan, Banten 15418, Indonesia","['car_repair', 'point_of_interest', 'establishment']"
KANG EMUY GARAGE Mitsubishi - Proton,Mitsubishi,-6.563637,106.802876,"Jl. Let. Tata Winata No.37, RT.6/RW.2, Kedung Badak, Kec. Tanah Sereal, Kota Bogor, Jawa Barat 16164, Indonesia","['electronics_store', 'store', 'point_of_interest', 'establishment']"
Kemitraan Berbayar Dengan Ferrari Indonesia,Ferrari,-6.2916542,106.7965766,"Jl. TB Simatupang No.19, RT.2/RW.9, Cilandak Bar., Kec. Cilandak, Kota Jakarta Selatan, Daerah Khusus Ibukota Jakarta 12430, Indonesia","['point_of_interest', 'establishment']"
KENCANA MAS BENGKEL PEUGEOT,Peugeot,-6.295399,106.679198,"BSD AUTOPARTS G 15 SERPONG, BSD, East Lengkong Gudang, SERPONG BSD, TANGERANG, South Tangerang City, Banten 15318, Indonesia","['car_repair', 'point_of_interest', 'establishment']"
Kingsford Body Repair,Ford,-6.1685306,106.8695554,"Jalan Letjend. Suprapto No.78A, RT.16/RW.5, Cemp. Baru, Kec. Cemp. Putih, Kota Jakarta Pusat, Daerah Khusus Ibukota Jakarta 10640, Indonesia","['car_repair', 'point_of_interest', 'establishment']"
Kreasi Auto Kencana Ford Service Center,Ford,-6.1746757,106.9138092,"Jl. Pegangsaan Indah Barat RT 16/21, Pegangsaan Dua, Klp. Gading, 14240Indonesia, RT.1/RW.1, Pegangsaan Dua, Kelapa Gading, North Jakarta City, Jakarta 14250, Indonesia","['car_dealer', 'store', 'point_of_interest', 'establishment']"
KREDIT DATSUN,Nissan/Datsun,-6.3630027,106.8335512,"Jl. Margonda Raya No.487, Pondok Cina, Kec. Beji, Kota Depok, Jawa Barat 16424, Indonesia","['finance', 'point_of_interest', 'establishment']"
Lamborghini Jakarta,Lamborghini,-6.224283,106.8100503,"Pacific Place Lantai Ground No. 73-74, Jl. Jend. Sudirman No.52-53, RT.5/RW.3, Senayan, Kec. Kby. Baru, Kota Jakarta Selatan, Daerah Khusus Ibukota Jakarta 12190, Indonesia","['car_dealer', 'store', 'point_of_interest', 'establishment']"
Lamborghini Jakarta Service,Lamborghini,-6.1199105,106.6735505,"Soewarna Business Park Lot D1 no.20-22, Pajang, Benda, Kota Tangerang, Banten 19110, Indonesia","['car_repair', 'point_of_interest', 'establishment']"
Lamborghini Water Heater (PT. Euro Prima Perkasa),Lamborghini,-6.130377,106.793017,"Kompleks Ruko 38 No. B3 Jl. Jembatan 3 Penjaringan, RT.14/RW.16, Penjaringan, Kec. Penjaringan, Kota Jkt Utara, Daerah Khusus Ibukota Jakarta 14440, Indonesia","['point_of_interest', 'establishment']"
Lapangan Parkir Mobil Dasa 4,Misc,-6.2589817,106.7849485,"Jl. Dasa IV No.47, RT.5/RW.11, Kby. Lama Sel., Kec. Kby. Lama, Kota Jakarta Selatan, Daerah Khusus Ibukota Jakarta 12240, Indonesia","['gas_station', 'point_of_interest', 'establishment']"
Lief's Auto Body Repair,Misc,-6.1828519,106.7782362,"Jalan Patra Blok Guji Baru No.82 3, RT.2/RW.2, Duri Kepa, Kec. Kb. Jeruk, Kota Jakarta Barat, Daerah Khusus Ibukota Jakarta 11510, Indonesia","['car_repair', 'point_of_interest', 'establishment']"
MAX Autocar Paint & Body Repair,Misc,-6.143802,106.7214345,"Jln.Cendrawasih raya no.8 cengkareng barat seberang GOR Pemuda/ATM bank DKI. sebelah Pom bensin Cendrawasih RT07 / RW 6 Cengkareng, RT.6/RW.6, Cengkareng Bar., Kecamatan Cengkareng, Kota Jakarta Barat, Daerah Khusus Ibukota Jakarta 11730, Indonesia","['car_repair', 'point_of_interest', 'establishment']"
Megajaya Motor Chevrolet Opel,Chevrolet,-6.1504285,106.843747,"Pasar Mobil Kemayoran Blok A No. 30A, Jalan Industri Raya, Pademangan Timur, Pademangan, RW.10, Pademangan Tim., Kec. Pademangan, Kota Jkt Utara, Daerah Khusus Ibukota Jakarta 14410, Indonesia","['car_repair', 'point_of_interest', 'establishment']"
Mekanika Motor - Bengkel Body repair & Oven painting,Misc,-6.2406227,106.8266361,"No 9 C, Jl. Kapten Tendean, RT.1/RW.3, Mampang Prpt., Kec. Mampang Prpt., Kota Jakarta Selatan, Daerah Khusus Ibukota Jakarta 12790, Indonesia","['insurance_agency', 'car_repair', 'point_of_interest', 'establishment']"
Mentari Motor Chevrolet,Chevrolet,-6.2707133,106.830534,"Jl. Warung Jati Barat No.405, RT.10/RW.5, Kalibata, Kec. Pancoran, Kota Jakarta Selatan, Daerah Khusus Ibukota Jakarta 12740, Indonesia","['car_repair', 'point_of_interest', 'establishment']"
Mercedes Benz jakarta,Mercedes-Benz,-6.2244043,106.8313698,"Jalan Denpasar Raya No.Kav 12 blok D2 RT.7/RW.4, RT.7/RW.4, Kuningan, Karet Kuningan, Kota Jakarta Selatan, Daerah Khusus Ibukota Jakarta 12940, Indonesia","['car_dealer', 'store', 'point_of_interest', 'establishment']"
Mercedes Benz Jakarta,Mercedes-Benz,-6.2426791,106.8609727,"Jalan Letjen M.T. Haryono No.Kav.5 1 14, RT.1/RW.14, Kb. Baru, Kec. Tebet, Kota Jakarta Selatan, Daerah Khusus Ibukota Jakarta 12830, Indonesia","['car_dealer', 'store', 'point_of_interest', 'establishment']"
Mercedes Benz Jakarta Selatan,Mercedes-Benz,-6.2244833,106.8313257,"Jalan Denpasar Raya Blok D2, RT.7/RW.4, Kuningan, Karet Kuningan, Kota Jakarta Selatan, Daerah Khusus Ibukota Jakarta 12940, Indonesia","['car_dealer', 'car_repair', 'store', 'point_of_interest', 'establishment']"
Mercedes Benz Tangerang,Mercedes-Benz,-6.2884349,106.6458079,"De Park BSD Boulevard Utara Kav. Commercial, Jl. Komp. Bsd No.16, Lengkong Wetan, City, Tangerang, Banten 15331, Indonesia","['car_dealer', 'store', 'point_of_interest', 'establishment']"
Mercedes-Benz Jakarta,Mercedes-Benz,-6.2079085,106.8214325,"Jl. Jend. Sudirman No.kav.8, Karet Tengsin, Jakarta, Kota Jakarta Selatan, Daerah Khusus Ibukota Jakarta 10220, Indonesia","['car_dealer', 'store', 'point_of_interest', 'establishment']"
"Mhan's House, Griya Asri Taman Mini",Misc,-6.2882669,106.9363233,"komp. griya asri taman mini blok c.2 no. 5, Jatimakmur, Pondok Gede, Bekasi City, West Java 17413, Indonesia","['store', 'point_of_interest', 'establishment']"
MIE AYAM DAN ES CAMPUR MANG EDI,Misc,-6.3065511,107.1099474,"Jln ciung indah no,31 Kp, Jarakosta DS, Danau indah RT/RW 002,003, Kec, Cikarang, Bekasi, Jawa Barat 17530, Indonesia","['car_dealer', 'finance', 'store', 'point_of_interest', 'establishment']"
Mini,Misc,-6.2077643,106.8408031,"Pasar Rumput B LOO DCT 95, Jalan Raya Sultan Agung, RT.1/RW.3, Ps. Manggis, Kota Jakarta Selatan, Daerah Khusus Ibukota Jakarta 12970, Indonesia","['point_of_interest', 'establishment']"
Mini,Misc,-6.0693139,106.6466611,"Pasar Kampung Melayu Lantai Dasar Los No. 186, JL Raya Teluk Naga, No. 11, Teluk Naga, Kp. Melayu Timur, Tangerang, Banten 15510, Indonesia","['store', 'point_of_interest', 'establishment']"
Mini,Misc,-6.3889,106.849219,"Pasar Musi Blok B No. 67, JL. Raya Musi, No. 40, Sukmajaya, Abadijaya, Kec. Sukmajaya, Kota Depok, Jawa Barat 16417, Indonesia","['store', 'point_of_interest', 'establishment']"
Mini Babanana,Misc,-6.1414458,106.7978275,"Jl. Jemb. Gambang Raya No.I, RT.10/RW.1, Pejagalan, Kec. Penjaringan, Kota Jkt Utara, Daerah Khusus Ibukota Jakarta 14450, Indonesia","['food', 'store', 'point_of_interest', 'establishment']"
MINI MAXINDO,Misc,-6.2494008,106.7815096,"Jl. Sultan Iskandar Muda No.99, RT.7/RW.2, Kby. Lama Sel., Kec. Kby. Lama, Kota Jakarta Selatan, Daerah Khusus Ibukota Jakarta 12240, Indonesia","['car_dealer', 'store', 'point_of_interest', 'establishment']"
Mini Motor,Misc,-6.2753943,106.7975636,"Jl. RS. Fatmawati Raya No.5, RT.1/RW.6, Gandaria Sel., Kec. Cilandak, Kota Jakarta Selatan, Daerah Khusus Ibukota Jakarta 12420, Indonesia","['car_repair', 'point_of_interest', 'establishment']"
Mini Motor,Misc,-6.1954632,106.9344526,"Kawasan Bizpark 2 Jalan Raya Penggilingan Blok B No.5, RT.1/RW.7, Penggilingan, Kec. Cakung, Kota Jakarta Timur, Daerah Khusus Ibukota Jakarta 13940, Indonesia","['store', 'point_of_interest', 'establishment']"
Mini Motor Bengkel,Misc,-6.1627096,106.8446198,"Jl. Kepu Timur No. 218 RT 011 RW 04 Kemayoran Kemayoran Jakarta Pusat DKI Jakarta, RT.1/RW.5, Kemayoran, Kec. Kemayoran, Kota Jakarta Pusat, Daerah Khusus Ibukota Jakarta 10620, Indonesia","['car_repair', 'store', 'point_of_interest', 'establishment']"
Mini Rock Music (MRM),Misc,-6.211483,106.967508,"Jl. Nangka V No.22, Harapan Baru, Kec. Bekasi Bar., Kota Bks, Jawa Barat 17133, Indonesia","['electronics_store', 'home_goods_store', 'store', 'point_of_interest', 'establishment']"
MINI VAPOR,Misc,-6.170912,106.580733,"Perumahan Total Persada Raya 1 Blok C1 No 32, Gembor, Kec. Periuk, Kota Tangerang, Banten 15133, Indonesia","['store', 'point_of_interest', 'establishment']"
Mira Mobil Ratnajaya,Misc,-6.1453187,106.8922056,"Jl. Raya Pegangsaan 2 Km.5 No. 88 Pegangsaan Dua Kelapa Gading Jakarta Utara DKI Jakarta, RT.18/RW.8, Klp. Gading Bar., Kec. Klp. Gading, Kota Jkt Utara, Daerah Khusus Ibukota Jakarta 14240, Indonesia","['gas_station', 'point_of_interest', 'establishment']"
Mitra Setia Kemalindo. PT,Misc,-6.3211249,107.1279427,"Delta Silicon Industrial Park, Jl. Akasia II Blok AE No. 48, Lippo Cikarang, Sukaresmi, Cikarang Sel., Bekasi, Jawa Barat 17530, Indonesia","['point_of_interest', 'establishment']"
Mitsubishi Bogor,Mitsubishi,-6.5584194,106.7827598,"Jl. Sholeh Iskandar No.35, Kedung Jaya, Kec. Tanah Sereal, Kota Bogor, Jawa Barat 16164, Indonesia","['car_dealer', 'store', 'point_of_interest', 'establishment']"
Mitsubishi Center Jakarta,Mitsubishi,-6.1451792,106.7940813,"Jl. Prof. Dr. Latumenten V No.5, RT.5/RW.6, Angke, Kec. Tambora, Kota Jakarta Barat, Daerah Khusus Ibukota Jakarta 12930, Indonesia","['car_dealer', 'store', 'point_of_interest', 'establishment']"
MITSUBISHI DEALER CIBUBUR,Mitsubishi,-6.391698,106.9548628,"Jl. Alternatif Cibubur No.32, Gunung Putri, Cileungsi, Kec. Cileungsi, Bogor, Jawa Barat 16820, Indonesia","['car_dealer', 'store', 'point_of_interest', 'establishment']"
Mitsubishi Kebon Jeruk,Mitsubishi,-6.1597763,106.7767822,"Rumah oma El Jl asia baru tanjakan no.76 rt.004 rw.04, Kelurahan No.RT.12, RT.1/RW.9, Duri Kepa, Kec. Grogol petamburan, Kota Jakarta Barat, Daerah Khusus Ibukota Jakarta 11510, Indonesia","['car_dealer', 'store', 'point_of_interest', 'establishment']"
MITSUBISHI MENTENG CAKUNG PT. Dwindo Berlian Samjaya,Mitsubishi,-6.189151,106.9643682,"Jalan Raya Bekasi Km. 26 Ujung Menteng Cakung RT.6/RW.1 RT.6, RT.1/RW.1, Cakung Bar., Kec. Cakung, DKI Jakarta 17132, Indonesia","['car_dealer', 'store', 'point_of_interest', 'establishment']"
MITSUBiSHI MOTOR,Mitsubishi,-6.203307,106.801352,"Jl. Jend. Gatot Subroto Kav. 50-52, RW.7, Petamburan, Kota Jakarta Pusat, Daerah Khusus Ibukota Jakarta 11410, Indonesia","['car_dealer', 'store', 'point_of_interest', 'establishment']"
MITSUBISHI MOTORS - BSD,Mitsubishi,-6.275857,106.6583996,"Lengkong Karya, North Serpong, South Tangerang City, Banten 15310, Indonesia","['car_dealer', 'store', 'point_of_interest', 'establishment']"
Mitsubishi Motors PT Bumen Redja Abadi,Mitsubishi,-6.2333746,106.7365732,"Jalan Pahlawan 1000 No. 5, RT.1/RW.1, Kreo, Serpong, Kota Tangerang, Banten 15156, Indonesia","['car_dealer', 'store', 'point_of_interest', 'establishment']"
MITSUBISHI PAJERO SPORT,Mitsubishi,-6.1746266,106.811428,"Jl. Cideng Barat No.65B, RT.14/RW.2, Cideng, Kec. Gambir, Kota Jakarta Pusat, Daerah Khusus Ibukota Jakarta 10150, Indonesia","['car_dealer', 'store', 'point_of_interest', 'establishment']"
Mitsubishi Srikandi Alam Sutera,Mitsubishi,-6.2259429,106.6552617,"Jl. Jalur Sutera Boulevard No.Kav. 28, Panunggangan Tim., Kec. Pinang, Kota Tangerang, Banten 15325, Indonesia","['car_dealer', 'store', 'point_of_interest', 'establishment']"
Mitsubishi Srikandi Sunter,Mitsubishi,-6.137808,106.876908,"Jl. Danau Sunter Utara Blok B No. 14, Jakarta Utara, Daerah Khusus Ibukota Jakarta 14350, Indonesia","['car_dealer', 'store', 'point_of_interest', 'establishment']"
Mobil Oil Singapore Pte Ltd,Misc,-6.2174443,106.8129015,"Jl. Jend. Sudirman No.28, RT.14/RW.1, Bend. Hilir, Kec. Tanah Abang, Kota Jakarta Pusat, Daerah Khusus Ibukota Jakarta 10210, Indonesia","['point_of_interest', 'establishment']"
Mobil Proton Exora Star MT,Misc,-6.4032455,106.8186951,"Jl. Kartini No.47, Depok, Kec. Pancoran Mas, Kota Depok, Jawa Barat 16431, Indonesia","['car_dealer', 'car_repair', 'store', 'point_of_interest', 'establishment']"
Mobil VW Audi Jakarta,VW,-6.2424922,106.863545,"Wisma Indomobil, RW.6, Kp. Melayu, Kecamatan Jatinegara, Kota Jakarta Timur, Daerah Khusus Ibukota Jakarta 13330, Indonesia","['car_dealer', 'store', 'point_of_interest', 'establishment']"
Motor mini bekasi mmb,Misc,-6.247528,106.994799,"Jl. Mayor Madmuin Hasibuan No.1 A, RT.06/RW.08, Margahayu, Kec. Bekasi Tim., Kota Bks, Jawa Barat 17113, Indonesia","['store', 'point_of_interest', 'establishment']"
Motor mini cikupa,Misc,-6.2153511,106.5240487,"Talagasari, Cikupa, Tangerang, Banten 15710, Indonesia","['store', 'point_of_interest', 'establishment']"
MOTOR MINI izan Toys,Misc,-6.1520651,106.7244051,"No. Daerah Khusus Ibukota, Jl. Dd II No.2A, RT.2/RW.2, Bar., Cengkareng, RT.2/RW.2, Cengkareng Bar., Kecamatan Cengkareng, Kota Jakarta Barat, Daerah Khusus Ibukota Jakarta 11730, Indonesia","['store', 'point_of_interest', 'establishment']"
Motor Mini Kembar Garage Bekasi,Misc,-6.2302637,107.0143381,"Jl. Mekar Sari No.82, RT.05/RW.03, Bekasi Jaya, Kec. Bekasi Tim., Kota Bks, Jawa Barat 17112, Indonesia","['store', 'point_of_interest', 'establishment']"
Motor Mini Shop,Misc,-6.163105,106.72662,"Jl. Raya Pondok Randu No.38, RT.3/RW.7, Duri Kosambi, Kecamatan Cengkareng, Kota Jakarta Barat, Daerah Khusus Ibukota Jakarta 11750, Indonesia","['store', 'point_of_interest', 'establishment']"
motorcycle paint workshop,Misc,-6.1997351,106.4745431,"Jl. Raya Serang No.km, galian air, Kec. Cikupa, Tangerang, Banten 15710, Indonesia","['car_repair', 'point_of_interest', 'establishment']"
MTU Workshop,Misc,-6.3867456,107.1012883,"Kp. Ceper, RT. 04/RW. 02 Jl. Madias, Jl. Pasir Randu No.75, Sukasari, Kec. Serang Baru, Bekasi, Jawa Barat 17330, Indonesia","['point_of_interest', 'establishment']"
MVM Auto Repair,Misc,-6.2569357,106.7809154,"Jl. Tanah Kusir II No.9, RT.1/RW.8, Kby. Lama Sel., Kec. Kby. Lama, Kota Jakarta Selatan, Daerah Khusus Ibukota Jakarta 12240, Indonesia","['car_repair', 'point_of_interest', 'establishment']"
Najagar Motor Volvo,Volvo,-6.272275,106.846579,"Jl. Raya Pasar Minggu No.KM 18, RT.11/RW.5, Pejaten Bar., Kec. Ps. Minggu, Kota Jakarta Selatan, Daerah Khusus Ibukota Jakarta 12510, Indonesia","['car_repair', 'point_of_interest', 'establishment']"
NDS Auto Service - Nissan-Datsun Spesialis Serang,Nissan/Datsun,-6.16253,106.179701,"Jl. Raya Petir Km.4 No, RT.003/RW.002, Serang, Cipocok Jaya, Serang City, Banten 42123, Indonesia","['car_repair', 'point_of_interest', 'establishment']"
Nico Car Body Repair,Misc,-6.2953835,106.7580005,"Jl. Pahlawan No.54, RT.1/RW.9, Rempoa, Kec. Ciputat Tim., Kota Tangerang Selatan, Banten 15412, Indonesia","['car_repair', 'point_of_interest', 'establishment']"
Nirvana Coating,Misc,-6.1492805,106.8348098,"Jl. Gn. Sahari No.2-M, RT.16/RW.3, Gn. Sahari Utara, Kec. Sawah Besar, Kota Jakarta Pusat, Daerah Khusus Ibukota Jakarta 10720, Indonesia","['painter', 'point_of_interest', 'establishment']"
Nissan Datsun Bekasi Barat (Mimosa),Nissan/Datsun,-6.2333958,106.9896868,"No. 27, Jl. Jend. Sudirman No.KM, Kayuringin Jaya, Kec. Bekasi Sel., Kota Bks, Jawa Barat 17144, Indonesia","['car_dealer', 'store', 'point_of_interest', 'establishment']"
Nissan Datsun Fatmawati,Nissan/Datsun,-6.288596,106.795039,"Nissan Datsun Fatmawati, Jl. RS. Fatmawati Raya No.60, RT.3/RW.5, Cilandak Bar., Kec. Cilandak, Kota Jakarta Selatan, Daerah Khusus Ibukota Jakarta 12430, Indonesia","['car_dealer', 'store', 'point_of_interest', 'establishment']"
Nissan Datsun Karawang,Nissan/Datsun,-6.3142652,107.3207858,"East Adiarsa, East Karawang, Karawang Regency, West Java 41311, Indonesia","['car_dealer', 'store', 'point_of_interest', 'establishment']"
Nissan Datsun Radin Inten,Nissan/Datsun,-6.2251243,106.9229265,"Kaveling 8 Nomor 18, Jl. Raden Inten II, RT.7/RW.10, Duren Sawit, Kec. Duren Sawit, Kota Jakarta Timur, Daerah Khusus Ibukota Jakarta 13440, Indonesia","['car_dealer', 'store', 'point_of_interest', 'establishment']"
Nissan Datsun Roxy,Nissan/Datsun,-6.1660607,106.8090676,"Jl. KH. Hasyim Ashari No.45, RT.1/RW.11, Cideng, Kec. Gambir, Kota Jakarta Pusat, Daerah Khusus Ibukota Jakarta 10150, Indonesia","['point_of_interest', 'establishment']"
NISSAN DATSUN TOMANG,Nissan/Datsun,-6.184183,106.789818,"Jl. Arjuna Utara No.4-44, RT.1/RW.1, Tj. Duren Sel., Kec. Grogol petamburan, Kota Jakarta Barat, Daerah Khusus Ibukota Jakarta 11470, Indonesia","['car_dealer', 'store', 'point_of_interest', 'establishment']"
Nissan Datsun Warung Buncit,Nissan/Datsun,-6.2823836,106.8276624,"Jl. Warung Jati Barat No.34, RT.2/RW.11, Ragunan, Kec. Ps. Minggu, Kota Jakarta Selatan, Daerah Khusus Ibukota Jakarta 12540, Indonesia","['car_dealer', 'store', 'point_of_interest', 'establishment']"
Nusantara Ford Bintaro,Ford,-6.2737391,106.709602,"Bintaro Jaya Sektor 7, Jalan Boulevard Raya CBD, Pondok Jaya, Pondok Aren, Pd. Pucung, Kec. Pd. Aren, Kota Tangerang Selatan, Banten 15220, Indonesia","['car_dealer', 'store', 'point_of_interest', 'establishment']"
Nusantara Ford Depok,Ford,-6.3888427,106.8265171,"Jl. Margonda Raya No.28, Kemiri Muka, Kec. Beji, Kota Depok, Jawa Barat 16431, Indonesia","['car_dealer', 'store', 'point_of_interest', 'establishment']"
Nusantara Mitsubishi Dealer.,Mitsubishi,-6.3811295,106.8306024,"Jl. Margonda Raya No.34, Kemiri Muka, Kec. Beji, Kota Depok, Jawa Barat 16421, Indonesia","['car_dealer', 'store', 'point_of_interest', 'establishment']"
ORION MINI BIKE,Misc,-6.286426,106.702882,"Jalan Raya No 04 02, Jl. Kp. Rw. Tim. No.9, Jombang, Kec. Pd. Aren, Kota Tangerang Selatan, Banten 15229, Indonesia","['store', 'point_of_interest', 'establishment']"
Otobid Lelang,Misc,-6.135765,106.6261043,"Jalan Marsekal Suryadharma Komplek Pergudangan Bandara Mas, Blok O, Kedaung Wetan, Kec. Neglasari, Kota Tangerang, Banten 15127, Indonesia","['car_dealer', 'store', 'point_of_interest', 'establishment']"
PADMA SUPER COATING,Misc,-6.4286553,106.8880261,"Jl. Raya Tapos No.23, RT.2/RW.12, Tapos, Kec. Tapos, Kota Depok, Jawa Barat 16457, Indonesia","['point_of_interest', 'establishment']"
Paint Auto Repair,Misc,-6.411516,106.830918,"Blok Kampung Parung Serab, Jalan Raya Ksu / Pemancar Rri Blok Kampung Parung Serab #1, Tirtajaya, Sukmajaya, Tirtajaya, Kec. Sukmajaya, Kota Depok, Jawa Barat 16412, Indonesia","['car_repair', 'point_of_interest', 'establishment']"
Pelita Ibu Mini Market,Misc,-6.3467326,106.8735449,"Jl. Lap. Tembak, RT.3/RW.1, Cibubur, Kec. Ciracas, Kota Jakarta Timur, Daerah Khusus Ibukota Jakarta 13720, Indonesia","['store', 'point_of_interest', 'establishment']"
Penghemat BBM Mobil Proton Saga JSOne - Dokter Mobil,Misc,-6.1466669,106.9094441,"Blok QJ 1 No. 17, Jl. Boulevard Raya, RT.12/RW.15, Klp. Gading Bar., Kelapa, Kota Jkt Utara, Daerah Khusus Ibukota Jakarta 14240, Indonesia","['point_of_interest', 'establishment']"
Penghemat BBM Mobil Proton Saga JSOne-Dokter Mobil,Misc,-6.1464962,106.9094012,"Blok QJ 1 No. 17, Jl. Boulevard Raya, RT.12/RW.15, Klp. Gading Bar., Kec. Klp. Gading, Kota Jkt Utara, Daerah Khusus Ibukota Jakarta 14240, Indonesia","['point_of_interest', 'establishment']"
Penjualan wuling margahayu bekasi,Wuling,-6.254615,107.0096553,"Margahayu, Bekasi Timur, Bekasi City, West Java 17113, Indonesia","['car_dealer', 'store', 'point_of_interest', 'establishment']"
Peugeot,Peugeot,-6.2926999,106.7894271,"Jl. TB Simatupang, RT.11/RW.4, Cilandak Bar., Kec. Cilandak, Kota Jakarta Timur, Daerah Khusus Ibukota Jakarta 13430, Indonesia","['car_dealer', 'car_repair', 'store', 'point_of_interest', 'establishment']"
Peugeot,Peugeot,-6.2400335,106.819148,"Jl. Kapten Tendean, RT.1/RW.1, Pela Mampang, Kec. Mampang Prpt., Kota Jakarta Selatan, Daerah Khusus Ibukota Jakarta 12720, Indonesia","['car_dealer', 'store', 'point_of_interest', 'establishment']"
Peugeot,Peugeot,-6.2922975,106.79719,"RT.4/RW.9, West Cilandak, Cilandak, South Jakarta City, Jakarta 12430, Indonesia","['car_dealer', 'store', 'point_of_interest', 'establishment']"
Peugeot AutoTronics,Peugeot,-6.1917518,106.7806505,"Jl. Sang Timur No.105A, RT.12/RW.4, Kb. Jeruk, Kec. Kb. Jeruk, Kota Jakarta Barat, Daerah Khusus Ibukota Jakarta 11530, Indonesia","['car_repair', 'point_of_interest', 'establishment']"
PEUGEOT BSD Astra Biz Center,Peugeot,-6.287366,106.638985,"Jl BSD Raya Utama, Astra Biz Center, Kav. Commercial Park Barat Lot I. IIC, Lengkong Kulon, Kec. Pagedangan, Tangerang, Banten 15331, Indonesia","['car_dealer', 'car_repair', 'store', 'point_of_interest', 'establishment']"
Peugeot HO Sunter,Peugeot,-6.1319233,106.8634108,"Jl.Gaya motor 2 no.1, sunter 2, RT.2/RW.12, Papanggo, Tj. Priok, Kota Jkt Utara, Daerah Khusus Ibukota Jakarta 14350, Indonesia","['electronics_store', 'store', 'point_of_interest', 'establishment']"
PEUGEOT MOTOCYCLE INDONESIA CIPETE,Peugeot,-6.2781858,106.8045796,"Jl. Cipete Raya No.1, RT.3/RW.4, Cipete Sel., Kec. Cilandak, Kota Jakarta Selatan, Daerah Khusus Ibukota Jakarta 12410, Indonesia","['car_dealer', 'store', 'point_of_interest', 'establishment']"
Peugeot Scooters Jakarta,Peugeot,-6.2972884,106.7840427,"Bumi harum manis, Jl. Lb. Bulus Raya 1 No.62, RT.10/RW.6, Lb. Bulus, Kec. Cilandak, Kota Jakarta Selatan, Daerah Khusus Ibukota Jakarta 12340, Indonesia","['store', 'point_of_interest', 'establishment']"
PLAZA MINI,Misc,-6.246201,106.626941,"Jl. Gading Serpong Boulevard, Curug Sangereng, Kec. Klp. Dua, Tangerang, Banten 15810, Indonesia","['car_dealer', 'store', 'point_of_interest', 'establishment']"
Plaza Mini Cooper,Misc,-6.2463789,106.6270651,"Jl. Gading Serpong Boulevard, Curug Sangereng, Kelapa Dua M5 / 10, Curug Sangereng, Kec. Klp. Dua, Tangerang, Banten 15810, Indonesia","['car_dealer', 'store', 'point_of_interest', 'establishment']"
Plaza Toyota Body Paint Karanggan,Toyota,-6.4650888,106.8810648,"Jl. Raya Karanggan No.85, RT.7/RW.04, Karanggan, Kec. Gn. Putri, Bogor, Jawa Barat 16961, Indonesia","['car_dealer', 'car_repair', 'store', 'point_of_interest', 'establishment']"
Porsche Bengkel Liqui Moly,Porsche,-6.2378691,106.6558796,"Jalan Sutera Olivia XVI No.7, Alam Sutra, Serpong Utara, Pakualam, Kec. Serpong Utara, Kota Tangerang Selatan, Banten 15320, Indonesia","['car_repair', 'point_of_interest', 'establishment']"
Porsche Centre Jakarta,Porsche,-6.2412819,106.7825038,"Jalan Sultan Iskandar Muda No. 51, Arteri Pondok Indah, Kebayoran Lama Utara, Kebayoran Lama, RT.6/RW.3, RT.2/RW.3, Kby. Lama Utara, Kec. Kby. Lama, Kota Jakarta Selatan, Daerah Khusus Ibukota Jakarta 12240, Indonesia","['car_dealer', 'store', 'point_of_interest', 'establishment']"
Porsche Club,Porsche,-6.2502274,106.7815194,"Jl. Sultan Iskandar Muda No. 51, Arteri Pondok Indah, RT.7/RW.2, Kby. Lama Sel., Kec. Kby. Lama, Jakarta, Daerah Khusus Ibukota Jakarta 12240, Indonesia","['point_of_interest', 'establishment']"
PORSCHE PORS WERKS,Porsche,-6.2188492,106.7315075,"Jalan Raya Joglo No.72 2 1, RT.1/RW.1, Joglo, Kec. Kembangan, Kota Jakarta Barat, Daerah Khusus Ibukota Jakarta 11640, Indonesia","['car_repair', 'point_of_interest', 'establishment']"
Pranawa Motor - Bengkel Motor,Misc,-6.2596742,106.9699445,"Jl. Taman Aster Grand Galaxi City No.10, Jaka Setia, Kec. Bekasi Sel., Kota Bks, Jawa Barat 17147, Indonesia","['car_repair', 'point_of_interest', 'establishment']"
Prima Auto World Depok,Misc,-6.3728628,106.8330533,"Jl. Margonda Raya No.28, Depok, Kec. Beji, Kota Depok, Jawa Barat 16423, Indonesia","['car_dealer', 'store', 'point_of_interest', 'establishment']"
PRIMA WULING CIBUBUR,Wuling,-6.389037,106.9450848,"Jl. Alternatif Cibubur, Nagrak, Kec. Jatisampurna, Kota Bks, Jawa Barat 16967, Indonesia","['point_of_interest', 'establishment']"
PRIMA WULING TOMANG dki brt,Wuling,-6.184335,106.78968,"Jalan Arjuna Utara No.131, RW.1, RT.1/RW.1, Tomang, Kec. Grogol petamburan, Kota Jakarta Barat, Daerah Khusus Ibukota Jakarta 11470, Indonesia","['car_dealer', 'store', 'point_of_interest', 'establishment']"
Promo Mobil Pajero Pondok Indah,Misc,-6.2490599,106.7809394,"Jl. Sultan Iskandar Muda No.28-29, RT.2/RW.1, Kby. Lama Sel., Jakarta Selatan, Kota Jakarta Selatan, Daerah Khusus Ibukota Jakarta 12240, Indonesia","['car_dealer', 'store', 'point_of_interest', 'establishment']"
Proton,Misc,-6.4115355,106.8163327,"Jl. Raya Citayam No.47, Depok, Kec. Pancoran Mas, Kota Depok, Jawa Barat 16431, Indonesia","['car_dealer', 'store', 'point_of_interest', 'establishment']"
Proton,Misc,-6.1949732,106.7826316,"Jl. Kemanggisan Raya No.5, RT.5/RW.13, Palmerah, Kec. Palmerah, Kota Jakarta Barat, Daerah Khusus Ibukota Jakarta 11530, Indonesia","['car_dealer', 'store', 'point_of_interest', 'establishment']"
Proton,Misc,-6.2292558,106.7207334,"Jl. HOS Cokroaminoto, RT.1/RW.3, Sudimara Tim., Kec. Ciledug, Kota Tangerang, Banten 15151, Indonesia","['car_dealer', 'store', 'point_of_interest', 'establishment']"
Proton,Misc,-6.2937543,106.6674429,"Ruko CBD, Jl. Pahlawan Seribu, Lengkong Gudang, Kec. Serpong, Kota Tangerang Selatan, Banten 15322, Indonesia","['car_dealer', 'store', 'point_of_interest', 'establishment']"
Proton,Misc,-6.2002975,106.6203473,"Ruko Victoria, Jl. Imam Bonjol, Bojong Jaya, Kec. Karawaci, Kota Tangerang, Banten 15138, Indonesia","['point_of_interest', 'establishment']"
Proton,Misc,-6.198264,106.935682,"Jl. Jendral Sudirman, RT.19/RW.7, Penggilingan, Kec. Cakung, Kota Jakarta Timur, Daerah Khusus Ibukota Jakarta 17144, Indonesia","['point_of_interest', 'establishment']"
Proton,Misc,-6.3769856,106.9698635,"Jl. Narogong Raya, Limus Nunggal, Kec. Cileungsi, Bogor, Jawa Barat 16820, Indonesia","['point_of_interest', 'establishment']"
Proton,Misc,-6.2711018,106.9807213,"Jl. Raya Pekayon No.27B, Jaka Setia, Kec. Bekasi Sel., Kota Bks, Jawa Barat 17147, Indonesia","['point_of_interest', 'establishment']"
Proton & SHELL Warehouse,Misc,-6.2323755,106.9893877,"Jl. Jend. Sudirman No.1, Harapan Mulya, Kecamatan Medan Satria, Kota Bks, Jawa Barat 17143, Indonesia","['store', 'point_of_interest', 'establishment']"
Proton Arjuna utara,Misc,-6.183794,106.7875835,"Jl. Way Seputih No.1A, RT.4/RW.1, Tj. Duren Sel., Kec. Grogol petamburan, Kota Jakarta Barat, Daerah Khusus Ibukota Jakarta 11470, Indonesia","['point_of_interest', 'establishment']"
Proton Edar Indonesia Head Office and Warehouse,Misc,-6.1969071,106.9796444,"Jl. Raya Kaliabang, Medan Satria, Kecamatan Medan Satria, Kota Bks, Jawa Barat 17132, Indonesia","['point_of_interest', 'establishment']"
Proton Edar Indonesia Warehouse,Misc,-6.196438,106.976635,"Jl. Pejuang No.45, Medan Satria, Kec. Bekasi Bar., Kota Bks, Jawa Barat 17132, Indonesia","['point_of_interest', 'establishment']"
Proton Edar Indonesia. PT,Misc,-6.2914291,106.6674485,"Ruko CBD - BSD Blok F12 - 15, Serpong, Lengkong Gudang, Kec. Serpong, Tangerang, Banten 15321, Indonesia","['car_dealer', 'store', 'point_of_interest', 'establishment']"
Proton Edar Indonesia. PT,Misc,-6.4117959,106.8163387,"JL. Kartini Raya No.47, Depok, Pancoran Mas, Depok City, West Java 16431, Indonesia","['point_of_interest', 'establishment']"
Proton Electronics,Misc,-6.1539376,106.8180378,"Hayam Wuruk Sreet No.99F, RT.3/RW.8, Maphar, Taman Sari, West Jakarta City, Jakarta 11160, Indonesia","['electronics_store', 'store', 'point_of_interest', 'establishment']"
Proton Futures Investasi,Misc,-6.2723322,106.7255402,"Bintaro Jaya Sektor 7, Jl. Wahid Hasyim, Jurang Mangu Barat, Kec. Pd. Aren, Kota Tangerang Selatan, Banten 15224, Indonesia","['finance', 'point_of_interest', 'establishment']"
Proton Hydraulic,Misc,-6.2953826,107.2936693,"Jl. Ahmad Yani, Jl. Raya Tj. Pura Baru, Tanjungmekar, Kec. Karawang Bar., Kabupaten Karawang, Jawa Barat 41316, Indonesia","['hardware_store', 'store', 'point_of_interest', 'establishment']"
Proton Jatiasih,Misc,-6.3104842,106.9531837,"Jl. Wibawa Mukti II No.1, Jatiasih, Kec. Jatiasih, Kota Bks, Jawa Barat 17423, Indonesia","['car_repair', 'point_of_interest', 'establishment']"
Proton Liftindo Perkasa,Misc,-6.1394017,106.8195661,"Jl P Jayakarta 93-A Pinang Siang Tambora Jakarta Barat DKI Jakarta, RT.1/RW.3, Pinangsia, Kec. Taman Sari, Kota Jakarta Barat, Daerah Khusus Ibukota Jakarta 11110, Indonesia","['car_dealer', 'store', 'point_of_interest', 'establishment']"
Proton Panel Beton,Misc,-6.4000492,106.6240649,"Taman Sari, Rumpin, Bogor, West Java 16350, Indonesia","['general_contractor', 'point_of_interest', 'establishment']"
Proton Saga. PT,Misc,-6.225332,107.01647,"Jalan Bekasi Permai No.20, RT.5/RW.3, Bekasi Jaya, Kec. Bekasi Tim., Kota Bks, Jawa Barat 17112, Indonesia","['point_of_interest', 'establishment']"
PT DEHACE,Misc,-6.2096176,106.6819846,"Jl. Kp. Noroktog, Nerogtog, Kec. Pinang, Kota Tangerang, Banten 15145, Indonesia","['point_of_interest', 'establishment']"
PT Gamma Eka Sentosa,Misc,-6.2265599,106.6381449,"Jl. MH. Thamrin No.58, Panunggangan, Kec. Pinang, Kota Tangerang, Banten 15143, Indonesia","['car_dealer', 'store', 'point_of_interest', 'establishment']"
PT HYUNDAI MOBIL INDONESIA CABANG DEPOK,Hyundai,-6.387809,106.8276555,"Jl. Margonda Raya No.358, Kemiri Muka, Kec. Beji, Kota Depok, Jawa Barat 16423, Indonesia","['car_dealer', 'store', 'point_of_interest', 'establishment']"
PT Mercedes-Benz Distribution Indonesia,Mercedes-Benz,-6.338239,106.7498739,"Jl. R.E. Martadinata No.Km. 7, Cipayung, Kec. Ciputat, Kota Tangerang Selatan, Banten 15411, Indonesia","['car_dealer', 'store', 'point_of_interest', 'establishment']"
PT Mercindo Autorama,Misc,-6.2440729,106.8261334,"Jl. Mampang Prpt. Raya No.70, RT.3/RW.5, Mampang Prpt., Kec. Mampang Prpt., Jakarta, Daerah Khusus Ibukota Jakarta 12790, Indonesia","['car_dealer', 'store', 'point_of_interest', 'establishment']"
PT Mercindo Autorama Sunter,Misc,-6.1565005,106.8845845,"Jl. Yos Sudarso No.kav.88, RT.10/RW.6, Klp. Gading Bar., Kec. Klp. Gading, Kota Jkt Utara, Daerah Khusus Ibukota Jakarta 14330, Indonesia","['car_dealer', 'store', 'point_of_interest', 'establishment']"
PT Mitsubishi Motors Krama Yudha Sales Indonesia,Mitsubishi,-6.2435567,106.9925049,"Jalan Jendral Ahmad Yani, Kayuringin Jaya, Kec. Bekasi Sel., Jakarta Timur, Daerah Khusus Ibukota Jakarta 17144, Indonesia","['car_dealer', 'store', 'point_of_interest', 'establishment']"
PT Mitsubishi Motors Krama Yudha Sales Indonesia (MMKSI),Mitsubishi,-6.1787356,106.87629,"Blok Kavling Blok Pulo MAS Selatan No.22 RT.6/RW.11 Kayu Putih Pulo Gadung East Jakarta City DKI Jakarta 13210 ID, Jl. Pulomas Selatan, RT.6/RW.11, Kayu Putih, Kec. Pulo Gadung, Kota Jakarta Timur, Daerah Khusus Ibukota Jakarta 13210, Indonesia","['car_dealer', 'store', 'point_of_interest', 'establishment']"
PT Nano Coating Indonesia,Misc,-6.3078482,107.1511633,"Pasirsari, South Cikarang, Bekasi, West Java 17530, Indonesia","['point_of_interest', 'establishment']"
Pt Proton,Misc,-6.1968583,106.97925,"Medan Satria, Bekasi City, West Java 17132, Indonesia","['point_of_interest', 'establishment']"
PT PROTON EDAR INDONESIA,Misc,-6.2709089,106.9806675,"Jl. Raya Pekayon No.27B, Pekayon Jaya, Kec. Bekasi Sel., Kota Bks, Jawa Barat 17147, Indonesia","['point_of_interest', 'establishment']"
PT TASM,Misc,-6.289079,107.145314,"Jl. Jababeka Raya G No.18-23, Pasirgombong, Kec. Cikarang Utara, Bekasi, Jawa Barat 17530, Indonesia","['point_of_interest', 'establishment']"
PT. Adedanmas,Misc,-6.29144,106.787945,"Jl. TB Simatupang Kav. 5, Lebak Bulus, Cilandak, RT.16/RW.6, Cilandak Bar., Kec. Cilandak, Kota Jakarta Selatan, Daerah Khusus Ibukota Jakarta 12430, Indonesia","['car_dealer', 'store', 'point_of_interest', 'establishment']"
PT. Antara Bintang Sekawan,Misc,-6.171935,106.851601,"Jl. Mahoni, RT.5/RW.8, Bungur, Kec. Senen, Kota Jakarta Pusat, Daerah Khusus Ibukota Jakarta 10460, Indonesia","['point_of_interest', 'establishment']"
PT. Anzon Auto Lestari (Toyota Tambun),Toyota,-6.2653179,107.072097,"Jalan Sultan Hasanudin No.1, Tambun, Tambun Selatan, Tambun, Kec. Tambun Sel., Bekasi, Jawa Barat 17510, Indonesia","['car_dealer', 'store', 'point_of_interest', 'establishment']"
"PT. Astra International, Tbk - Peugeot",Peugeot,-6.292689,106.789526,"Jl. R.A.Kartini No.Kavling 203, RT.11/RW.4, Cilandak Bar., Kec. Cilandak, Kota Jakarta Selatan, Daerah Khusus Ibukota Jakarta 12430, Indonesia","['car_dealer', 'store', 'point_of_interest', 'establishment']"
"PT. Astra International, Tbk. BMW Division",BMW,-6.2925989,106.7897259,"Jl. R.A.Kartini No.Kav. 203, RT.11/RW.4, Cilandak Bar., Kec. Cilandak, Kota Jakarta Selatan, Daerah Khusus Ibukota Jakarta 12430, Indonesia","['car_dealer', 'finance', 'store', 'point_of_interest', 'establishment']"
PT. Axalta Powder Coating Systems Indonesia,Misc,-6.2897576,107.1428746,"Jl. Jababeka III, Pasirgombong, Kec. Cikarang Utara, Bekasi, Jawa Barat 17530, Indonesia","['point_of_interest', 'establishment']"
PT. Bestindo Car Utama,Misc,-6.2817207,106.7279824,"CBD Bintaro Jaya Sektor 7 Kav. B6 No. 1, Jalan Jend. Sudirman, Pondok Jaya, Pondok Aren, Pd. Jaya, Kec. Pd. Aren, Kota Tangerang Selatan, Banten 15224, Indonesia","['car_dealer', 'store', 'point_of_interest', 'establishment']"
PT. Cakrawala Automotif Rabhasa,Misc,-6.2246609,106.8313927,"Jalan Denpasar Raya Blok D2 Kav. 12, Karet Kuningan, Setiabudi, RT.7/RW.4, Kuningan, Karet Kuningan, Kota Jakarta Selatan, Daerah Khusus Ibukota Jakarta 12940, Indonesia","['car_dealer', 'store', 'point_of_interest', 'establishment']"
PT. CAR Mercedes Benz,Mercedes-Benz,-6.2244833,106.8313257,"Jl. Denpasar Raya No.Blok D2, RT.7/RW.4, Kuningan, Karet Kuningan, Setia Budi, Kabupaten Kuningan, Daerah Khusus Ibukota Jakarta 12940, Indonesia","['car_dealer', 'store', 'point_of_interest', 'establishment']"
PT. Garuda Mataram Motor,Misc,-6.2427873,106.8645647,"Wisma Indomobil Kav Jendral MT Haryono No4, MT Haryono Street No.11, RW.6, Kampung Melayu, Jatinegara, East Jakarta City, Jakarta 13330, Indonesia","['car_dealer', 'store', 'point_of_interest', 'establishment']"
PT. Luminary Armada Nusantara,Misc,-6.243832,106.8630529,"Jalan Letjen MT. Haryono No. 29, Kav. 28 6 1, RT.6/RW.1, Cawang, Kec. Kramat jati, Kota Jakarta Timur, Daerah Khusus Ibukota Jakarta 13630, Indonesia","['car_dealer', 'store', 'point_of_interest', 'establishment']"
PT. Maneka Jaya Kreatif,Misc,-6.1331143,106.5686384,"JL Raya Mauk, Km. 7, Sepatan, Karet, Tangerang, Banten 15520, Indonesia","['point_of_interest', 'establishment']"
PT. Masato Catur Coating,Misc,-6.3121817,107.0871403,"Jl. Selayar No.27, Mekarwangi, Kec. Cikarang Bar., Bekasi, Jawa Barat 17530, Indonesia","['point_of_interest', 'establishment']"
PT. Mitra Warna Cat Indonesia.Ltd,Misc,-6.2651072,106.5318919,"Kp. Ciakar, RT.01/RW.001, Ciakar, Panongan, Ciakar, Kec. Panongan, Kab: Tangrang, Banten 15710, Indonesia","['point_of_interest', 'establishment']"
PT. Panji Rama Otomotif (PRO Motor) - Gandaria,Misc,-6.2473871,106.7810295,"Jl. Sultan Iskandar Muda No.97, RT.1/RW.2, Gandaria Utara, Kec. Kby. Lama, Kota Jakarta Selatan, Daerah Khusus Ibukota Jakarta 12240, Indonesia","['car_dealer', 'store', 'point_of_interest', 'establishment']"
Pt. Proton Liftindo Jaya,Misc,-6.1278824,106.8143568,"Jl. Lodan Raya No.12-A, RT.4/RW.1, Ancol, Kec. Pademangan, Kota Jkt Utara, Daerah Khusus Ibukota Jakarta 14430, Indonesia","['point_of_interest', 'establishment']"
Pt. Proton Liftindo Perkasa,Misc,-6.309131,107.14275,"Jl. Industri Raya, Pasirsari, Cikarang Sel., Bekasi, Jawa Barat 17530, Indonesia","['store', 'point_of_interest', 'establishment']"
PT. Pulung Adikarya Nusantara,Misc,-6.192079,106.739567,"Rukan Taman Meruya Blok M 20-21, Kembangan, RT.6/RW.7, Meruya Utara, Kec. Kembangan, Kota Jakarta Barat, Daerah Khusus Ibukota Jakarta 11620, Indonesia","['car_dealer', 'store', 'point_of_interest', 'establishment']"
PT. Selaras Nusa Abadi,Misc,-6.29512,106.66676,"BLK. C, No. 3-6, Ruko Bidex, JL. Pahlawan Seribu, Lengkonggudang, 15321 Tangerang, Indonesia, Lengkong Gudang, Serpong Sub-District, South Tangerang City, Banten 15321, Indonesia","['car_dealer', 'store', 'point_of_interest', 'establishment']"
PT. Toyota Astra Motor,Toyota,-6.3140668,107.0838451,"Jalan Selayar, Mekarwangi, Cikarang Barat, Mekarwangi, Kec. Cikarang Bar., Bekasi, Jawa Barat 17530, Indonesia","['car_dealer', 'store', 'point_of_interest', 'establishment']"
PT. Warna Alam Raya,Misc,-6.3079231,107.172085,"Jalan Jababeka Raya, Blok K1/D, kawasan Industri Jababeka I, Sertajaya, East Cikarang, Bekasi, West Java 17530, Indonesia","['point_of_interest', 'establishment']"
PT. Wuling Motors Indonesia,Wuling,-6.3842576,107.1882347,"Greenland International Industrial Center (GIIC) Blok BA No. 1, Jl. Tol Jakarta - Cikampek No.No, Sukamahi, Kec. Cikarang Pusat, Bekasi, Jawa Barat 17530, Indonesia","['point_of_interest', 'establishment']"
PT.Multi Coating Indonesia,Misc,-6.3553926,106.9745636,"Jl. Narogong Raya Blok P. VI No.26, RT.3/RW.5, Limus Nunggal, Kec. Cileungsi, Bogor, Jawa Barat 16820, Indonesia","['general_contractor', 'point_of_interest', 'establishment']"
PT.Smart Chevrolet,Chevrolet,-6.3813377,106.9271401,"Ruko Kawasan Niaga Citra Grand Cibubur, Jl. Alternatif Cibubur, Jatisampurna, Kec. Jatisampurna, Kota Bks, Jawa Barat 17435, Indonesia","['car_dealer', 'store', 'point_of_interest', 'establishment']"
Rafet Auto - Bengkel Cat Mobil & Body Repair Depok,Misc,-6.401595,106.86221,"Jl. Raya Bogor KM.35 No.37, Sukamaju Baru, Kec. Tapos, Kota Depok, Jawa Barat 16455, Indonesia","['car_repair', 'point_of_interest', 'establishment']"
RAFFI AUTO CARE Specialist Nissan Datsun,Nissan/Datsun,-6.391791,106.84792,"Jalan Proklamasi No.28 Abadi Jaya Sukmajaya Depok II, Abadijaya, Kec. Sukmajaya, Kota Depok, Jawa Barat 16471, Indonesia","['car_repair', 'point_of_interest', 'establishment']"
Rama Motor (Garda Q Repair),Misc,-6.568587,106.80972,"16151, Jl. Achmad Adnawijaya, Bantarjati, Kec. Bogor Utara, Kota Bogor, Jawa Barat 16152, Indonesia","['car_repair', 'point_of_interest', 'establishment']"
Remap Ecu Mobil Ferrari -Dokter Mobil SERPONG,Ferrari,-6.2349693,106.5937658,"RUKO Paramount Dotcom Blok Orange no.5, Gading Serpong, Phone/WA : 0813-1991-2289, Bencongan, Kec. Klp. Dua, Tangerang, Banten 15810, Indonesia","['car_repair', 'point_of_interest', 'establishment']"
REX WHEELS POWDERCOATING,Misc,-6.2288576,106.8946149,"Jl. Cipinang Muara I No.15, RT.12/RW.2, Pd. Bambu, Kec. Duren Sawit, Kota Jakarta Timur, Daerah Khusus Ibukota Jakarta 13430, Indonesia","['car_repair', 'point_of_interest', 'establishment']"
Safari Mas Authorized Partshop Ford & Mazda,Ford,-6.171564,106.842923,"Plaza Atrium Senen Lantai 5 Blok A No.5-6, RT.19/RW.2, Senen, Kec. Senen, Kota Jakarta Pusat, Daerah Khusus Ibukota Jakarta 10410, Indonesia","['car_repair', 'store', 'point_of_interest', 'establishment']"
Sales Chevrolet Jakarta Selatan,Chevrolet,-6.24086,106.783145,"Jl. Sultan Iskandar Muda No.8-9, RT.3/RW.2, Kby. Lama Utara, Kec. Kby. Lama, Kota Jakarta Selatan, Daerah Khusus Ibukota Jakarta 12240, Indonesia","['car_dealer', 'store', 'point_of_interest', 'establishment']"
Sales consultant Commercial Mercedes - Benz,Mercedes-Benz,-6.213691,106.629583,"Authorized Dealer Mercedes-benz, Jl. MH. Thamrin, Cikokol, Kec. Tangerang, Kota Tangerang, DKI Jakarta 10570, Indonesia","['car_dealer', 'store', 'point_of_interest', 'establishment']"
Sales Mobil Audi,Misc,-6.2424664,106.8636189,"Wisma Indomobil 1 Lt. 3, RW.6, Kp. Melayu, Kecamatan Jatinegara, Kota Jakarta Timur, Daerah Khusus Ibukota Jakarta 13330, Indonesia","['car_dealer', 'store', 'point_of_interest', 'establishment']"
SALES NISSAN DATSUN JAKARTA,Nissan/Datsun,-6.2317369,106.9224462,"Jl. Radin Intan II Kav. 8/18 Duren Sawit Jakarta 13440, RT.5/RW.14, Duren Sawit, Kec. Duren Sawit, Kota Jakarta Timur, Daerah Khusus Ibukota Jakarta 13440, Indonesia","['car_dealer', 'store', 'point_of_interest', 'establishment']"
Sales Support Powder Coating Oxyplast,Misc,-6.2754649,106.6603599,"Golden Boulevard, Blk. E No.25, Lengkong Karya, Kec. Serpong Utara, Kota Tangerang Selatan, Banten 15310, Indonesia","['point_of_interest', 'establishment']"
Sam AC Mobil,Misc,-6.4762386,106.8190772,"Jalan Raya Kusumayadi, Sukahati, Cibinong, Bogor, Jawa Barat 16914, Indonesia","['gas_station', 'car_repair', 'point_of_interest', 'establishment']"
Scirocco VW Indonesia,VW,-6.1582577,106.841024,"Gg. Spoor II, RT.1/RW.2, Gn. Sahari Sel., Kec. Kemayoran, Kota Jakarta Pusat, Daerah Khusus Ibukota Jakarta 10610, Indonesia","['car_dealer', 'store', 'point_of_interest', 'establishment']"
Sell ​​Stores Parabolic Antenna Mini Non Dues,Misc,-6.152029,106.7963371,"Jl. Jembatan Besi Raya, RT.12/RW.1, Jemb. Besi, Kec. Tambora, Kota Jakarta Barat, Daerah Khusus Ibukota Jakarta 11320, Indonesia","['electronics_store', 'store', 'point_of_interest', 'establishment']"
Sentro,Misc,-6.2795527,106.7217671,"Bintaro Trade Center, Blok E 3, No. 1-2,, Jalan Jendral Sudirman, Bintaro Jaya Sektor 7, Pondok Jaya, Pondok Aren, Pd. Jaya, Kec. Pd. Aren, Kota Tangerang Selatan, Banten 15224, Indonesia","['car_repair', 'store', 'point_of_interest', 'establishment']"
Service AC Mobil Chevrolet - DokterMobil SERPONG,Chevrolet,-6.2434696,106.6201966,"RUKO Paramount Dotcom Blok Orange no.5 Gading Serpong Phone/WA: 0813-1991-2289, Klp. Dua, Kec. Klp. Dua, Tangerang, Banten 15810, Indonesia","['car_repair', 'point_of_interest', 'establishment']"
Service Ac Mobil Lamborghini -Dokter Mobil SERPONG,Lamborghini,-6.2434696,106.6201966,"RUKO Paramount Dotcom Blok Orange no.5, Gading Serpong Phone/WA : 0813-1991-2289, Klp. Dua, Kec. Klp. Dua, Tangerang, Banten 15810, Indonesia","['car_repair', 'point_of_interest', 'establishment']"
Setiajaya Mobilindo,Misc,-6.5803627,106.8067264,"Jalan Raya Pajajaran, Bantarjati, Bogor, Bantarjati, Kec. Bogor Utara, Kota Bogor, Jawa Barat 16143, Indonesia","['car_dealer', 'store', 'point_of_interest', 'establishment']"
Setiakawan Menara Motor,Misc,-6.1208626,106.1782463,"Jl. Jend. Sudirman No.36, Sumurpecung, Kec. Serang, Kota Serang, Banten 42118, Indonesia","['car_dealer', 'store', 'point_of_interest', 'establishment']"
Sha Auto Service,Misc,-6.438285,106.7236624,"Jl. Pamegarsari, Pemagarsari, Kec. Parung, Bogor, Jawa Barat 16330, Indonesia","['car_repair', 'point_of_interest', 'establishment']"
Shoroom WULING MOTORS GARUDS,Wuling,-6.161822,106.847074,"Jl. Kemayoran Timur No.23D, RT.1/RW.7, Kemayoran, Kec. Kemayoran, Kota Jakarta Pusat, Daerah Khusus Ibukota Jakarta 10620, Indonesia","['point_of_interest', 'establishment']"
Showroom ANDI chevrolet Seken,Chevrolet,-6.1573196,106.9163942,"No.80, Jl. Raya Bekasi No.2, RW.3, Pegangsaan Dua, Kec. Klp. Gading, Kota Jkt Utara, Daerah Khusus Ibukota Jakarta 14250, Indonesia","['store', 'point_of_interest', 'establishment']"
Showroom Chevrolet Bogor,Chevrolet,-6.5788708,106.8071121,"Padjadjaran Road No.230, Bantarjati, North Bogor, Bogor City, West Java 16128, Indonesia","['car_dealer', 'store', 'point_of_interest', 'establishment']"
Showroom Indomobil Nissan Datsun,Nissan/Datsun,-6.278654,106.796244,"Raya No.60 Kecamatan., Jl. RS. Fatmawati Raya, RT.11/RW.6, Cilandak Bar., Jakarta Selatan, DKI Jakarta, Daerah Khusus Ibukota Jakarta 12430, Indonesia","['car_dealer', 'store', 'point_of_interest', 'establishment']"
Showroom Nissan Datsun Cikarang,Nissan/Datsun,-6.3327458,107.1495747,"Jl. MH. Thamrin, Sukaresmi, Cikarang Sel., Bekasi, Jawa Barat 17530, Indonesia","['car_dealer', 'store', 'point_of_interest', 'establishment']"
Showroom Nissan Datsun Tb.Simatupang,Nissan/Datsun,-6.290591,106.783204,"Jalan R.A.Kartini II-S Kav.7, RT.6/RW.14, Pondok Pinang, Kebayoran Lama, South Jakarta City, Jakarta 12430, Indonesia","['car_dealer', 'store', 'point_of_interest', 'establishment']"
Showroom VW Audi Jakarta,VW,-6.242513,106.862963,"Wisma Indomobil 1 Lt. 3, Jl. Letjen M.T. Haryono No.6, RW.6, Kp. Melayu, Kecamatan Jatinegara, Kota Jakarta Timur, Daerah Khusus Ibukota Jakarta 13330, Indonesia","['car_dealer', 'store', 'point_of_interest', 'establishment']"
Sinar Alam Motor,Misc,-6.3701211,106.8338548,"Jl. Margonda Raya No.1-2, RT.2/RW.11, Kemiri Muka, Kec. Beji, Kota Depok, Jawa Barat 16424, Indonesia","['car_repair', 'point_of_interest', 'establishment']"
SLT Pancoran,Misc,-6.2447504,106.8417662,"Jl. Raya Pasar Minggu No.11A, RT.1/RW.4, Pancoran, Kec. Pancoran, Kota Jakarta Selatan, Daerah Khusus Ibukota Jakarta 12780, Indonesia","['gas_station', 'car_wash', 'car_repair', 'point_of_interest', 'establishment']"
SM Motorsport,Misc,-6.197511,106.769103,"JL Panjang, No. 38, Arteri Kebun Jeruk, RT.1/RW.11, Kb. Jeruk, Kec. Kb. Jeruk, Kota Jakarta Barat, Daerah Khusus Ibukota Jakarta 11530, Indonesia","['car_repair', 'point_of_interest', 'establishment']"
SPARE PART PROTON,Misc,-6.2470035,107.0864802,"PERUMAHAN MUSTIKA WANASARI BLOK D6 NO 3, Wanasari, Kec. Cibitung, Bekasi, Jawa Barat 51981, Indonesia","['car_repair', 'point_of_interest', 'establishment']"
Spare Part Scania Truck Volvo,Volvo,-6.1598591,106.8300206,"Jalan Krekot Jaya Molek Blok G No.12, Pasar Baru, Sawah Besar, RT.2/RW.7, Ps. Baru, Kec. Sawah Besar, Kota Jakarta Pusat, Daerah Khusus Ibukota Jakarta 10710, Indonesia","['car_repair', 'store', 'point_of_interest', 'establishment']"
spare part volvo 960,Volvo,-6.2754781,106.8403327,"Blok B, Jl. Komp. Siaga Raya 3 No.6, RT.8/RW.5, Pejaten Bar., Kec. Ps. Minggu, Kota Jakarta Selatan, Daerah Khusus Ibukota Jakarta 12510, Indonesia","['car_repair', 'store', 'point_of_interest', 'establishment']"
sparepart volvo murah,Volvo,-6.2207084,106.8682359,"Jl. Raya Jatinegara Timur No.65, RT.11/RW.3, Bali Mester, Kecamatan Jatinegara, Kota Jakarta Timur, Daerah Khusus Ibukota Jakarta 13310, Indonesia","['car_repair', 'store', 'point_of_interest', 'establishment']"
Spectra Body Repair,Misc,-6.289768,106.817185,"Jl. Jl.Ampera Raya No.1 (Disamping SMP/SMU Sumbangsih), RT.2/RW.2, Cilandak Tim., Cilandak Timur,Jakarta Selatan, DKI Jakarta, Daerah Khusus Ibukota Jakarta 12560, Indonesia","['car_repair', 'point_of_interest', 'establishment']"
Spesialis Mitsubishi Dan Proton,Mitsubishi,-6.2241648,106.9388607,"Jl. Mawar Merah II, RT.6/RW.1, Pd. Kopi, Kec. Duren Sawit, Kota Jakarta Timur, Daerah Khusus Ibukota Jakarta 13460, Indonesia","['car_repair', 'point_of_interest', 'establishment']"
Spesialis Nissan Datsun # Lasno Otronik #,Nissan/Datsun,-6.1429589,106.1601206,"Tembong, Cipocok Jaya, Serang City, Banten 42126, Indonesia","['point_of_interest', 'establishment']"
StarJaya Body Repair,Misc,-6.192791,106.7628748,"Jalan Perjuangan No.8 13 10, RT.13/RW.10, Kb. Jeruk, Kec. Kb. Jeruk, Kota Jakarta Barat, Daerah Khusus Ibukota Jakarta 11530, Indonesia","['car_repair', 'point_of_interest', 'establishment']"
Sudiono Bengkel Radiator (jumat libur),Misc,-6.2888495,106.795213,"Jl. RS. Fatmawati Raya No.5, RT.3/RW.5, Cilandak Bar., Kec. Cilandak, Kota Jakarta Selatan, Daerah Khusus Ibukota Jakarta 12430, Indonesia","['car_repair', 'store', 'point_of_interest', 'establishment']"
Suzuki Pulogadung Sejahtera Buana Trada & Body Repair,Misc,-6.1846523,106.9080416,"Jl. Raya Bekasi No.KM.19, RT.1/RW.2, Rw. Terate, Kec. Pulo Gadung, Kota Jakarta Timur, Daerah Khusus Ibukota Jakarta 13920, Indonesia","['car_dealer', 'car_repair', 'store', 'point_of_interest', 'establishment']"
Suzuki Putra Wijaya Motor,Misc,-6.153301,106.7241861,"Jalan Daan Mogot KM 14 no. 22-23, RT.8/RW.2, Cengkareng Bar., Kecamatan Cengkareng, Kota Jakarta Barat, Daerah Khusus Ibukota Jakarta 11730, Indonesia","['car_repair', 'point_of_interest', 'establishment']"
TGP. Porsche Alam Sutera Bengkel LIQUI MOLY,Porsche,-6.2384894,106.6486132,"Pakulonan, North Serpong, South Tangerang City, Banten 15325, Indonesia","['car_repair', 'point_of_interest', 'establishment']"
Tito Toyota Garage,Toyota,-6.1774013,106.7068956,"Blok C, Jl. Melati Blok G No.10, RT.6/RW.12, Duri Kosambi, Kecamatan Cengkareng, Kota Jakarta Barat, Daerah Khusus Ibukota Jakarta 11750, Indonesia","['car_dealer', 'store', 'point_of_interest', 'establishment']"
Toko Hyundai,Hyundai,-6.2083151,106.8252123,"jl. prof dr soepomo No.176C, RT.6/RW.3, Kuningan, Setia Budi, Setiabudi, South Jakarta City, Jakarta 12910, Indonesia","['car_dealer', 'store', 'point_of_interest', 'establishment']"
Toko Indonesia Jaya Spesialis Ford Mazda Chevrolet,Chevrolet,-6.151837,106.84415,"Pasar Mobil Kemayoran, Blok S 103 C, RW.10, Pademangan Tim., Kec. Pademangan, Kota Jkt Utara, Daerah Khusus Ibukota Jakarta 10620, Indonesia","['car_repair', 'store', 'point_of_interest', 'establishment']"
Toko Motor Mini Cikarang,Misc,-6.3114532,107.165032,"Jalan Tarum Barat II No. 29-30 Raya, Jayamukti, Kec. Cikarang Pusat, Bekasi, Jawa Barat 17530, Indonesia","['store', 'point_of_interest', 'establishment']"
Toko Pancing Mini,Misc,-6.2484373,107.2349719,"Kp. Rawa Kuda, Desa Karang Harum, Kecamatan Kedubgwaringin, Karangharum, Bekasi, Jawa Barat 17540, Indonesia","['store', 'point_of_interest', 'establishment']"
toko sparepart chevrolet opel peugeot,Chevrolet,-6.4026387,106.833756,"Pasar segar depok jln.tole iskandar blok KGB1, no8 Hp:085715388137, Kec. Pancoran Mas, Kota Depok, Jawa Barat 16431, Indonesia","['car_repair', 'store', 'point_of_interest', 'establishment']"
Toko Sperpart Chevrolet Opel Peugeot didepok,Chevrolet,-6.39831,106.790143,"Jl. Jagal Gg Aula Anur No.93, Rangkapan Jaya, Kec. Pancoran Mas, Kota Depok, Jawa Barat 16412, Indonesia","['car_repair', 'store', 'point_of_interest', 'establishment']"
TopCoat Serpong - Sapphire Serum Coating & Auto Detailing,Misc,-6.2708588,106.6318066,"Ruko Mendrisio 2 Blok A-15, Jalan Boulevard iL Lago, Cihuni, Kec. Pagedangan, Tangerang, Banten 15332, Indonesia","['car_wash', 'store', 'point_of_interest', 'establishment']"
Toyota,Toyota,-6.153599,106.7930887,"Komp. Central Ratu Latumenten Blok AA 31, Jl. Prof. Dr. Latumenten Raya No. 50, RT.7/RW.1, Jelambar Baru, Grogol petamburan, West Jakarta City, Jakarta 11460, Indonesia","['car_dealer', 'store', 'point_of_interest', 'establishment']"
Toyota,Toyota,-6.1867327,106.8203838,"Wahid Hasyim Street No.164, RT.1/RW.9, Kampung Bali, Tanah Abang, Central Jakarta City, Jakarta 10250, Indonesia","['car_dealer', 'store', 'point_of_interest', 'establishment']"
Toyota,Toyota,-6.138075,106.8801095,"Jl. Gaya Motor Raya No.5, RW.4, Sungai Bambu, Tj. Priok, Kota Jkt Utara, Daerah Khusus Ibukota Jakarta 14350, Indonesia","['car_dealer', 'store', 'point_of_interest', 'establishment']"
Toyota,Toyota,-6.1253861,106.7968453,"Jl. Pluit Selatan Raya, RT.1/RW.8, Penjaringan, Kec. Penjaringan, Kota Jkt Utara, Daerah Khusus Ibukota Jakarta 14440, Indonesia","['car_dealer', 'store', 'point_of_interest', 'establishment']"
Toyota,Toyota,-6.2909777,106.6657833,"Lengkong Gudang, Serpong Sub-District, South Tangerang City, Banten 15321, Indonesia","['car_dealer', 'store', 'point_of_interest', 'establishment']"
Toyota Astrido Klender,Toyota,-6.2159918,106.9006342,"Jl. Pahlawan Revolusi No.09, RT.1/RW.6, Kel. Klender, Kec. Duren Sawit, Kota Jakarta Timur, Daerah Khusus Ibukota Jakarta 13470, Indonesia","['car_dealer', 'car_repair', 'store', 'point_of_interest', 'establishment']"
Toyota Cikarang,Toyota,-6.216869,107.169942,"Jl. Flamboyan Sukaraya Karangbahagia Perum Sukaraya Indah Blok B10 no.24 Rt 06 Rw 07, Sukaraya, Karangbahagia, Bekasi, Jawa Barat 17530, Indonesia","['car_dealer', 'store', 'point_of_interest', 'establishment']"
Toyota Trust Bintaro,Toyota,-6.2773988,106.7238328,"Pusat Kawasan Niaga Bintaro Jaya Sektor VII, Jl. Moh. Husni Thamrin No.2, Pd. Jaya, Kec. Pd. Aren, Kota Tangerang Selatan, Banten 15220, Indonesia","['car_dealer', 'store', 'point_of_interest', 'establishment']"
Tunas Peugeot,Peugeot,-6.226035,106.8477539,"JL. Dr. Saharjo, No. 319, Tebet, RT.1/RW.1, Tebet Bar., Kec. Tebet, Kota Jakarta Selatan, Daerah Khusus Ibukota Jakarta 12810, Indonesia","['car_dealer', 'store', 'point_of_interest', 'establishment']"
Tunas Toyota - Hayam Wuruk,Toyota,-6.158483,106.819032,"Hayam Wuruk Sreet No.53-52, RT.4/RW.4, Maphar, Taman Sari, West Jakarta City, Jakarta 11160, Indonesia","['car_dealer', 'store', 'point_of_interest', 'establishment']"
Tunas Toyota Jatinegara,Toyota,-6.2194718,106.8680035,"Jl. Raya Jatinegara Timur No.51, RT.11/RW.3, Bali Mester, Jakarta Timur, Kota Jakarta Timur, Daerah Khusus Ibukota Jakarta 13310, Indonesia","['car_dealer', 'store', 'point_of_interest', 'establishment']"
Tunas Toyota Kebayoran Lama,Toyota,-6.238916,106.779907,"Jl. Raya Kby. Lama Blok Masduri No.38, RT.4/RW.1, Palmerah, Kec. Kby. Lama, Kota Jakarta Selatan, Daerah Khusus Ibukota Jakarta 12230, Indonesia","['car_dealer', 'store', 'point_of_interest', 'establishment']"
Universal Auto / Bengkel Volvo Pak Edi,Volvo,-6.2922517,106.683097,"Jl. Komp. Bsd, Lengkong Wetan, Kec. Serpong, Kota Tangerang Selatan, Banten 15310, Indonesia","['car_repair', 'point_of_interest', 'establishment']"
Volkswagen Audi Jakarta,Volkswagen,-6.292661,106.784779,"Gedung Metropolitan Tower, Jl. RA Kartini Kav.14, TB. Simatupang, RT.10/RW.4, Cilandak Barat, Cilandak, RT.10/RW.4, Cilandak Bar., Kec. Cilandak, Kota Jakarta Selatan, Daerah Khusus Ibukota Jakarta 12490, Indonesia","['car_dealer', 'store', 'point_of_interest', 'establishment']"
Volkswagen Golf,Volkswagen,-6.1585279,106.8414835,"Jl. Angkasa No.18, RT.1/RW.2, Gn. Sahari Sel., Kec. Kemayoran, Kota Jakarta Pusat, Daerah Khusus Ibukota Jakarta 10610, Indonesia","['car_dealer', 'store', 'point_of_interest', 'establishment']"
VOlKSWAGEN KEMAYORAN 3S,Volkswagen,-6.1583702,106.8413795,"Jl. Angkasa No.18, RT.1/RW.2, Gn. Sahari Sel., Kec. Kemayoran, Kota Jakarta Pusat, Daerah Khusus Ibukota Jakarta 10610, Indonesia","['car_dealer', 'store', 'point_of_interest', 'establishment']"
Volkswagen TB Simatupang,Volkswagen,-6.2927809,106.784654,"Gedung Metropolitan Tower, Jl. R.A.Kartini Jl. TB Simatupang No.Kav.14, RT.10/RW.4, Cilandak Bar., Kec. Cilandak, Kota Jakarta Selatan, Daerah Khusus Ibukota Jakarta 12430, Indonesia","['car_dealer', 'store', 'point_of_interest', 'establishment']"
Volkswagen TB Simatupang,Volkswagen,-6.293938,106.825268,"Gedung Metropolitan Tower, Jl. R.A.Kartini Jl. TB Simatupang No.kav.14, RT.7/RW.4, Jati Padang, Kec. Ps. Minggu, Kota Jakarta Selatan, Daerah Khusus Ibukota Jakarta 12430, Indonesia","['car_dealer', 'store', 'point_of_interest', 'establishment']"
Volvo,Volvo,-6.264322,106.799769,"Duta Mas Fatmawati Lantai 1, JL. RS. Fatmawati No. 39, Cipete Utara, Kebayoran Baru, RT.1/RW.5, Cipete Utara, Kec. Kby. Baru, Kota Jakarta Selatan, Daerah Khusus Ibukota Jakarta 12150, Indonesia","['car_repair', 'store', 'point_of_interest', 'establishment']"
Volvo Home Service,Volvo,-6.3742219,106.8571573,"Jl. Kramat Benda No.9, Bakti Jaya, Kec. Sukmajaya, Kota Depok, Jawa Barat 16418, Indonesia","['car_repair', 'point_of_interest', 'establishment']"
Volvo Service,Volvo,-6.2840886,106.8070436,"Jl. Pangeran Antasari Raya No. 39 Cilandak Cilandak Jakarta Selatan DKI Jakarta, RT.12/RW.13, Cilandak Bar., Kec. Cilandak, Kota Jakarta Selatan, Daerah Khusus Ibukota Jakarta 12430, Indonesia","['car_dealer', 'store', 'point_of_interest', 'establishment']"
Volvo Servis Vota Motor,Volvo,-6.2725802,106.8086136,"Volvo Servis Vota Motor No.84, Jl. Pangeran Antasari, RT.1/RW.1, Cipete Sel., Kec. Cilandak, Kota Jakarta Selatan, Daerah Khusus Ibukota Jakarta 12410, Indonesia","['car_repair', 'point_of_interest', 'establishment']"
VW BSD,VW,-6.276306,106.65894,"BSD Sektor VI, Jl. Raya Serpong No.3, Lengkong Karya, Kec. Serpong, Kota Tangerang Selatan, Banten 15320, Indonesia","['car_dealer', 'store', 'point_of_interest', 'establishment']"
VW Indonesia,VW,-6.1582009,106.8416126,"Jalan Angkasa No, RT.1/RW.2, Gn. Sahari Sel., Kec. Kemayoran, Kota Jakarta Pusat, Daerah Khusus Ibukota Jakarta 10610, Indonesia","['car_dealer', 'store', 'point_of_interest', 'establishment']"
VW Indosentosa Trada,VW,-6.186462,106.731476,"Jalan Komplek Puri Blok R No.1 Kembangan, RT.1/RW.2, South Kembangan, Kembangan, West Jakarta City, Jakarta 11610, Indonesia","['car_dealer', 'store', 'point_of_interest', 'establishment']"
VW Jakarta,VW,-6.1583035,106.8415106,"Jl. Angkasa No.18, RT.2/RW.9, Gn. Sahari Sel., Kec. Kemayoran, Kota Jakarta Pusat, Daerah Khusus Ibukota Jakarta 10610, Indonesia","['car_dealer', 'car_repair', 'store', 'point_of_interest', 'establishment']"
VW Polo Jakarta,VW,-6.1248509,106.7556604,"Jalan Pantai Indah Selatan 1, blok ST No.1A, Kota Jkt Utara, RT.1/RW.6, Kapuk Muara, Penjaringan, Kota Jkt Utara, Daerah Khusus Ibukota Jakarta 14460, Indonesia","['car_dealer', 'store', 'point_of_interest', 'establishment']"
VW Puri Indah,VW,-6.1864353,106.731477,"Jl. Komplek Puri Indah Blok R No. 1, Kembangan Sel., Daerah Khusus Ibukota Jakarta 11610, Indonesia","['car_dealer', 'store', 'point_of_interest', 'establishment']"
VW Wisma Indomobil,VW,-6.2424664,106.8636189,"Wisma Indomobil 1 lantai 3, RW.6, Kp. Melayu, Kecamatan Jatinegara, Kota Jakarta Timur, Daerah Khusus Ibukota Jakarta 13330, Indonesia","['car_dealer', 'store', 'point_of_interest', 'establishment']"
Wuling Automobile Dealers Kapuk,Wuling,-6.122655,106.731184,"Jalan Lingkar Luar 129 2 1, RT.12/RW.11, Cengkareng Tim., Kembangan, Kota Jakarta Barat, Daerah Khusus Ibukota Jakarta 11610, Indonesia","['car_dealer', 'store', 'point_of_interest', 'establishment']"
Wuling Bekasi,Wuling,-6.2268632,107.0037898,"Jalan Bulevar Selatan, Marga Mulya, Kec. Bekasi Utara, Kota Bks, Jawa Barat 17143, Indonesia","['car_dealer', 'store', 'point_of_interest', 'establishment']"
Wuling Bekasi Siliwangi,Wuling,-6.2770161,106.9923891,"Jl. Raya Siliwangi No.5, Bojong Rawalumbu, Rawalumbu, Kota Bks, Jawa Barat 17116, Indonesia","['car_dealer', 'store', 'point_of_interest', 'establishment']"
Wuling Bekasi Summarecon,Wuling,-6.2267688,107.0036661,"Kawasan Automotive Exhibition Center, Jl. Boulevard Selatan, Summarecon Bekasi, Marga Mulya, Kec. Bekasi Utara, Kota Bks, Jawa Barat 17143, Indonesia","['car_dealer', 'store', 'point_of_interest', 'establishment']"
Wuling Bintaro,Wuling,-6.272681,106.726416,"Jl. Menteng Raya Blok FA 2 No. 27, Pd. Ranji, Kec. Pd. Aren, Kota Tangerang Selatan, Banten 12260, Indonesia","['car_dealer', 'store', 'point_of_interest', 'establishment']"
WULING BOGOR,Wuling,-6.5759471,106.8072919,"Padjadjaran Road No.100A, Bantarjati, North Bogor, Bogor City, West Java 16153, Indonesia","['car_dealer', 'store', 'point_of_interest', 'establishment']"
Wuling Cengkareng,Wuling,-6.1341827,106.7306955,"Jakan Lingkar Luar barat No 7, RT.7/RW.14, Cengkareng Tim., Kecamatan Cengkareng, Kota Jakarta Barat, Daerah Khusus Ibukota Jakarta 11730, Indonesia","['car_dealer', 'store', 'point_of_interest', 'establishment']"
Wuling Cikokol,Wuling,-6.203613,106.6279421,"Jl. MH. Thamrin No.75, Cikokol, Kec. Tangerang, Kota Tangerang, Banten 15143, Indonesia","['car_dealer', 'store', 'point_of_interest', 'establishment']"
Wuling Cimone,Wuling,-6.1864407,106.6085099,"Jl. Gatot Subroto No.km 3, Cimone, Kec. Karawaci, Kota Tangerang, Banten 15114, Indonesia","['car_dealer', 'store', 'point_of_interest', 'establishment']"
WuLing Club Indonesia,Wuling,-6.303363,106.752685,"Jl. WR Supratman No. 3, Kampung Utan, Ciputat, Tangsel, Cemp. Putih, Kec. Ciputat Tim., Kota Tangerang Selatan, Banten 15412, Indonesia","['point_of_interest', 'establishment']"
Wuling dealer cibubur,Wuling,-6.3887931,106.9447009,"Jl.Alternatif Cibubur Km 6 No1 8, Nagrak, Gunung Putri, Nagrak, Kec. Gn. Putri, Bogor, Jawa Barat 16967, Indonesia","['car_dealer', 'store', 'point_of_interest', 'establishment']"
Wuling Depok,Wuling,-6.4015982,106.8188946,"Jl. Kartini No.46, Depok, Kec. Pancoran Mas, Kota Depok, Jawa Barat 16431, Indonesia","['point_of_interest', 'establishment']"
WULING GADING SERPONG,Wuling,-6.2584034,106.6194911,"Jl. Boulevard Gading Serpong Kav. S No. 15 Sumarecon Gading, Serpong, Tangerang, Banten 15821, Indonesia","['car_dealer', 'store', 'point_of_interest', 'establishment']"
Wuling Garuda,Wuling,-6.1612894,106.8466754,"74 Jalan Garuda 1, RT.1/RW.7, 8, Kemayoran, Kec. Kemayoran, Kota Jakarta Pusat, Daerah Khusus Ibukota Jakarta 10620, Indonesia","['car_dealer', 'store', 'point_of_interest', 'establishment']"
Wuling jatiwaringin,Wuling,-6.2756659,106.9126398,"Jatiwaringin, Pondok Gede, Bekasi City, West Java 17411, Indonesia","['point_of_interest', 'establishment']"
Wuling Jayakarta,Wuling,-6.1395171,106.8197106,"Jl. Pangeran Jayakarta No.33, RT.1/RW.3, Taman Sari, Kec. Sawah Besar, Jakarta, Daerah Khusus Ibukota Jakarta 10730, Indonesia","['car_dealer', 'store', 'point_of_interest', 'establishment']"
Wuling Kapuk,Wuling,-6.1224114,106.7316674,"Jl. Lkr. Luar No.129, RT.10/RW.2, Cengkareng Tim., Kecamatan Cengkareng, Kota Jkt Utara, Daerah Khusus Ibukota Jakarta 10130, Indonesia","['car_dealer', 'store', 'point_of_interest', 'establishment']"
Wuling Karawaci,Wuling,-6.2151148,106.6193265,"Jl. Imam Bonjol No.10, Panunggangan Bar., Kec. Cibodas, Kota Tangerang, Banten 15138, Indonesia","['car_dealer', 'store', 'point_of_interest', 'establishment']"
Wuling Karawang,Wuling,-6.303876,107.305803,"Jl. Tuparev No. 437, RT/04 RW/04, Kel. Karawang Wetan, Kec. Karawang Timur,, Nagasari, West Karawang, Karawang Regency, West Java 41314, Indonesia","['car_dealer', 'store', 'point_of_interest', 'establishment']"
Wuling Kelapa Gading,Wuling,-6.1742465,106.8969775,"Jl. Kelapa Gading Boulevard Blok DG No. 1, RT.4/RW.17, Klp. Gading Tim., Kec. Klp. Gading, Kota Jkt Utara, Daerah Khusus Ibukota Jakarta 14240, Indonesia","['car_dealer', 'store', 'point_of_interest', 'establishment']"
Wuling Lubang Buaya,Wuling,-6.28819,106.905928,"Jl. Lubang Buaya No.17, RT.11/RW.9, Lubang Buaya, Kec. Cipayung, Kota Jakarta Timur, Daerah Khusus Ibukota Jakarta 13810, Indonesia","['point_of_interest', 'establishment']"
Wuling Motor Kalimalang,Wuling,-6.2477614,106.9166585,"Jl. Raya Kalimalang No 20A, Duren Sawit, Kalimalang, RT.9/RW.7, Pondok Bambu, Duren Sawit, East Jakarta City, Jakarta 13440, Indonesia","['car_dealer', 'store', 'point_of_interest', 'establishment']"
Wuling Motors,Wuling,-6.214238,106.820624,"Jl. Jend. Sudirman. Kav. 29-31, World Trade Center Tower 1, , Floor 17, RT.4/RW.2, Karet, RT.4/RW.2, Kuningan, Karet, Jakarta, Daerah Khusus Ibukota Jakarta 12920, Indonesia","['point_of_interest', 'establishment']"
Wuling MOTORS Cilandak KKO,Wuling,-6.3055201,106.81442,"RT.6/RW.8, Ragunan, Pasar Minggu, South Jakarta City, Jakarta 12550, Indonesia","['car_dealer', 'store', 'point_of_interest', 'establishment']"
Wuling Motors kapuk Sales Service,Wuling,-6.1221607,106.7316684,"Lantai 3, Jalan Lingkar luar Barat No.129, Cengkareng Timur, RT.5/RW.1, RT.13/RW.11, Cengkareng Tim., Kecamatan Cengkareng, Kota Jakarta Barat, Daerah Khusus Ibukota Jakarta 11610, Indonesia","['car_dealer', 'store', 'point_of_interest', 'establishment']"
Wuling Pondok Gede,Wuling,-6.2855952,106.8994889,"Jl. Raya Pd. Gede No.49, RT.3/RW.8, Lubang Buaya, Kec. Cipayung, Kota Jakarta Timur, Daerah Khusus Ibukota Jakarta 13810, Indonesia","['car_dealer', 'store', 'point_of_interest', 'establishment']"
WULING PRIMA AUTOWORLD,Wuling,-6.1642993,106.667532,"Km. 21, Poris Plawad, Kec. 11112, Daan Mogot Road, Poris Plawad, Batuceper, Tangerang City, Banten 15122, Indonesia","['car_dealer', 'store', 'point_of_interest', 'establishment']"
Wuling Prima Fatmawati,Wuling,-6.2675765,106.7976129,"Jalan RS Fatmawati No.45A-E, RT.6/RW.5, Cipete Sel., Kec. Cilandak, Kota Jakarta Selatan, Daerah Khusus Ibukota Jakarta 12410, Indonesia","['car_dealer', 'store', 'point_of_interest', 'establishment']"
Wuling Serang,Wuling,-6.1043798,106.1370583,"Jl. Raya Serang Cilegon Km. 3 No. 6, Drangong Taktakan, Serang, Banten., Drangong, Kec. Taktakan, Kota Serang, Banten 42111, Indonesia","['car_dealer', 'store', 'point_of_interest', 'establishment']"
Wuling Serpong,Wuling,-6.2585041,106.6195129,"Jl. Gading Serpong Boulevard Kav. S No. 15, Summarecon Gading Serpong 082213293368, Curug Sangereng, Kec. Klp. Dua, Banten 15810, Indonesia","['car_dealer', 'store', 'point_of_interest', 'establishment']"
Wuling Tangerang,Wuling,-6.2049183,106.604244,"jln raya boulevard Kav s no 15, Cibodas Baru, Kec. Cibodas, Kota Tangerang, Banten 15821, Indonesia","['car_dealer', 'store', 'point_of_interest', 'establishment']"
Wuling Tebet,Wuling,-6.2332013,106.8447339,"Jl. Prof. DR. Soepomo No.30, RT.13/RW.2, Tebet Bar., Kec. Tebet, Kota Jakarta Selatan, Daerah Khusus Ibukota Jakarta 12810, Indonesia","['car_dealer', 'store', 'point_of_interest', 'establishment']"
Wuling Titanium Cibubur,Wuling,-6.3411021,106.8699953,"Jl. Raya Bogor No.21, RT.2/RW.4, Pekayon, Kec. Ps. Rebo, Kota Jakarta Timur, Daerah Khusus Ibukota Jakarta 13710, Indonesia","['store', 'point_of_interest', 'establishment']"
Zahrah Motor Mini,Misc,-6.33747,107.3112191,"Jl. Raya Tlk. Jambe, Telukjambe, Kec. Telukjambe Tim., Kabupaten Karawang, Jawa Barat 41361, Indonesia","['store', 'point_of_interest', 'establishment']"
ZR mini motor,Misc,-6.511388,106.841948,"Jl. Raya Jakarta-Bogor No.km, Nanggewer, Cibinong, Bogor, Jawa Barat 16912, Indonesia","['store', 'point_of_interest', 'establishment']"